OID,Number,Abbrev,Private,Type,Bldg,BldgAbbr,BldgName,YearBuilt,NumFloors,Address,City,Zip,MapDisplay,Shape_Length,Shape_Area
,4004,,No,UNIVERSITY,4004,,Beef Cattle Center Equip Storage,1993,01,7771 Raymond Stotzer Pw STE 4004,College Station,77843,Beef Cattle Center Equip Storage |  | 4004,55.466910195778695,189.475674505287486
,4003,,No,UNIVERSITY,4003,,Beef Cattle Center Feed Mill,1993,01,7771 Raymond Stotzer Pw STE 4003,College Station,77843,Beef Cattle Center Feed Mill |  | 4003,79.239776881244580,371.535609953730670
,4016,,No,UNIVERSITY,4016,,Farrowing/Nursery,1997,01,7767 Raymond Stotzer Pw,College Station,77843,Farrowing/Nursery |  | 4016,57.473370061474739,165.237097482437406
,4012,,No,UNIVERSITY,4012,,Sheep Feeding,1997,01,,College Station,77843,Sheep Feeding |  | 4012,93.867001972177519,517.156642073453440
,4010,,No,UNIVERSITY,4010,,Nutrition/Physiology Center,1997,01,7763 Raymond Stotzer Pw,College Station,77843,Nutrition/Physiology Center |  | 4010,190.361067970817800,1577.120066043767793
,4014,,No,UNIVERSITY,4014,,Cattle Processing,1997,01,,College Station,77843,Cattle Processing |  | 4014,41.448899183304988,98.088289497205949
,4015,,No,UNIVERSITY,4015,,Interdisciplinary Barn,1997,01,,College Station,77843,Interdisciplinary Barn |  | 4015,124.343645487240764,903.546808547520413
,4013,,No,UNIVERSITY,4013,,Cattle Feeding,1997,01,,College Station,77843,Cattle Feeding |  | 4013,163.337161573371162,1159.000698870186625
,4017,,No,UNIVERSITY,4017,,Compost Shed,1997,01,,College Station,77843,Compost Shed |  | 4017,90.210849346071441,463.668709890962873
,4025,,No,UNIVERSITY,4025,,Thomsen Animal Euthenics Center,1997,01,7735 Raymond Stotzer Pw,College Station,77843,Thomsen Animal Euthenics Center |  | 4025,125.770787116165465,467.378135082179483
,4021,,No,UNIVERSITY,4021,,Livestock Housing,1997,01,7733 Raymond Stotzer Pw,College Station,77843,Livestock Housing |  | 4021,146.178643869461411,649.971178474585031
,4020,,No,UNIVERSITY,4020,,Sheep & Goat Center,1997,01,7729 Raymond Stotzer Pw,College Station,77843,Sheep & Goat Center |  | 4020,66.232316091493900,235.787657023284225
,4022,,No,UNIVERSITY,4022,,Isolation Barn,1997,01,7731 Raymond Stotzer Pw,College Station,77843,Isolation Barn |  | 4022,93.877491985440358,345.574581004807953
,4001,,No,UNIVERSITY,4001,,White (G.R.) Conference Center,1994,01,7707 Raymond Stotzer Pw,College Station,77843,White (G.R.) Conference Center |  | 4001,96.557345868067401,334.846716518688083
,0055,,No,UNIVERSITY,0055,,Storage Shed,1987,01,201 Reveille Rd,College Station,77843,Storage Shed |  | 0055,62.346582458224788,224.484003976751779
,0046,,No,UNIVERSITY,0046,,Farm Service Northwest Shed,1984,01,201 Reveille Rd,College Station,77843,Farm Service Northwest Shed |  | 0046,45.840121142171469,114.891868943414607
,0040,,No,UNIVERSITY,0040,,Farm Service Office Bldg,1984,01,14250 FM 60 E,College Station,77843,Farm Service Office Bldg |  | 0040,68.215029299871560,241.949387019200344
,0051,,No,UNIVERSITY,0051,,Field Lab Implement Shed,1980,01,201 Reveille Rd,College Station,77843,Field Lab Implement Shed |  | 0051,87.623064221298961,391.079216933701389
,0045,,No,UNIVERSITY,0045,,Farm Service West Wing Shed,1984,01,201 Reveille Rd,College Station,77843,Farm Service West Wing Shed |  | 0045,100.637896670492438,327.195485946291626
,0041,,No,UNIVERSITY,0041,,Farm Service Lab & Office,1984,01,201 Reveille Rd,College Station,77843,Farm Service Lab & Office |  | 0041,40.104860170214629,93.055985525496709
,0043,,No,UNIVERSITY,0043,,Farm Service Maint Shed,1984,01,201 Reveille Rd,College Station,77843,Farm Service Maint Shed |  | 0043,52.002243151755430,140.940651960327074
,0042,,No,UNIVERSITY,0042,,Farm Service East Wing,1984,01,201 Reveille Rd,College Station,77843,Farm Service East Wing |  | 0042,124.793715411031656,410.315498989334174
,0054,,No,UNIVERSITY,0054,,Sample Processing Laboratory,1987,01,201 Reveille Rd,College Station,77843,Sample Processing Laboratory |  | 0054,62.934927765637731,175.602461784650188
,,,No,UNIVERSITY,,,,,,,,, |  | ,20.817442892340779,24.508322509100438
, ,,No,UNIVERSITY,,,,,,,,, |  | ,23.133191034691425,33.359429514375137
,0050,,No,UNIVERSITY,0050,,FIELD LAB EQUIPMENT SHED,1980,01,201 Reveille Rd,College Station,77843,FIELD LAB EQUIPMENT SHED |  | 0050,136.339846789082401,687.688904615804745
, ,,No,UNIVERSITY,,,,,,,,, |  | ,13.720172796522155,11.731184001572789
, ,,No,UNIVERSITY,,,,,,,,, |  | ,28.260185819585725,49.394104011761307
, ,,No,UNIVERSITY,,,,,,,,, |  | ,10.454998073671668,6.805539000027687
, ,,No,UNIVERSITY,,,,,,,,, |  | ,11.964270510806399,8.945381512776152
, ,,No,UNIVERSITY,,,,,,,,, |  | ,6.612224115149056,2.732530495768756
, ,,No,UNIVERSITY,,,,,,,,, |  | ,12.194902596797554,9.208032006835223
,1517,,No,UNIVERSITY,1517,,Horticulture Cabin,1999,01,,College Station,77843,Horticulture Cabin |  | 1517,35.480136966657639,76.329395449022030
, ,,No,UNIVERSITY,,,,,,,,, |  | ,19.679503191824722,21.579417996678099
, ,,No,UNIVERSITY,,,,,,,,, |  | ,103.965749195809607,642.450587414585470
, ,,No,UNIVERSITY,,,,,,,,, |  | ,57.414160417952473,204.601404477479122
, ,,No,UNIVERSITY,,,,,,,,, |  | ,23.154966995150609,27.246940488273768
, ,,No,UNIVERSITY,,,,,,,,, |  | ,78.175895261393038,216.935577996246252
,,TPWD,Yes,STATE,,,,,,,,, | TPWD | ,122.474127487625623,755.081957940915231
,0057,,No,UNIVERSITY,0057,,Hatchery Bldg,1994,01,,College Station,77843,Hatchery Bldg |  | 0057,80.458415645874538,309.583792973810432
,0039,ARTF,No,UNIVERSITY,0039,ARTF,Aquaculture Research Teaching Facility,1971,01,300 Aquatic Facility Rd,College Station,77843,Aquaculture Research Teaching Facility | ARTF | 0039,100.530154183486815,446.689175545899104
,0052,,No,UNIVERSITY,0052,,Pump House,1994,01,344 Aquatic Rd,College Station,77843,Pump House |  | 0052,17.338384961656981,18.059522981718228
,0047,,No,UNIVERSITY,0047,,Aquatic Research Center,1972,01,350 Aquatic Facility Rd,College Station,77843,Aquatic Research Center |  | 0047,74.721253965923339,313.137833997589325
,0053,,No,UNIVERSITY,0053,,Hatchery,1994,01,362 Aquatic Rd,College Station,77843,Hatchery |  | 0053,31.724820849970627,51.108870013154224
, ,,No,UNIVERSITY,,,,,,,,, |  | ,7.772546461795768,3.775643003803834
, ,,No,UNIVERSITY,,,,,,,,, |  | ,43.709129993752917,83.382530507078741
, ,,No,UNIVERSITY,,,,,,,,, |  | ,12.682325604593082,9.558274496996134
, ,,No,UNIVERSITY,,,,,,,,, |  | ,25.290716884202187,37.791550486856963
, ,USDA,No,FEDERAL,,,,,,,,, | USDA | ,35.174174199075068,54.933471579153924
, ,USDA,No,FEDERAL,,,,,,,,, | USDA | ,114.744503698633281,522.461408738517093
, ,,No,UNIVERSITY,,,,,,,,, |  | ,5.751632490363224,1.926792499473766
, ,,No,UNIVERSITY,,,,,,,,, |  | ,5.991547738828332,2.104158999769002
, ,USDA,No,FEDERAL,,,,,,,,, | USDA | ,80.996175861997727,380.243833590224085
, ,USDA,No,FEDERAL,,,,,,,,, | USDA | ,54.335458422987479,130.725475051876003
, ,USDA,No,FEDERAL,,,,,,,,, | USDA | ,17.577949613697243,19.297846063669962
, ,,No,OTHER,,,,,,,,, |  | ,64.071155058175847,210.538207976196531
, ,,No,UNIVERSITY,,,,,,,,, |  | ,10.469744450626699,6.709449495846510
,0007,,No,UNIVERSITY,0007,,Maintenance Machine Shed,1948,01,10720 FM 50,College Station,77843,Maintenance Machine Shed |  | 0007,76.138016362250241,319.103500065833316
,0010,,No,UNIVERSITY,0010,,Implement Barn,1959,01,,College Station,77843,Implement Barn |  | 0010,141.859986084289375,477.307177437646544
,0014,,No,UNIVERSITY,0014,,Implement Storage Shed,1955,01,10720 FM 50,College Station,77843,Implement Storage Shed |  | 0014,97.630615243715965,303.117077986856657
, ,,No,UNIVERSITY,,,,,,,,, |  | ,102.738349473323325,333.926632114603365
,0113,,No,UNIVERSITY,0113,,Farm Superintendent House,1980,01,10724 FM 50,College Station,77843,Farm Superintendent House |  | 0113,61.186337222471600,202.706085474180099
,0114,,No,UNIVERSITY,0114,,Office Metal Building,1974,01,,College Station,77843,Office Metal Building |  | 0114,35.102212664278980,76.466929967716027
, ,,No,UNIVERSITY,,,,,,,,, |  | ,19.837556499384597,22.324714991444573
, ,,No,UNIVERSITY,,,,,,,,, |  | ,4.002210148298389,0.998109499180943
, ,,No,UNIVERSITY,,,,,,,,, |  | ,67.618996986434098,362.635061024646006
,4052,TPSP,No,UNIVERSITY,4052,TPSP,WWTP Secondary Pump Building,1994,01,,College Station,77843,WWTP Secondary Pump Building | TPSP | 4052,37.901766092020196,86.850419004769762
, ,,No,UNIVERSITY,,,,,,,,, |  | ,17.792912720537785,15.388862479113786
, ,,No,UNIVERSITY,,,,,,,,, |  | ,68.145364125238487,368.288869993855371
,4053,TPDB,No,UNIVERSITY,4053,TPDB,WWTP Disinfection Building,1994,01,,College Station,77843,WWTP Disinfection Building | TPDB | 4053,20.519146383231021,26.306903993698867
, ,,No,UNIVERSITY,,,,,,,,, |  | ,48.092315625076495,51.754939970017830
,4002,,No,UNIVERSITY,4002,,Beef Cattle Center Headquarters,1993,01,7771 Raymond Stotzer Pw,College Station,77843,Beef Cattle Center Headquarters |  | 4002,97.985385654044862,487.839861540720449
, ,,No,UNIVERSITY,,,,,,,,, |  | ,150.189648654453663,1367.510771979728588
, ,,No,UNIVERSITY,,,,,,,,, |  | ,13.454407695118718,11.229346003216595
, ,,No,UNIVERSITY,,,,,,,,, |  | ,9.478745705588898,4.443440508684635
, ,,No,UNIVERSITY,,,,,,,,, |  | ,6.636491905243480,2.734943997318059
,4026,,No,UNIVERSITY,4026,,SHEEP FEEDING BARN-BURLESON CO.,2008,01,10720 FM 50,Somerville,77843,SHEEP FEEDING BARN-BURLESON CO. |  | 4026,165.490291519189384,1534.151383593206447
,4027,,No,UNIVERSITY,4027,,BEEF RESEARCH UNIT-BURLESON CO.,2008,01,10720 FM 50,Somerville,77843,BEEF RESEARCH UNIT-BURLESON CO. |  | 4027,119.232484591263784,561.458569910534379
, ,,No,UNIVERSITY,,,,,,,,, |  | ,52.361602118001628,171.160750991076043
, ,,No,UNIVERSITY,,,,,,,,, |  | ,69.757755590829191,303.890169444585183
, ,USDA,No,FEDERAL,,,,,,,,, | USDA | ,95.796905150952597,362.480571298938798
, ,USDA,No,FEDERAL,,,,,,,,, | USDA | ,94.934104737768294,393.903250769088629
,4011,,No,UNIVERSITY,4011,,Equipment Storage/Diet Prep,1997,01,7767 Raymond Stotzer Pw STE 4011,College Station,77843,Equipment Storage/Diet Prep |  | 4011,77.491061946405239,375.094663815754529
,4037,,No,UNIVERSITY,4037,,HortTREC Office-Warehouse,2015,01,3199 CR 269 E,Somerville,77843,HortTREC Office-Warehouse |  | 4037,143.854720590337052,1063.284698468699162
,4036,,No,UNIVERSITY,4036,,HortTREC Greenhouse North,2015,01,3199 CR 269 E,Somerville,77843,HortTREC Greenhouse North |  | 4036,49.022990815487766,141.677905649662563
,,,No,OTHER,,,,,,,,, |  | ,84.868731797734057,367.028002203249571
,4035,,No,OTHER,4035,,HortTREC Pesticide Locker,2015,01,3199 CR 269 E,Somerville,77843,HortTREC Pesticide Locker |  | 4035,78.532483720578654,274.925380960377709
,0044,,No,UNIVERSITY,0044,,Farm Service Chemical Storage,1995,01,201 Reveille Rd,College Station,77843,Farm Service Chemical Storage |  | 0044,44.454498422928125,105.229283279693760
,,USDA,No,FEDERAL,,,,,,,,, | USDA | ,73.943880953421655,210.833576805138904
,0060,,No,OTHER,0060,,Rainwater Restroom,2008,01,,College Station,77843,Rainwater Restroom |  | 0060,72.194388643358053,283.770530335086846
,4034,,No,UNIVERSITY,4034,,HortTREC Headhouse North,2016,01,3199 CR 269 E,Somerville,77843,HortTREC Headhouse North |  | 4034,30.850806047506136,59.485083843634470
,4030,,No,UNIVERSITY,4030,,HortTREC Greenhouse Complex,2016,01,3199 CR 269 E,Somerville,77843,HortTREC Greenhouse Complex |  | 4030,204.606540483873005,2569.459278129520044
,4031,,No,UNIVERSITY,4031,,HortTREC Complex Headhouse,2016,01,3199 CR 269 E,Somerville,77843,HortTREC Complex Headhouse |  | 4031,72.107567827882804,279.243775455748846
,,,No,OTHER,,,,,,,,, |  | ,17.945480729921790,19.903849936321279
,4032,,No,OTHER,4032,,HortTREC Winteringhouse West,2016,01,3199 CR 269 E,Somerville,77843,HortTREC Winteringhouse West |  | 4032,55.870876023065115,175.126528268882595
,4033,,No,OTHER,4033,,HortTREC Winteringhouse East,2016,01,3199 CR 269 E,Somerville,77843,HortTREC Winteringhouse East |  | 4033,56.405802599063534,177.667279054359767
,,,No,OTHER,,,,,,,,, |  | ,96.348910301378567,580.184319678630686
,0082,,,,0082,,Wildlife and Fisheries Building C,,,,,,Wildlife and Fisheries Building C |  | 0082,19.678668797589143,23.002374087893916
,0081,,,,0081,,Wildlife and Fisheries Building B,,,,,,Wildlife and Fisheries Building B |  | 0081,51.209454250587008,163.752814526909503
,0080,,,,0080,,Wildlife and Fisheries Building A,,,,,,Wildlife and Fisheries Building A |  | 0080,25.676537136152429,39.997523821867489
, ,,No,UNIVERSITY,,,,,,,,, |  | ,69.014494724854302,377.870082998844453
,1365,,No,UNIVERSITY,1365,,ESTI EMS Classroom,2002,01,1911 Emergency Response Dr,College Station,77843,ESTI EMS Classroom |  | 1365,52.531449091955821,140.899849988260883
,1367,,No,UNIVERSITY,1367,,ESTI EMS Office,2002,01,1915 Emergency Response Dr,College Station,77843,ESTI EMS Office |  | 1367,52.530976045764589,140.900301485810473
, ,,No,UNIVERSITY,,,,,,,,, |  | ,6.443478454941474,2.530620999765858
,1364,,No,UNIVERSITY,1364,,EMS Classroom/EMS Storage,2001,01,1919 Emergency Response Dr,College Station,77843,EMS Classroom/EMS Storage |  | 1364,52.352156401103173,140.163464481203590
,1359,,No,UNIVERSITY,1359,,ESTI Hazardous Materials Classrm/Mrkting Office,2001,01,1923 Emergency Response Dr,College Station,77843,ESTI Hazardous Materials Classrm/Mrkting Office |  | 1359,52.405013478950011,140.422066940530954
,1358,,No,UNIVERSITY,1358,,ESTI Business Office,2001,01,1927 Emergency Response Dr,College Station,77843,ESTI Business Office |  | 1358,52.371825442203871,140.336633958737906
, ,,No,UNIVERSITY,,,,,,,,, |  | ,20.991289345249438,26.193870519329057
, ,,No,UNIVERSITY,,,,,,,,, |  | ,16.152370907331424,14.181528995501905
, ,,No,UNIVERSITY,,,,,,,,, |  | ,67.932924134977455,365.964322022446140
, ,,No,UNIVERSITY,,,,,,,,, |  | ,34.983655880259512,96.946403006010627
, ,,No,UNIVERSITY,,,,,,,,, |  | ,34.620417353444978,94.943339969120771
, ,,No,UNIVERSITY,,,,,,,,, |  | ,68.979123930994149,371.345371001485091
,4054,TPBB,No,UNIVERSITY,4054,TPBB,WWTP Digester Boiler Building,1994,01,,College Station,77843,WWTP Digester Boiler Building | TPBB | 4054,67.846386196195965,173.562477541931969
, ,,No,UNIVERSITY,,,,,,,,, |  | ,64.055715967070228,325.403679511586745
, ,,No,UNIVERSITY,,,,,,,,, |  | ,7.256766178994793,3.270551504492819
,4051,TPPP,No,UNIVERSITY,4051,TPPP,WWTP Primary Pump Building,1994,01,,College Station,77843,WWTP Primary Pump Building | TPPP | 4051,48.734779839868281,148.181042501643731
, ,,No,UNIVERSITY,,,,,,,,, |  | ,6.982387667440479,2.918568994114310
, ,,No,UNIVERSITY,,,,,,,,, |  | ,63.834593690969520,323.175977472049226
, ,,No,UNIVERSITY,,,,,,,,, |  | ,7.289747177170024,3.156946002874986
, ,,No,UNIVERSITY,,,,,,,,, |  | ,7.297272685338585,3.321426507579222
, ,,No,UNIVERSITY,,,,,,,,, |  | ,46.448207781682797,88.615814945321006
, ,,No,UNIVERSITY,,,,,,,,, |  | ,78.834208963190392,95.467408401836536
,1272,,No,UNIVERSITY,1272,,Easterwood Airport Control Tower,2005,01,,College Station,77843,Easterwood Airport Control Tower |  | 1272,63.468088913907046,142.533735464148094
,1273,,No,UNIVERSITY,1273,,Easterwood Airport Electrical Vault,,,,College Station,77843,Easterwood Airport Electrical Vault |  | 1273,27.126901851529901,36.705223092750707
,1360,,No,UNIVERSITY,1360,,ESTI Marine/EHS Office,2001,01,,College Station,77843,ESTI Marine/EHS Office |  | 1360,50.613982234732021,140.393253958646881
, ,,No,UNIVERSITY,,,,,,,,, |  | ,44.475354768278862,74.721689037573768
, ,,No,UNIVERSITY,,,,,,,,, |  | ,26.665939822358190,26.672142480306402
,3053,,No,UNIVERSITY,3053,,GERG Portable Building,1999,01,833 Graham Rd,College Station,77843,GERG Portable Building |  | 3053,38.125974406668064,65.746371961328634
,3054,,No,UNIVERSITY,3054,,GERG Warehouse,1999,01,833 Graham Rd,College Station,77843,GERG Warehouse |  | 3054,90.356898458039211,453.433326475861008
,3051,,No,UNIVERSITY,3051,,GERG East Lab & Office Building,1999,02,833 Graham Rd,College Station,77843,GERG East Lab & Office Building |  | 3051,177.968853895356261,625.228288955446942
,3055,,No,UNIVERSITY,3055,,GERG Solvent Shed,1999,01,833 Graham Rd,College Station,77843,GERG Solvent Shed |  | 3055,21.122998845729082,27.756427017086327
,3056,,No,UNIVERSITY,3056,,GERG Gas Shed,1999,01,833 Graham Rd,College Station,77843,GERG Gas Shed |  | 3056,21.249653041205246,28.108117002495185
,3050,,No,UNIVERSITY,3050,GERG,GERG Main Office Building,1999,01,833 Graham Rd,College Station,77843,GERG Main Office Building |  | 3050,143.953160621281825,1290.892825120984753
,3205,AMSB,No,UNIVERSITY,3205,AMSB,Texas A&M System Agency Office Building,2003,02,200 Technology Wy,College Station,77843,Texas A&M System Agency Office Building | AMSB | 3205,340.643386711255687,6125.032416731787634
,0759,WIND,No,ACADEMIC,0759,WIND,Nicks Low Speed Wind Tunnel,1945,02,1775 George Bush Dr W,College Station,77843,Nicks Low Speed Wind Tunnel | WIND | 0759,314.323557614940228,1200.406093067140091
,0744,,No,UNIVERSITY,0744,,Wind Tunnel Compressor Building,1983,01,1787 George Bush Dr W,College Station,77843,Wind Tunnel Compressor Building |  | 0744,44.401244557773424,121.256832056420322
,0755,,No,OTHER,0755,,Easterwood General Aviation Terminal,1958,01,1770 George Bush Dr W,College Station,77843,Easterwood General Aviation Terminal |  | 0755,142.610215889366884,731.464433054633673
,0754,,No,UNIVERSITY,0754,,Easterwood Shops,1944,01,1810 George Bush Dr W,College Station,77843,Easterwood Shops |  | 0754,75.655658887163781,305.039407041308891
,1297,,No,ACADEMIC,1297,,"Land, Air, Space Robotics",1991,01,1188 Nuclear Science Rd,College Station,77843,"Land, Air, Space Robotics |  | 1297",102.063950722450571,527.702688105195648
,1143,,No,UNIVERSITY,1143,,ESTI Fixed System Classroom,1978,01,1595 Nuclear Science Rd,College Station,77843,ESTI Fixed System Classroom |  | 1143,50.670474303129467,156.847321199055386
,0344,,No,UNIVERSITY,0344,,ESTI Recruit Classroom/Fire Station,1983,02,1625 Nuclear Science Rd,College Station,77843,ESTI Recruit Classroom/Fire Station |  | 0344,173.626673926429703,1419.829846387025100
,1337,,No,UNIVERSITY,1337,,ESTI Drill Towners (Steel/Brick) Shelter,,,,College Station,77843,ESTI Drill Towners (Steel/Brick) Shelter |  | 1337,26.886022620828562,44.884273014849100
,0688,,No,UNIVERSITY,0688,,ESTI Industrial Technician Office/Shop,1975,02,,College Station,77843,ESTI Industrial Technician Office/Shop |  | 0688,61.493000039330127,227.228158525765764
,0342,,No,UNIVERSITY,0342,,ESTI Field Maintenance Office,1948,01,1595 Nuclear Science Rd,College Station,77843,ESTI Field Maintenance Office |  | 0342,38.359227065900683,81.344527991642181
,0689,,No,UNIVERSITY,0689,,ESTI Warehouse Building,1976,02,,College Station,77843,ESTI Warehouse Building |  | 0689,61.872771253301813,229.836380464589183
,1287,,No,UNIVERSITY,1287,,ESTI EMS Shop/Storage Building,2003,02,,College Station,77843,ESTI EMS Shop/Storage Building |  | 1287,93.158238433113652,441.233924232467928
,0149,,No,UNIVERSITY,0149,,ESTI Haz Mat Office,1992,01,1595 Nuclear Science Rd,College Station,77843,ESTI Haz Mat Office |  | 0149,39.924782137272665,79.539620983281452
,1140,,No,UNIVERSITY,1140,,ESTI Extinguisher Refill Building,1978,01,1595 Nuclear Science Rd,College Station,77843,ESTI Extinguisher Refill Building |  | 1140,98.533401788225618,603.056819023028083
,0148,,No,UNIVERSITY,0148,,ESTI Haz Mat Classroom,1992,01,1951 Emergency Response Dr,College Station,77843,ESTI Haz Mat Classroom |  | 0148,34.334366732165407,72.144514101453282
,1285,,No,UNIVERSITY,1285,,ESTI Multi-Use Shelter,,,1943 Emergency Response Dr,College Station,77843,ESTI Multi-Use Shelter |  | 1285,53.644847606509281,167.982245484547889
, ,,No,UNIVERSITY,,,,,,,,, |  | ,21.120637927911105,20.016600493028317
,1091,,No,UNIVERSITY,1091,,Easterwood Hangar 1091,1966,02,1820 George Bush Dr W,College Station,77843,Easterwood Hangar 1091 |  | 1091,122.047849523757762,619.002294527779213
,1259,,No,UNIVERSITY,1259,,Airport-Aircraft Hanger J,2000,01,1838 George Bush Dr W,College Station,77843,Airport-Aircraft Hanger J |  | 1259,79.860639344213226,395.886071453518753
,1203,PSNP,No,UNIVERSITY,1203,PSNP,Poultry Sci Nutrition & Phys,1986,01,1202 Harvey Mitchell Pw S Ste 1203,College Station,77843,Poultry Sci Nutrition & Phys | PSNP | 1203,121.839184857966785,652.320205467277447
,1205,,No,UNIVERSITY,1205,,Poultry Science Feed Mixing,1986,01,1202 Harvey Mitchell Pw S Ste 1205,College Station,77843,Poultry Science Feed Mixing |  | 1205,113.752391732570999,405.834249800780583
,1204,,No,UNIVERSITY,1204,,Poultry Sci Environmental Res,1986,01,1202 Harvey Mitchell Pw S Ste 1204,College Station,77843,Poultry Sci Environmental Res |  | 1204,136.416034289355480,676.559535123402384
,1212,,No,UNIVERSITY,1212,,Poultry Science Broiler #2,1986,01,1202 Harvey Mitchell Pw S Ste 1212,College Station,77843,Poultry Science Broiler #2 |  | 1212,104.255953120339953,419.314243027780947
,1206,,No,UNIVERSITY,1206,,Poultry Sci Equipment Storage,1986,01,1202 Harvey Mitchell Pw S Ste 1206,College Station,77843,Poultry Sci Equipment Storage |  | 1206,70.252815088974188,262.668673426758062
,1218,,No,UNIVERSITY,1218,,Refuse Collection Maintenance,1988,01,1204 Harvey Mitchell Pw S,College Station,77843,Refuse Collection Maintenance |  | 1218,43.917378659812769,118.586279021482085
,1210,,No,UNIVERSITY,1210,,PS Intensive Mgt & Rearing,1986,01,1202 Harvey Mitchell Pw S Ste 1210,College Station,77843,PS Intensive Mgt & Rearing |  | 1210,78.783384644751337,306.008842933593655
,1211,,No,UNIVERSITY,1211,,Poultry Science Broiler #1,1986,01,1202 Harvey Mitchell Pw S Ste 1211,College Station,77843,Poultry Science Broiler #1 |  | 1211,104.379740749037239,421.660652980376881
,1208,,No,UNIVERSITY,1208,,Poultry Sci Comparative Rearing,1986,01,1202 Harvey Mitchell Pw S Ste 1208,College Station,77843,Poultry Sci Comparative Rearing |  | 1208,110.615774238435250,535.598973998520023
,1209,,No,UNIVERSITY,1209,,Poultry Sci Integrated Repro,1986,01,1200 Harvey Mitchell Pw S Ste 1209,College Station,77843,Poultry Sci Integrated Repro |  | 1209,122.310099871826068,654.547157541536421
, ,,No,UNIVERSITY,,,,,,,,, |  | ,26.567909063353166,26.129534508851421
,1333,,No,UNIVERSITY,1333,,ESTI Lifting/Moving Shelter,,,,College Station,77843,ESTI Lifting/Moving Shelter |  | 1333,24.240432702535486,36.724439492265091
,1377,,No,UNIVERSITY,1377,,ESTI Office Complex Building Collapse,,,,College Station,77843,ESTI Office Complex Building Collapse |  | 1377,65.872148895780796,269.244966483593998
,1375,,No,UNIVERSITY,1375,,ESTI Tunneling System,,,,College Station,77843,ESTI Tunneling System |  | 1375,121.591930461860301,826.259099410728140
,1376,,No,UNIVERSITY,1376,,ESTI Single Family Building Collapse,,,,College Station,77843,ESTI Single Family Building Collapse |  | 1376,57.680708302071217,205.176300528155537
,1383,,No,UNIVERSITY,1383,,ESTI Strip Mall Collapse,,,,College Station,77843,ESTI Strip Mall Collapse |  | 1383,79.345458211841986,371.719775993101848
,1380,,No,UNIVERSITY,1380,,ESTI Industrial Complex Bldg Collapse,,,,College Station,77843,ESTI Industrial Complex Bldg Collapse |  | 1380,84.974429684942677,414.497179987683580
,1379,,No,UNIVERSITY,1379,,ESTI Multi-Purpose Building Collapse,,,,College Station,77843,ESTI Multi-Purpose Building Collapse |  | 1379,98.247950977233913,599.750900524725580
,1362,,No,UNIVERSITY,1362,,ESTI Marines Ship Deck Fires Shelter,,,,College Station,77843,ESTI Marines Ship Deck Fires Shelter |  | 1362,31.876660414525510,61.652415308683075
, ,,No,UNIVERSITY,,,,,,,,, |  | ,22.243373499674849,26.200075982959358
, ,,No,UNIVERSITY,,,,,,,,, |  | ,22.858925269484068,29.676299990915506
, ,,No,UNIVERSITY,,,,,,,,, |  | ,22.741606304207057,29.579556473244860
, ,,No,UNIVERSITY,,,,,,,,, |  | ,18.760572174088484,19.380567486734016
,1279,,No,UNIVERSITY,1279,,McKenzie Telecom Hub,,,,College Station,77843,McKenzie Telecom Hub |  | 1279,25.420288911924228,35.408473094574106
,1075,,No,UNIVERSITY,1075,,Ecology & Natural Resources Teaching Pavilion,1965,01,1852 Observatory Rd,College Station,77843,Ecology & Natural Resources Teaching Pavilion |  | 1075,50.508935478235379,154.845690996344757
,1277,,No,OTHER,1277,,Easterwood Rescue and Fire Facility,1999,01,1550 George Bush Dr W,College Station,77843,Easterwood Rescue and Fire Facility |  | 1277,143.550091463806496,1073.906909535116711
,1298,,No,ACADEMIC,1298,,Turbo Lab Support Building,1993,01,1485 George Bush Dr W,College Station,77843,Turbo Lab Support Building |  | 1298,92.749021532377355,480.483301961106406
,1299,,No,ACADEMIC,1299,,Turbomachinery Laboratory,1993,02,1485 George Bush Dr W,College Station,77843,Turbomachinery Laboratory |  | 1299,227.798039662960150,2407.364862359047947
,1323,,No,UNIVERSITY,1323,,ESTI Commercial/Retail Complex Fires,,,,College Station,77843,ESTI Commercial/Retail Complex Fires |  | 1323,32.238389726696752,63.745736495871675
,0700,,No,UNIVERSITY,0700,,ESTI 3-Story Project,1976,02,1595 Nuclear Science Rd,College Station,77843,ESTI 3-Story Project |  | 0700,51.603270331454681,136.991398015057712
,0339,,No,UNIVERSITY,0339,,ESTI Milti-User Shelter,,,,College Station,77843,ESTI Milti-User Shelter |  | 0339,32.756817989016014,66.012249474168669
,1324,,No,UNIVERSITY,1324,,ESTI Commercial/Retail Complex Fires,,,,College Station,77843,ESTI Commercial/Retail Complex Fires |  | 1324,25.540232332444660,40.696270978094731
,0337,,No,UNIVERSITY,0337,,ESTI Automobile Fires,,,,College Station,77843,ESTI Automobile Fires |  | 0337,25.656670579721244,41.101780987910416
, ,,No,UNIVERSITY,,,,,,,,, |  | ,8.404342699060763,4.414558996074259
,1351,,No,UNIVERSITY,1351,,ESTI Bathroom (Marine Area),2000,01,,College Station,77843,ESTI Bathroom (Marine Area) |  | 1351,28.179022278528279,46.127363073991795
, ,,No,UNIVERSITY,,,,,,,,, |  | ,7.222782035144480,3.234839995134473
,1307,,No,UNIVERSITY,1307,,Nuclear Science Center Laboratory,1996,02,2524 Nuclear Science Rd,College Station,77843,Nuclear Science Center Laboratory |  | 1307,107.434938660551140,323.127497936054738
,1095,,No,UNIVERSITY,1095,,Nuclear Science Cntr,1961,05,2522 Nuclear Science Rd,College Station,77843,Nuclear Science Cntr |  | 1095,265.756259431848036,1061.355339539062925
, ,,No,UNIVERSITY,,,,,,,,, |  | ,16.719919841295862,17.472122880949378
,0338,,No,UNIVERSITY,0338,,ESTI Bobtail/Transport Fires,,,,College Station,77843,ESTI Bobtail/Transport Fires |  | 0338,26.966473731843070,45.035355997993292
,1142,,No,UNIVERSITY,1142,,ESTI Marine Classroom/First Aid,1978,02,1595 Nuclear Science Rd,College Station,77843,ESTI Marine Classroom/First Aid |  | 1142,125.298430795124617,692.119184482579612
,1325,,No,UNIVERSITY,1325,,ESTI Pump Seal Fires,,,,College Station,77843,ESTI Pump Seal Fires |  | 1325,24.665569293481489,38.023444988850805
,1327,,No,UNIVERSITY,1327,,ESTI Hose Evolutions,,,1801 Essentials St,College Station,77843,ESTI Hose Evolutions |  | 1327,42.573629260174236,111.154630028708723
,1326,,No,UNIVERSITY,1326,,ESTI LPG Fires,,,,College Station,77843,ESTI LPG Fires |  | 1326,24.095867618548525,36.288132011826363
, ,,No,UNIVERSITY,,,,,,,,, |  | ,10.306231977679706,6.637348994053363
,1329,,No,UNIVERSITY,1329,,ESTI Salvage & Overhaul,,,1825 Essentials St,College Station,77843,ESTI Salvage & Overhaul |  | 1329,42.399445469870912,110.006403990886270
,0308,,No,UNIVERSITY,0308,,ESTI Breathing Apparatus Maze,1976,01,1595 Nuclear Science Rd,College Station,77843,ESTI Breathing Apparatus Maze |  | 0308,69.079356202152553,233.126260526398994
,1098,,No,UNIVERSITY,1098,,N.S.C. Hyperbaric Lab,1963,01,2530 Nuclear Science Rd,College Station,77843,N.S.C. Hyperbaric Lab |  | 1098,108.092416338228674,421.338973976302327
,1183,,No,UNIVERSITY,1183,,Range Science Field Lab,1994,01,2540 Nuclear Science Rd,College Station,77843,Range Science Field Lab |  | 1183,135.342904086461289,853.253465041640993
,1338,,No,UNIVERSITY,1338,,ESTI Marine Ship Superstructure Fires,,,,College Station,77843,ESTI Marine Ship Superstructure Fires |  | 1338,32.786123719826840,65.994207985357008
,0712,,No,UNIVERSITY,0712,,RADIATION BIOLOGY,1959,01,,College Station,77843,RADIATION BIOLOGY |  | 0712,29.450745508785168,45.146784512077524
,0314,,No,UNIVERSITY,0314,,ESTI Breathing Apparatus Storage,1976,01,1595 Nuclear Science Rd,College Station,77843,ESTI Breathing Apparatus Storage |  | 0314,43.795991751724181,100.060374031303297
,0307,,No,UNIVERSITY,0307,,ESTI Drill Tower,1976,05,1595 Nuclear Science Rd,College Station,77843,ESTI Drill Tower |  | 0307,44.935839308390435,93.272181542572511
,0322,,No,UNIVERSITY,0322,,ESTI Marine Vessle Project,,,,College Station,77843,ESTI Marine Vessle Project |  | 0322,68.452961474637178,181.415565528950196
,1335,,No,UNIVERSITY,1335,,ESTI Marine Engine Room Fires,,,,College Station,77843,ESTI Marine Engine Room Fires |  | 1335,32.561097034247140,65.280854984997291
, ,,No,UNIVERSITY,,,,,,,,, |  | ,31.625324877246879,52.545141204750024
,1370,,No,UNIVERSITY,1370,,Emergency Operations Training Center,2000,02,,College Station,77843,Emergency Operations Training Center |  | 1370,231.514059294101344,2528.449577782646884
,7910,,No,UNIVERSITY,7910,,ESTI Haz Mat Storage,1998,01,,College Station,77843,ESTI Haz Mat Storage |  | 7910,19.396268868989551,23.513452874103969
, ,,No,UNIVERSITY,,,,,,,,, |  | ,45.780775929973345,116.338654026289547
,0354,,No,UNIVERSITY,0354,,ESTI Hazardous Material Classroom,1987,01,1955 Emergency Response Dr,College Station,77843,ESTI Hazardous Material Classroom |  | 0354,105.392307597028761,511.078859046978096
,7904,,No,UNIVERSITY,7904,,ESTI Haz Mat Classroom,1993,01,1945 Emergency Response Dr,College Station,77843,ESTI Haz Mat Classroom |  | 7904,48.678295535053287,142.472642014117014
, ,,No,UNIVERSITY,,,,,,,,, |  | ,22.314868688528669,31.121924988171831
,7907,,No,UNIVERSITY,7907,,ESTI Haz Mat Technician Shop,1993,01,1251 Stirling Dr,College Station,77843,ESTI Haz Mat Technician Shop |  | 7907,38.918422566005518,88.167028124534667
, ,,No,UNIVERSITY,,,,,,,,, |  | ,27.566324953620942,27.038403606798905
,7905,,No,UNIVERSITY,7905,,ESTI Haz Mat Warehouse,1998,01,,College Station,77843,ESTI Haz Mat Warehouse |  | 7905,23.458409627024238,32.747230017971695
,0145,,No,UNIVERSITY,0145,,ESTI Technical Equipment Storage,1992,01,1595 Nuclear Science Rd,College Station,77843,ESTI Technical Equipment Storage |  | 0145,42.540709032537293,110.596719426036458
,1286,,No,UNIVERSITY,1286,,ESTI Warehouse Shelter,,,,College Station,77843,ESTI Warehouse Shelter |  | 1286,30.772159169650607,56.848683974445223
,1350,,No,UNIVERSITY,1350,,ESTI Bathroom (Hazardous Materials Area),2000,01,,College Station,77843,ESTI Bathroom (Hazardous Materials Area) |  | 1350,33.734325445043893,59.486756859801943
,1330,,No,UNIVERSITY,1330,,ESTI Interior Shoring Shelter,,,,College Station,77843,ESTI Interior Shoring Shelter |  | 1330,24.290406704777581,36.864534005921321
,1332,,No,UNIVERSITY,1332,,ESTI Exterior Shoring Shelter,,,,College Station,77843,ESTI Exterior Shoring Shelter |  | 1332,24.446573607097754,37.351859986535608
,1334,,No,UNIVERSITY,1334,,ESTI Crane Operations Shelter,,,,College Station,77843,ESTI Crane Operations Shelter |  | 1334,24.096850692444260,36.274992006218611
,1384,,No,UNIVERSITY,1384,,ESTI Interior Shoring Project,,,,College Station,77843,ESTI Interior Shoring Project |  | 1384,47.934299243791081,127.867603518220790
,1331,,No,UNIVERSITY,1331,,ESTI Breaching/Breaking Tunnel System,,,,College Station,77843,ESTI Breaching/Breaking Tunnel System |  | 1331,24.197845927958742,36.595968010221021
,4050,WWTP,No,UNIVERSITY,4050,WWTP,Wastewater Treatment Plant,1994,01,9685 Whites Creek Rd,College Station,77843,Wastewater Treatment Plant | WWTP | 4050,77.884019718069595,293.330305537835443
,1089,UEOA,No,UNIVERSITY,1089,UEOA,Utilities & Energy Services Energy Office,1971,01,1092 Harvey Mitchell Pw S,College Station,77843,Utilities & Energy Services Energy Office | UEOA | 1089,84.610133158565546,250.090280924960467
,1260,,No,UNIVERSITY,1260,,Airport Hangar,2005,01,1850 George Bush Dr W,College Station,77843,Airport Hangar |  | 1260,118.607212048283046,693.273389030883436
,1217,,No,UNIVERSITY,1217,,PS Gamebird Rearing & Flt Pen,1986,01,1202 Harvey Mitchell Pw S Ste 1217,College Station,77843,PS Gamebird Rearing & Flt Pen |  | 1217,72.585687594153640,300.050606989976814
,1215,,No,UNIVERSITY,1215,,PS Environmental Biotechnology,1986,01,1202 Harvey Mitchell Pw S Ste 1215,College Station,77843,PS Environmental Biotechnology |  | 1215,80.317522275436147,371.143891563352099
,1216,,No,UNIVERSITY,1216,,PS Gamebird Repro & Management,1986,01,1202 Harvey Mitchell Pw S Ste 1216,College Station,77843,PS Gamebird Repro & Management |  | 1216,98.488365105909622,433.730195454105171
,1201,FARM,No,UNIVERSITY,1201,FARM,Poultry Science Headquarters,1986,01,1202 Harvey Mitchell Pw S,College Station,77843,Poultry Science Headquarters | FARM | 1201,154.504603378450156,1046.033137458806095
,1214,,No,UNIVERSITY,1214,,Poultry Science Caged Layer #2,1986,01,1202 Harvey Mitchell Pw S Ste 1214,College Station,77843,Poultry Science Caged Layer #2 |  | 1214,121.279383589025400,536.943287477543208
,1202,POSC,No,UNIVERSITY,1202,POSC,Poultry Sci Handling & Judging,1986,01,1202 Harvey Mitchell Pw S Ste 1202,College Station,77843,Poultry Sci Handling & Judging | POSC | 1202,61.005424189138608,230.775614953300220
,1213,,No,UNIVERSITY,1213,,Poultry Science Caged Layer #1,1986,01,1202 Harvey Mitchell Pw S Ste 1213,College Station,77843,Poultry Science Caged Layer #1 |  | 1213,121.971798244070527,543.003477536893456
,1207,,No,UNIVERSITY,1207,,Poultry Sci Repro & Embryology,1986,01,1202 Harvey Mitchell Pw S Ste 1207,College Station,77843,Poultry Sci Repro & Embryology |  | 1207,116.282149338768534,518.130527359554435
,0302,,No,UNIVERSITY,0302,,ESTI Pump Operations Building,1976,01,1595 Nuclear Science Rd,College Station,77843,ESTI Pump Operations Building |  | 0302,52.798168807750301,171.045514669652135
,0301,,No,UNIVERSITY,0301,,ESTI Pump Operations Building,1976,01,1595 Nuclear Science Rd,College Station,77843,ESTI Pump Operations Building |  | 0301,52.383324359179994,125.558661055168443
,1280,,No,UNIVERSITY,1280,,ESTI Bathroom (Parker's Privy),1996,01,,College Station,77843,ESTI Bathroom (Parker's Privy) |  | 1280,28.195375313992844,44.864722003440441
,0303,,No,UNIVERSITY,0303,,ESTI Pump Operations Building,1976,01,1595 Nuclear Science Rd,College Station,77843,ESTI Pump Operations Building |  | 0303,52.251901001955574,167.203017160150154
,0304,,No,UNIVERSITY,0304,,ESTI Pump Operations Building,1976,01,1595 Nuclear Science Rd,College Station,77843,ESTI Pump Operations Building |  | 0304,51.703361757567819,163.663585969190223
,1368,,No,UNIVERSITY,1368,,ESTI Vendor Store,2002,01,1561 Methner St,College Station,77843,ESTI Vendor Store |  | 1368,48.422169200775642,122.031923000924706
,1366,,No,UNIVERSITY,1366,,ESTI Industrial Classrooms A&B,2002,01,1583 Methner St,College Station,77843,ESTI Industrial Classrooms A&B |  | 1366,48.500064652432734,121.250163929843225
,1353,,No,UNIVERSITY,1353,,ESTI Industrial Classrooms A&B,2001,01,1605 Methner St,College Station,77843,ESTI Industrial Classrooms A&B |  | 1353,48.500064669178400,121.250164045532102
,0687,,No,UNIVERSITY,0687,,ESTI Industrial Classroom,1975,01,1595 Nuclear Science Rd,College Station,77843,ESTI Industrial Classroom |  | 0687,52.448481216250833,150.682241023291283
,0348,,No,UNIVERSITY,0348,,ESTI Pump/Vehicle Maintenance,1985,02,1627 Methner St,College Station,77843,ESTI Pump/Vehicle Maintenance |  | 0348,71.484385008986067,319.057636001866285
,1354,,No,UNIVERSITY,1354,,ESTI Industrial Office,2001,01,1858 Simmons St,College Station,77843,ESTI Industrial Office |  | 1354,52.247868280630840,140.449200503723972
,1283,,No,UNIVERSITY,1283,,ESTI Industrial Bunker Gear Drying Building,1998,01,1850 Simmons St,College Station,77843,ESTI Industrial Bunker Gear Drying Building |  | 1283,39.496743635055552,91.932622881899988
,1355,,No,UNIVERSITY,1355,,ESTI Industrial Classrooms A&B,2001,01,,College Station,77843,ESTI Industrial Classrooms A&B |  | 1355,51.362374748029083,132.827158979585420
,0315,,No,UNIVERSITY,0315,,ESTI Pump Maintence Building,1976,01,1595 Nuclear Science Rd,College Station,77843,ESTI Pump Maintence Building |  | 0315,43.389942020110631,114.787631008056053
,1356,,No,UNIVERSITY,1356,,ESTI Industrial Office,2001,01,1866 Simmons St,College Station,77843,ESTI Industrial Office |  | 1356,52.307556223646806,140.512814992004479
,1352,,No,UNIVERSITY,1352,,ESTI Bathroom (Industrial Area),2000,01,,College Station,77843,ESTI Bathroom (Industrial Area) |  | 1352,28.254614953867161,43.402371731694750
,1357,,No,UNIVERSITY,1357,,ESTI Industrial Classrooms A&B,2001,01,,College Station,77843,ESTI Industrial Classrooms A&B |  | 1357,51.939043869021347,139.352730030645120
,1144,,No,UNIVERSITY,1144,,ESTI Industrial Classroom,1976,02,1874 Simmons St,College Station,77843,ESTI Industrial Classroom |  | 1144,78.514540218100407,312.255136980546752
,9787,,No,UNIVERSITY,9787,,ESTI PROCESS UNIT FIRES (NEW),,,,College Station,77843,ESTI PROCESS UNIT FIRES (NEW) |  | 9787,26.803000329765442,44.541648015691010
,0334,,No,UNIVERSITY,0334,,ESTI Pipe Rack Fires,,,,College Station,77843,ESTI Pipe Rack Fires |  | 0334,24.228704967583923,36.685587025446182
,0326,,No,UNIVERSITY,0326,,ESTI Pump Alley Fires,,,,College Station,77843,ESTI Pump Alley Fires |  | 0326,25.366143109930491,40.144542998022928
,1264,,Yes,HANGER PVT,1264,,TAC Realty Hanger,2003,02,2600 Nuclear Science Rd,College Station,77843,TAC Realty Hanger |  | 1264,259.225328640292616,2475.764356979539116
, ,,No,UNIVERSITY,,,,,,,,, |  | ,25.366143104670641,40.144542981383921
,0335,,No,UNIVERSITY,0335,,ESTI Process Unit Fires,,,,College Station,77843,ESTI Process Unit Fires |  | 0335,25.965296867312681,42.018991984455468
, ,,No,UNIVERSITY,,,,,,,,, |  | ,25.366143105265131,40.144542984665904
,0327,,No,UNIVERSITY,0327,,ESTI Loading Terminal Fires,,,,College Station,77843,ESTI Loading Terminal Fires |  | 0327,25.722952013526093,41.271615016686027
, ,,No,UNIVERSITY,,,,,,,,, |  | ,11.426513627631172,8.159711995060846
,0328,,No,UNIVERSITY,0328,,ESTI API Storage Tank Fires,,,,College Station,77843,ESTI API Storage Tank Fires |  | 0328,25.714011328224640,41.259290002013600
,0720,,No,UNIVERSITY,0720,,ESTI Chemical Complex Fires,,,,College Station,77843,ESTI Chemical Complex Fires |  | 0720,25.773236271405651,41.426358988707122
,0320,,No,UNIVERSITY,0320,,ESTI Sprinkler Systems,1979,01,1595 Nuclear Science Rd,College Station,77843,ESTI Sprinkler Systems |  | 0320,43.669861217984284,118.495774032194390
,0347,,No,UNIVERSITY,0347,,ESTI Annual School/Extension Offices/Gym,2007,02,1617 Nuclear Science Rd,College Station,77843,ESTI Annual School/Extension Offices/Gym |  | 0347,83.296721601211829,428.585244593659468
, ,,No,UNIVERSITY,,,,,,,,, |  | ,19.637743518378038,21.600695994312407
,0139,,No,UNIVERSITY,0139,,ESTI Private Sector Office,1991,01,1595 Nuclear Science Rd,College Station,77843,ESTI Private Sector Office |  | 0139,44.111017816650431,120.186695031134704
,0312,,No,UNIVERSITY,0312,,ESTI Rail Tank Car Loading Rack Fires,,,,College Station,77843,ESTI Rail Tank Car Loading Rack Fires |  | 0312,26.151449751257271,42.643852499089242
,1096,,No,UNIVERSITY,1096,,Gamma Radiation Lab,1961,01,2272 Reactor Dr,College Station,77843,Gamma Radiation Lab |  | 1096,73.294882755735969,136.566121489083741
,0721,,No,UNIVERSITY,0721,,ESTI Warehouse Fires,1976,01,,College Station,77843,ESTI Warehouse Fires |  | 0721,51.826382894029628,115.545798477807594
,0329,,No,UNIVERSITY,0329,,ESTI Tank & Dike Fires,,,,College Station,77843,ESTI Tank & Dike Fires |  | 0329,25.837590151015792,41.633168026228965
,0323,,No,UNIVERSITY,0323,,ESTI Hay Barn,1976,01,1595 Nuclear Science Rd,College Station,77843,ESTI Hay Barn |  | 0323,41.524715676717250,107.760017474118698
,1171,,No,UNIVERSITY,1171,,Radioactive Waste Building,1985,01,2528 Nuclear Science Rd,College Station,77843,Radioactive Waste Building |  | 1171,56.161904453346658,195.167268022245878
,0324,,No,UNIVERSITY,0324,,ESTI Wood Storage,1976,01,1595 Nuclear Science Rd,College Station,77843,ESTI Wood Storage |  | 0324,41.524715684657217,107.760017514925522
,1322,,No,UNIVERSITY,1322,,ESTI Apartment Complex Fires,,,,College Station,77843,ESTI Apartment Complex Fires |  | 1322,27.307239643549348,46.441891996300768
, ,,No,UNIVERSITY,,,,,,,,, |  | ,65.550040731578846,212.262686056964071
,1296,,No,UNIVERSITY,1296,,Easterwood Maintenance Support Facility,2001,01,1809 George Bush Dr W,College Station,77843,Easterwood Maintenance Support Facility |  | 1296,55.616993852678419,174.172452061812919
, ,,No,UNIVERSITY,,,,,,,,, |  | ,18.760293321430801,19.207538014120132
, ,,No,UNIVERSITY,,,,,,,,, |  | ,11.639254955450195,8.437414002728522
, ,,No,UNIVERSITY,,,,,,,,, |  | ,27.200727662675767,42.932450509993629
, ,,No,UNIVERSITY,,,,,,,,, |  | ,14.724526899166637,13.179023979410738
, ,,No,UNIVERSITY,,,,,,,,, |  | ,14.455972425532046,13.057236005506978
, ,,No,UNIVERSITY,,,,,,,,, |  | ,10.624416946283290,6.708539489898786
, ,,No,UNIVERSITY,,,,,,,,, |  | ,22.010024542442885,30.272707972650050
, ,,No,UNIVERSITY,,,,,,,,, |  | ,26.707843675011205,32.748122978042488
, ,,No,UNIVERSITY,,,,,,,,, |  | ,49.066815516198155,139.095521971613039
, ,,No,UNIVERSITY,,,,,,,,, |  | ,17.863811831877463,19.911484499363482
, ,,No,UNIVERSITY,,,,,,,,, |  | ,18.647461451509706,8.052688488722010
, ,,No,UNIVERSITY,,,,,,,,, |  | ,11.190460324758044,7.488405500417918
, ,,No,UNIVERSITY,,,,,,,,, |  | ,26.018820419402342,39.987765924571924
, ,,No,UNIVERSITY,,,,,,,,, |  | ,14.763705714797922,13.621526069864712
, ,,No,UNIVERSITY,,,,,,,,, |  | ,7.223700285760976,3.258721000512034
, ,,No,UNIVERSITY,,,,,,,,, |  | ,28.265157583148508,42.695191016146552
, ,,No,UNIVERSITY,,,,,,,,, |  | ,7.063287288703669,3.118104006508648
,1271,,No,ACADEMIC,1271,,"Nat'l Aerothermochemistry Lab, Bldg 2",2008,01,1753 Geroge Bush Dr W,College Station,77843,"Nat'l Aerothermochemistry Lab, Bldg 2 |  | 1271",77.695151164747443,340.270813041688598
,1268,,No,ACADEMIC,1268,,"Nat'l Aerothermochemistry Lab, Bldg 1",2005,01,1737 George Bush Dr W,College Station,77843,"Nat'l Aerothermochemistry Lab, Bldg 1 |  | 1268",76.328053964654472,221.073110857645730
,1382,,No,UNIVERSITY,1382,,Rescue/Disaster City Warehouse,2007,01,,College Station,77843,Rescue/Disaster City Warehouse |  | 1382,93.184796038561672,469.058020126227234
,1381,,No,UNIVERSITY,1381,,ESTI Passanger Train (7 Cars),,,,College Station,77843,ESTI Passanger Train (7 Cars) |  | 1381,354.718477926729975,492.482332959080850
,1349,,No,UNIVERSITY,1349,,ESTI Rescue/Disaster City Canine Support,2006,01,,College Station,77843,ESTI Rescue/Disaster City Canine Support |  | 1349,52.622938027988667,139.116274851108074
, ,,No,UNIVERSITY,,,,,,,,, |  | ,43.314174669312862,102.346384775852613
, ,,No,UNIVERSITY,,,,,,,,, |  | ,15.426604244216865,11.273437358274379
, ,,No,UNIVERSITY,,,,,,,,, |  | ,30.571077004200728,33.960952730695752
, ,,No,UNIVERSITY,,,,,,,,, |  | ,35.530605619682781,38.350182201444234
, ,,No,UNIVERSITY,,,,,,,,, |  | ,37.436539604443738,43.810366722785623
, ,,No,UNIVERSITY,,,,,,,,, |  | ,37.876298148988013,46.019637924930230
, ,,No,UNIVERSITY,,,,,,,,, |  | ,34.638866888818008,37.860208113886287
, ,,No,UNIVERSITY,,,,,,,,, |  | ,38.142588552703366,37.188918011850426
, ,,No,UNIVERSITY,,,,,,,,, |  | ,26.606998718731269,25.816795530264578
, ,,No,UNIVERSITY,,,,,,,,, |  | ,27.403936120228124,27.689907411552674
, ,,No,UNIVERSITY,,,,,,,,, |  | ,42.636603123452815,40.378671567926808
, ,,No,UNIVERSITY,,,,,,,,, |  | ,27.282952351899603,24.952667019071590
, ,,No,UNIVERSITY,,,,,,,,, |  | ,22.567546274643131,21.531490326515012
, ,,No,UNIVERSITY,,,,,,,,, |  | ,16.752056226025733,13.901424843958292
, ,,No,UNIVERSITY,,,,,,,,, |  | ,33.869863615676934,32.341028198502755
, ,,No,UNIVERSITY,,,,,,,,, |  | ,26.725948995454630,23.099041305962082
, ,,No,UNIVERSITY,,,,,,,,, |  | ,27.960328553230120,29.829104252058801
, ,,No,UNIVERSITY,,,,,,,,, |  | ,30.517946238573160,34.164305579027840
, ,,No,UNIVERSITY,,,,,,,,, |  | ,28.905447613598966,27.154952185790922
, ,,No,UNIVERSITY,,,,,,,,, |  | ,26.952887549651653,21.056390268026412
, ,,No,UNIVERSITY,,,,,,,,, |  | ,24.973407383289086,24.029659435718319
, ,,No,UNIVERSITY,,,,,,,,, |  | ,28.782789347180735,27.434006141252748
,3410,4HHQ,No,UNIVERSITY,3410,4HHQ,AgriLife Extension 4-H State Headquarters,2010,02,4180 SH 6 S,College Station,77843,AgriLife Extension 4-H State Headquarters | 4HHQ | 3410,181.707487961843441,928.441702937233231
,1239,OBSV,No,UNIVERSITY,1239,OBSV,Physics Teaching Observatory,2003,02,2788 Nuclear Science Rd,College Station,77843,Physics Teaching Observatory | OBSV | 1239,69.761056589363164,261.135317467902439
,1345,,No,UNIVERSITY,1345,,ESTI H. D. Smith Operations Complex,2007,02,1595 Nuclear Science Rd,College Station,77843,ESTI H. D. Smith Operations Complex |  | 1345,167.664408119237493,1667.163438408102365
,1238,OBSR,No,UNIVERSITY,1238,OBSR,Robotic Observatory,2003,01,2790 Nuclear Science Rd,College Station,77843,Robotic Observatory | OBSR | 1238,23.025885031586224,30.258920273475272
,4055,TPES,No,UNIVERSITY,4055,TPES,WWTP Equipment Storage Building,1994,01,,College Station,77843,WWTP Equipment Storage Building | TPES | 4055,55.451791141513283,190.113872929738648
,2929,,No,UNIVERSITY,2929,,USAR Gateway Facility,2006,01,101 Gateway Bl,College Station,77843,USAR Gateway Facility |  | 2929,336.806738990860765,5573.411816674549300
,1269,,No,UNIVERSITY,1269,,Low Speed Wind Tunnel Shop,2014,01,1729 George Bush Dr W,College Station,77843,Low Speed Wind Tunnel Shop |  | 1269,141.523387156195781,608.758977512621300
,2922,TALX-SC,No,UNIVERSITY,2922,TALXSC,Texas A&M AgriLife Extension - South Campus,2004,01,1470 William D Fitch Pw,College Station,77843,Texas A&M AgriLife Extension - South Campus | TALX-SC | 2922,430.087372795489500,4702.908201248206751
, ,,No,UNIVERSITY,,,,,,,,, |  | ,29.995990321612723,53.667799253473959
,1388,,No,UNIVERSITY,1388,,TEEX Emergency Services Lab,2010,01,,College Station,77843,TEEX Emergency Services Lab |  | 1388,55.734669767261465,172.804353651228695
,1391,,No,UNIVERSITY,1391,,Pat Barrett Bunker Gear Drying Facility,2013,01,1648 Dohrn St,College Station,77843,Pat Barrett Bunker Gear Drying Facility |  | 1391,67.024667625223458,252.072393330566285
, ,,No,UNIVERSITY,,,,,,,,, |  | ,26.803000319243946,44.541647980270952
, ,,No,UNIVERSITY,,,,,,,,, |  | ,26.803000329765442,44.541648015691010
, ,,No,UNIVERSITY,,,,,,,,, |  | ,26.803000329765442,44.541648015691010
,1363,,No,UNIVERSITY,1363,,ESTI Field Maintenance Shop,2001,01,,College Station,77843,ESTI Field Maintenance Shop |  | 1363,115.046214235372432,827.226829773188001
, ,,No,UNIVERSITY,,,,,,,,, |  | ,33.580961202531519,66.201470326190972
,1328,,No,UNIVERSITY,1328,,ESTI Hose Loads,,,1813 Essentials St,College Station,77843,ESTI Hose Loads |  | 1328,42.573629258210310,111.154630009206841
,1295,,No,UNIVERSITY,1295,,Turbo Machine Storage Facility,2014,01,1493 George Bush Dr W,College Station,77843,Turbo Machine Storage Facility |  | 1295,57.306341405643067,183.120733657927133
,1392,,No,UNIVERSITY,1392,,TEEX-ESTI (FTS) Rescue Training Facility,2015,02,2024 B St,College Station,77843,TEEX-ESTI (FTS) Rescue Training Facility |  | 1392,135.707068833046947,1143.208701468504842
,1387,,No,UNIVERSITY,1387,,ESTI Leadership/Certification/Evaluation Office,2004,01,1939 Emergency Response Dr,College Station,77843,ESTI Leadership/Certification/Evaluation Office |  | 1387,47.697204728537166,109.374005400340366
,1386,,No,UNIVERSITY,1386,,ESTI Curriculum Office,2004,01,,College Station,77843,ESTI Curriculum Office |  | 1386,47.625197224172801,109.425125108369386
,1385,,No,UNIVERSITY,1385,,ESTI WMD Restroom,2004,01,,College Station,77843,ESTI WMD Restroom |  | 1385,27.417333396225025,44.354515460342157
,0298,,No,UNIVERSITY,0298,,ESTI Electrical Building,2007,01,,College Station,77843,ESTI Electrical Building |  | 0298,29.154138528314810,43.744432208614825
,0299,,No,UNIVERSITY,0299,,ESTI Control Building,2007,01,,College Station,77843,ESTI Control Building |  | 0299,21.313199271024690,24.076114848428173
,1265,,No,UNIVERSITY,1265,,Former Parking Toll Booth-Easterwood,2002,01,1814 George Bush Dr W,College Station,77843,Former Parking Toll Booth-Easterwood |  | 1265,14.630367798794122,13.377978860433174
,1274,KSWT,No,ACADEMIC,1274,KSWT,Klebanoff-Saric Wind Tunnel (Unsteady Wind Tunnel),2008,01,1721 George Bush Dr W,College Station,77843,Klebanoff-Saric Wind Tunnel (Unsteady Wind Tunnel) | KSWT | 1274,91.063731452009606,421.897821583328323
,1394,,No,UNIVERSITY,1394,,TEEX ESTI Protective Housing Project Building,2017,01,,College Station,77843,TEEX ESTI Protective Housing Project Building |  | 1394,70.983155913166584,277.380448456706858
,1393,SCBA,No,UNIVERSITY,1393,,TEEX-ESTI SCBA Facility,2017,02,1595 Nuclear Science Rd,College Station,77843,TEEX-ESTI SCBA Facility | SCBA | 1393,121.838017774381754,844.365670959924955
,1275,,No,UNIVERSITY,1275,,New Easterwood FBO and Hangar,,,,,,New Easterwood FBO and Hangar |  | 1275,300.744744343359969,4515.060643645163509
,1489,,No,OTHER,1489,,Utilities Energy Office Expansion,2016,01,1088 HARVEY MITCHELL PW S,College Station,,Utilities Energy Office Expansion |  | 1489,58.521795376958345,200.671841960250561
,8601,,No,UNIVERSITY,8601,,TEEX - LAW UXO Search Grid Pavilion,2007,01,,Bryan,77807,TEEX - LAW UXO Search Grid Pavilion |  | 8601,45.645596482070147,116.543188872546239
, ,,No,UNIVERSITY,,,,,,,,, |  | ,37.215988499115639,76.743300061022140
,7909,,No,UNIVERSITY,7909,,TEEX EUPWTI Building,1993,01,1829 Mayer Av,Bryan,77807,TEEX EUPWTI Building |  | 7909,60.611000060243413,207.920512129442869
,7906,,No,UNIVERSITY,7906,,TEEX ITSI Shop,1993,01,1249 Stirling Dr,Bryan,77807,TEEX ITSI Shop |  | 7906,60.609000022618545,207.905359470693668
,7040,,No,UNIVERSITY,7040,,The Western Dairy Transport Classroom Building,,,,,,The Western Dairy Transport Classroom Building |  | 7040,54.298488413588949,140.975680499763001
,7901,,No,UNIVERSITY,7901,,TEEX - ITSI,1992,01,1245 Stirling Dr,Bryan,77807,TEEX - ITSI |  | 7901,49.226381535376412,151.396202955619486
,7900,,No,UNIVERSITY,7900,,TEEX ITSI Offices,1992,01,1365 Stirling Dr,Bryan,77807,TEEX ITSI Offices |  | 7900,187.241352315765113,1833.028175593523201
,7045,,No,UNIVERSITY,7045,,U.S.D.A. Hangar,1986,01,1881 Flight Line Rd,Bryan,77807,U.S.D.A. Hangar |  | 7045,107.663072460351898,708.505802863170061
,7043,,No,UNIVERSITY,7043,,U.S.D.A. Hangar No.3,1986,,1869 Flight Line Rd,Bryan,77807,U.S.D.A. Hangar No.3 |  | 7043,68.181692939836083,288.734522459342088
,7044,,No,UNIVERSITY,7044,,U.S.D.A. Hangar No.4,1986,,1865 Flight Line Rd,Bryan,77807,U.S.D.A. Hangar No.4 |  | 7044,68.441825475407910,290.904449470458644
,7903,,No,UNIVERSITY,7903,,TEEX Covered Training Area,1993,01,,Bryan,77807,TEEX Covered Training Area |  | 7903,61.160257647219197,231.003839514723751
,6502,,No,UNIVERSITY,6502,,Energy Systems Lab,1955,01,1212 Avenue A,Bryan,77807,Energy Systems Lab |  | 6502,191.513812254793805,1704.055493720596132
, ,,No,UNIVERSITY,,,,,,,,, |  | ,15.409020993831334,14.821529361054514
,8081,,No,UNIVERSITY,8081,,TEEX - ITSI Tech Bldg,1943,01,1484 Avenue A,Bryan,77807,TEEX - ITSI Tech Bldg |  | 8081,190.262528200746232,1237.065238759715612
,1153,FREE,No,UNIVERSITY,1153,FREE,Freeman Arena,1985,01,7802 Turkey Creek Rd,College Station,77843,Freeman Arena | FREE | 1153,342.909591901874023,6607.903457409848670
,1152,,No,UNIVERSITY,1152,,Equine Center Restroom,1978,01,7802 Turkey Creek Rd,College Station,77843,Equine Center Restroom |  | 1152,18.179489108225606,18.017909471330299
,1492,,No,UNIVERSITY,1492,,Classroom At Challenge Course,2003,01,3626 N Traditions Dr,Bryan,77807,Classroom At Challenge Course |  | 1492,57.928330006333212,192.995876537634530
, ,,No,UNIVERSITY,,,,,,,,, |  | ,220.621121640041792,2396.448947940555627
,1236,,No,OTHER,1236,,Small Horse Barn,1978,01,,College Station,77843,Small Horse Barn |  | 1236,55.217088185374770,181.043263612941530
,7007,RNCH ,No,UNIVERSITY,7007,RNCH,Automated Fabrication and Design Lab,2006,01,1490 Avenue D,Bryan,77807,Automated Fabrication and Design Lab | RNCH  | 7007,129.690774006599327,1030.728265039650296
,7439,,No,UNIVERSITY,7439,,Telecommunications Optical Remote Bldg-Riverside,2002,01,1220 2nd St,Bryan,77807,Telecommunications Optical Remote Bldg-Riverside |  | 7439,32.060832109971393,62.887953553611986
,7066,,No,UNIVERSITY,7066,,TEEX - LAW Driving Track Pavilion,2006,01,1600 Flight Line Rd,Bryan,77807,TEEX - LAW Driving Track Pavilion |  | 7066,51.613581196203292,161.214993890987614
,8600,,No,UNIVERSITY,8600,,TEEX - LAW UXO Demo Range Pavilion,2007,01,,Bryan,77807,TEEX - LAW UXO Demo Range Pavilion |  | 8600,46.148452303484632,122.566318743203027
,7041,,No,UNIVERSITY,7041,,U.S.D.A. Hangar No.2,1986,,1887 Flight Line Rd,Bryan,77807,U.S.D.A. Hangar No.2 |  | 7041,68.204619571455694,288.650806463475305
,8685,,No,UNIVERSITY,8685,,TEEX - LAW Firing Range Classroom,2006,01,,Bryan,77807,TEEX - LAW Firing Range Classroom |  | 8685,64.411727950015916,198.842141160315322
,7042,,No,UNIVERSITY,7042,,U.S.D.A. Hangar No.1,1986,,1891 Flight Line Rd,Bryan,77807,U.S.D.A. Hangar No.1 |  | 7042,68.347287938282975,289.694277007016126
, ,,No,UNIVERSITY,,,,,,,,, |  | ,13.230421081209082,10.564856007198483
, ,,No,UNIVERSITY,,,,,,,,, |  | ,6.380368356502530,2.445513002762839
, ,,No,UNIVERSITY,,,,,,,,, |  | ,12.122407913519748,8.694893002935842
, ,,No,UNIVERSITY,,,,,,,,, |  | ,12.975539728287684,9.975002002589733
,,,No,UNIVERSITY,,,,,,,,, |  | ,22.373930740295531,29.515960018410311
,7030,,No,UNIVERSITY,7030,,TTI Sediment & Erosion Control Lab,2002,01,1854 Flight Line Rd,Bryan,77807,TTI Sediment & Erosion Control Lab |  | 7030,60.960000008344650,232.257600063586239
, ,,No,UNIVERSITY,,,,,,,,, |  | ,7.674291887892466,3.676569497748494
,8691,,No,UNIVERSITY,8691,,SEWAGE PLANT,1943,01,1970 Avenue A,Bryan,77807,SEWAGE PLANT |  | 8691,36.816237609869710,72.035795485599905
,8002,,No,UNIVERSITY,8002,,ANSC  ANIMAL SHELTERS,1972,01,,Bryan,77807,ANSC  ANIMAL SHELTERS |  | 8002,45.966956363705748,110.450898970836974
, ,,No,UNIVERSITY,,,,,,,,, |  | ,50.316816003486267,150.833006809679063
, ,,No,UNIVERSITY,,,,,,,,, |  | ,13.053099720632254,10.555394508548485
, ,,No,UNIVERSITY,,,,,,,,, |  | ,11.996934033003829,8.556794997217059
, ,,No,UNIVERSITY,,,,,,,,, |  | ,17.021987060214439,17.624010511287345
, ,,No,UNIVERSITY,,,,,,,,, |  | ,51.888705906004439,130.551749985430376
, ,,No,UNIVERSITY,,,,,,,,, |  | ,27.216135887722711,37.509492009813513
,7500,,No,UNIVERSITY,7500,,TTI Research Pendulum Test Facility,1953,01,1231 Flight Line Rd,Bryan,77807,TTI Research Pendulum Test Facility |  | 7500,47.296658225496728,118.845099752679701
, ,,No,UNIVERSITY,,,,,,,,, |  | ,18.383634474415253,21.117197493631167
, ,,No,UNIVERSITY,,,,,,,,, |  | ,16.906732516205089,17.659694001117856
,7535,,No,UNIVERSITY,7535,,AM VI Office and Shops,1952,01,1202 Warehouse Rd,Bryan,77807,AM VI Office and Shops |  | 7535,176.442068112366428,1020.894508232555154
,6095,,No,UNIVERSITY,6095,,TTI Research Storage,1943,01,1234 Avenue A,Bryan,77807,TTI Research Storage |  | 6095,18.489570669167705,17.436684992053138
,7002,,No,UNIVERSITY,7002,,Storage Building,1975,01,1362 5th St,Bryan,77807,Storage Building |  | 7002,13.860837072144598,11.803499002178967
,7061,DRED,No,UNIVERSITY,7061,,TTI Sediment & Erosion Control Support Lab,1943,01,1025 6th St,Bryan,77807,TTI Sediment & Erosion Control Support Lab | DRED | 7061,243.183798051443688,803.986068544225759
,7240,,No,UNIVERSITY,7240,,TEEX Copy Center,1943,01,1262 6th St,Bryan,77807,TEEX Copy Center |  | 7240,163.715247414820794,1308.776111990652680
,7077,,No,UNIVERSITY,7077,,CONTROL TOWER,1955,02,1633 Flight Line Rd,Bryan,77807,CONTROL TOWER |  | 7077,27.359752368869657,46.781379957138448
,7802,,No,UNIVERSITY,7802,,TEEX - LAW Prop House #2,1956,01,1627 Bryan Rd,Bryan,77807,TEEX - LAW Prop House #2 |  | 7802,99.137797567274092,329.833153973509638
,6881,,No,UNIVERSITY,6881,,Bath House,1957,01,1695 7th St,Bryan,77807,Bath House |  | 6881,76.746111908634276,284.856800595125094
,7057,,No,UNIVERSITY,7057,,TEES Records Archive,1943,01,1067 7th St,Bryan,77807,TEES Records Archive |  | 7057,95.848360811082671,318.016126115171403
,7056,,No,UNIVERSITY,7056,,Electrical and Computer Engineering Solar,1943,01,1055 7th St,Bryan,77807,Electrical and Computer Engineering Solar |  | 7056,91.068809830331915,307.895105455526675
,8236,,No,UNIVERSITY,8236,,Instructional Materials Serv,1943,01,1686 Avenue C,Bryan,77807,Instructional Materials Serv |  | 8236,240.940584868154758,1868.911979950704335
,6047,,No,UNIVERSITY,6047,,Chemical Supplies Storage,1953,01,1035 7th St,Bryan,77807,Chemical Supplies Storage |  | 6047,18.492056232026925,19.477072485297693
, ,,No,UNIVERSITY,,,,,,,,, |  | ,6.648355939945931,2.586541008635625
,1151,EQCT,No,UNIVERSITY,1151,EQCT,Equine Center Stable,1978,01,7806 Turkey Creek Rd,College Station,77843,Equine Center Stable | EQCT | 1151,209.704518033643211,1313.017754129356490
,1149,,No,OTHER,1149,,Billy Bryant Barn,1990,01,274 Harvey Mitchell Pw S,College Station,77843,Billy Bryant Barn |  | 1149,108.870862467024750,630.039447022870718
,1150,,No,OTHER,1150,,Parsons Mounted Cavalry Tack Rm [DEMOLISHED 2016],1978,01,276 Harvey Mitchell Pw S,College Station,77843,Parsons Mounted Cavalry Tack Rm [DEMOLISHED 2016] |  | 1150,64.652544795982621,256.338720020017320
,1185,,No,OTHER,1185,,Parsons Cav Caretaker Facility,1996,01,278 Harvey Mitchell Pw S,College Station,77843,Parsons Cav Caretaker Facility |  | 1185,43.703310017280920,104.764680002091154
, ,,No,UNIVERSITY,,,,,,,,, |  | ,6.625771089776734,2.632207006818086
, ,,No,UNIVERSITY,,,,,,,,, |  | ,18.970247600382148,20.434465986261159
,5499,,No,UNIVERSITY,5499,,Storage Shelter,1952,01,1220 Avenue A,Bryan,77807,Storage Shelter |  | 5499,26.733983088445271,44.656054969131645
, ,,No,UNIVERSITY,,,,,,,,, |  | ,7.516680638033785,3.261966002145797
,7091,,No,UNIVERSITY,7091,,TTI Office Building,1997,01,1254 Avenue A,Bryan,77807,TTI Office Building |  | 7091,106.208665421708801,503.065198814005612
,7441,,No,UNIVERSITY,7441,,Riverside Water Distribution Pump Station,1972,01,1250 Avenue C,Bryan,77807,Riverside Water Distribution Pump Station |  | 7441,56.437840112569859,179.364632014855033
,7092,,No,UNIVERSITY,7092,,TTI Proving Ground Research Support,1943,04,1250 Avenue A,Bryan,77807,TTI Proving Ground Research Support |  | 7092,183.081614049429504,1945.518196061811068
,7090,,No,UNIVERSITY,7090,,TTI Proving Ground Research Hangar,1943,02,1252 Avenue A,Bryan,77807,TTI Proving Ground Research Hangar |  | 7090,237.516801794093766,3422.546882410047601
,5447,,No,UNIVERSITY,5447,,Water and Valve Hut,,,1258 Avenue C,Bryan,77807,Water and Valve Hut |  | 5447,39.667450752697853,84.713507504357324
,5446,,No,UNIVERSITY,5446,,Ground Water Storage Tank,,,1281 Avenue B,Bryan,77807,Ground Water Storage Tank |  | 5446,47.701888001544397,93.548631990670444
, ,,No,UNIVERSITY,,,,,,,,, |  | ,9.717321302087006,5.603779998672456
,7093,,No,UNIVERSITY,7093,,TTI Machining Facility,1943,01,1288 Avenue A,Bryan,77807,TTI Machining Facility |  | 7093,159.305350137881220,1146.242047602965840
,7095,,No,UNIVERSITY,7095,,TTI Research Storage Building,1997,01,1371 Flight Line Rd,Bryan,77807,TTI Research Storage Building |  | 7095,98.518851663379309,486.344337005873513
, ,,No,UNIVERSITY,,,,,,,,, |  | ,7.164434736718982,3.046784502175703
,7098,,No,UNIVERSITY,7098,,Warehouse,1943,01,1361 Flight Line Rd,Bryan,77807,Warehouse |  | 7098,27.051162723194416,40.960047013355670
,8004,,No,UNIVERSITY,8004,,TEEX ITSI Offices - Water Lab,1977,01,1455 4th St,Bryan,77807,TEEX ITSI Offices - Water Lab |  | 8004,108.320905854085197,482.779841445563079
, ,,No,UNIVERSITY,,,,,,,,, |  | ,13.470347458678503,10.193673491337837
,7751,,No,UNIVERSITY,7751,,TEEX - LAW Office Bldg,1980,01,1500 4th St,Bryan,77807,TEEX - LAW Office Bldg |  | 7751,398.660361573824730,4246.836480941857189
, ,,No,UNIVERSITY,,,,,,,,, |  | ,22.488790060165464,28.695520002625436
, ,,No,UNIVERSITY,,,,,,,,, |  | ,13.931846798109200,12.031735999991685
, ,,No,UNIVERSITY,,,,,,,,, |  | ,15.838287112291983,14.972565502884358
, ,,No,UNIVERSITY,,,,,,,,, |  | ,14.709176860097671,13.055765995214522
, ,,No,UNIVERSITY,,,,,,,,, |  | ,10.939031998027055,7.039367000280500
,8083,,No,UNIVERSITY,8083,,Telecommunications Building,1953,01,1472 Avenue A,Bryan,77807,Telecommunications Building |  | 8083,26.070991522684842,36.432216994248513
,6071,,No,UNIVERSITY,6071,,ITSI Storage,1943,01,1490 Avenue A,Bryan,77807,ITSI Storage |  | 6071,42.554897678635534,107.952438547229548
,7063,,No,UNIVERSITY,7063,,Conservation Research Lab,1952,01,1525 Flight Line Rd,Bryan,77807,Conservation Research Lab |  | 7063,89.603553907465653,381.763636053442895
,7064,,No,UNIVERSITY,7064,,Conservation Projects,1943,01,1050 5th St,Bryan,77807,Conservation Projects |  | 7064,85.629127256803613,354.901157420386994
,7006,,No,UNIVERSITY,7006,,Chapel & Assembly Hall,1943,02,1555 Avenue D,Bryan,77807,Chapel & Assembly Hall |  | 7006,85.250485589588337,339.584365511580700
,7065,,No,UNIVERSITY,7065,,CRL Storage,1943,01,1035 6th St,Bryan,77807,CRL Storage |  | 7065,26.907738322927667,36.858876015801144
,6069,,No,UNIVERSITY,6069,,Research Support Bldg,1972,02,1548 Avenue A,Bryan,77807,Research Support Bldg |  | 6069,39.630825816246755,67.263070498672690
,7003,,No,UNIVERSITY,7003,,Office Building,1943,01,1322 5th St,Bryan,77807,Office Building |  | 7003,117.922176911123998,415.106880445819286
,7046,,No,UNIVERSITY,7046,,Aerospace Hangar,1943,01,1645 Flight Line Rd,Bryan,77807,Aerospace Hangar |  | 7046,136.374209797691663,1125.462191627992979
,6242,,No,UNIVERSITY,6242,,Aquaculture Lab (Mothballed),1943,01,1058 Avenue C,Bryan,77807,Aquaculture Lab (Mothballed) |  | 6242,70.041982588712870,259.831062552595540
, ,,No,UNIVERSITY,,,,,,,,, |  | ,7.930502121982382,3.921130992577464
,7801,,No,UNIVERSITY,7801,,TEEX - LAW Prop House #1,1956,01,1651 Bryan Rd,Bryan,77807,TEEX - LAW Prop House #1 |  | 7801,79.435919822624925,279.895539541697076
, ,,No,UNIVERSITY,,,,,,,,, |  | ,19.185458549365130,23.001560003722609
,7800,,No,UNIVERSITY,7800,,TEES Smoke Detector Research,1956,01,1675 Bryan Rd,Bryan,77807,TEES Smoke Detector Research |  | 7800,51.321084359558355,148.491948504893060
,8525,,No,UNIVERSITY,8525,,Food Protein R&D Center,1997,02,1696 Bryan Rd,Bryan,77807,Food Protein R&D Center |  | 8525,151.436243662168948,1066.659353954371227
,6880,,No,UNIVERSITY,6880,,Swimming Pool No 2,,,,Bryan,77807,Swimming Pool No 2 |  | 6880,75.582429546160554,315.728825550790475
,7180,,No,UNIVERSITY,7180,,Processing Lab,1980,01,1366 7th St,Bryan,77807,Processing Lab |  | 7180,130.881879488199985,737.065178511539898
, ,,No,UNIVERSITY,,,,,,,,, |  | ,15.192346119290427,14.417341011686265
,8032,,No,UNIVERSITY,8032,,Ocean Drilling Test Facility,1986,01,1725 Flight Line Rd,Bryan,77807,Ocean Drilling Test Facility |  | 8032,28.916708421044714,51.526287999874995
, ,,No,UNIVERSITY,,,,,,,,, |  | ,21.182269245615242,18.829452991412705
,7177,,No,UNIVERSITY,7177,,Nautical Archeology Storage,1943,01,1757 Avenue B,Bryan,77807,Nautical Archeology Storage |  | 7177,90.174030562253847,291.023046094503343
,8000,,No,UNIVERSITY,8000,,TEEX ITSI Garage & Offices,1976,01,1450 7th St,Bryan,77807,TEEX ITSI Garage & Offices |  | 8000,121.630823489271307,776.056725975228233
,7182,,No,UNIVERSITY,7182,,Extraction Building,1984,01,1376 7th St,Bryan,77807,Extraction Building |  | 7182,27.637157992384587,31.928899490204930
, ,,No,UNIVERSITY,,,,,,,,, |  | ,13.369189364747815,11.019938000344753
,8031,,No,UNIVERSITY,8031,,IODP/Oceanography Bldg,1953,01,1727 Flight Line Rd,Bryan,77807,IODP/Oceanography Bldg |  | 8031,203.936063972868766,2009.930007297303973
, ,,No,UNIVERSITY,,,,,,,,, |  | ,9.461387199333126,5.185155005828738
,7181,,No,UNIVERSITY,7181,,Solvent Extraction Building,1980,01,1372 7th St,Bryan,77807,Solvent Extraction Building |  | 7181,49.435211588272665,143.723653454782095
,7176,,No,UNIVERSITY,7176,,Publications Pro. Center,1943,01,1761 Avenue B,Bryan,77807,Publications Pro. Center |  | 7176,90.223714747011371,290.673750555991319
,7183,,No,UNIVERSITY,7183,,Refinery,1986,01,1384 7th St,Bryan,77807,Refinery |  | 7183,44.754479773692921,123.370194958073483
, ,,No,UNIVERSITY,,,,,,,,, |  | ,38.309693795920985,91.700190503392861
,6882,,No,UNIVERSITY,6882,,Rest Rooms,1957,01,1761 7th St,Bryan,77807,Rest Rooms |  | 6882,31.269870905181044,61.107193009151118
,7184,,No,UNIVERSITY,7184,,Fats & Oils Processing Building,1986,01,1370 7th St,Bryan,77807,Fats & Oils Processing Building |  | 7184,65.693343084476396,178.870417527687266
,7911,,No,UNIVERSITY,7911,,TEEX EUPWTI Parking,1993,01,1808 Avenue B,Bryan,77807,TEEX EUPWTI Parking |  | 7911,77.556904272328865,372.245493910731113
,6030,ELTC,No,UNIVERSITY,6030,ELTC,TEEX Hangar/Classrooms,1953,01,1777 Flight Line Rd,Bryan,77807,TEEX Hangar/Classrooms | ELTC | 6030,195.209175286449010,1971.958314610213392
,7908,,No,UNIVERSITY,7908,,TEEX EUPWTI Building,1993,01,1250 Project Dr,Bryan,77807,TEEX EUPWTI Building |  | 7908,60.610000072281785,207.910607516024186
, ,,No,UNIVERSITY,,,,,,,,, |  | ,8.068373073139146,4.068362000237882
,1700,,No,UNIVERSITY,1700,,Schmidt House,1976,01,3869 F&B Rd,College Station,77843,Schmidt House |  | 1700,82.825932522969239,329.941256993371269
,1701,,No,UNIVERSITY,1701,,Texas A&M Polo Club Stables,2002,01,3913 F&B Rd,College Station,77843,Texas A&M Polo Club Stables |  | 1701,108.237668281112946,509.935134679261864
, ,,No,UNIVERSITY,,,,,,,,, |  | ,53.812167526606480,146.103494455654186
, ,,No,OTHER,,,,,,,,, |  | ,22.262518932817528,29.167636993000386
,1491,,No,UNIVERSITY,1491,,Shed At Challenge Course,2003,01,3634 N Traditions Dr,Bryan,77807,Shed At Challenge Course |  | 1491,13.144108628480030,10.363940241615662
, ,,No,UNIVERSITY,,,,,,,,, |  | ,18.420438272700636,21.194274987901004
,1753,,No,UNIVERSITY,1753,,Reproductive Sciences Bldg. D,2007,01,4011 Riverside Parkway,Bryan,77807,Reproductive Sciences Bldg. D |  | 1753,60.643792635095870,177.223989709599010
,1751,,No,UNIVERSITY,1751,,Reproductive Sciences Bldg. B,2007,01,4011 Riverside Parkway,Bryan,77807,Reproductive Sciences Bldg. B |  | 1751,72.833965811872332,323.402283145852778
,1750,,No,UNIVERSITY,1750,,Reproductive Sciences Bldg. A,2007,01,4011 Riverside Parkway,Bryan,77807,Reproductive Sciences Bldg. A |  | 1750,154.634902093600658,648.312315970416762
,1752,,No,UNIVERSITY,1752,,Reproductive Sciences Bldg. C,2007,01,4011 Riverside Parkway,Bryan,77807,Reproductive Sciences Bldg. C |  | 1752,68.505384230567941,287.811040967536655
,1754,,No,UNIVERSITY,1754,,Reproductive Sciences Bldg. E,2007,01,4011 Riverside Parkway,Bryan,77807,Reproductive Sciences Bldg. E |  | 1754,58.309822388700397,163.023393136265213
,1755,,No,UNIVERSITY,1755,,Reproductive Sciences Bldg. F,2007,01,4011 Riverside Parkway,Bryan,77807,Reproductive Sciences Bldg. F |  | 1755,38.638568525626702,92.643836945974670
,1756,,No,UNIVERSITY,1756,,Reproductive Sciences Bldg. G,2007,01,4011 Riverside Parkway,Bryan,77807,Reproductive Sciences Bldg. G |  | 1756,37.742889337665538,86.796030845617224
,1757,,No,UNIVERSITY,1757,,Reproductive Sciences Bldg. H,2007,01,4011 Riverside Parkway,Bryan,77807,Reproductive Sciences Bldg. H |  | 1757,37.030571034416191,83.533963503784065
,1758,,No,UNIVERSITY,1758,,Reproductive Sciences Bldg. I,2007,01,4011 Riverside Parkway,Bryan,77807,Reproductive Sciences Bldg. I |  | 1758,20.850556936862681,27.025040152622708
,1759,,No,UNIVERSITY,1759,,Reproductive Sciences Bldg. J,2007,01,4011 Riverside Parkway,Bryan,77807,Reproductive Sciences Bldg. J |  | 1759,60.832919720560120,213.140688121942361
,1702,,No,UNIVERSITY,1702,,Equestrian Bldg@BrazosCo ExpoCtr (Vacated in 2014),2009,01,,Bryan,77807,Equestrian Bldg@BrazosCo ExpoCtr (Vacated in 2014) |  | 1702,115.519216594132146,812.436894820825728
,6884,,No,UNIVERSITY,6884,,Honey Bee/Apiary Services Building,2009,01,1759 7th St,Bryan,77807,Honey Bee/Apiary Services Building |  | 6884,108.812619790514418,609.274590776084779
,1720,TGLC,No,UNIVERSITY,1720,TGLC,Traditions Golf Learning Center,2008,02,3880 S Traditions Dr,Bryan,77807,Traditions Golf Learning Center | TGLC | 1720,122.793782209149910,518.969437097314653
,7096,,No,UNIVERSITY,7096,,TTI Environmental & Emissions Research Facility,2009,01,1375 Flight Line Rd,Bryan,77807,TTI Environmental & Emissions Research Facility |  | 7096,101.313666381853935,622.235224344172593
,7752,,No,UNIVERSITY,7752,,TEEX - LAW Gym,2012,01,1451 Avenue D,Bryan,77807,TEEX - LAW Gym |  | 7752,137.507124400614515,962.075447795798027
,HSC4,HSCUP,No,HSC,HSC4,HSCUP,CUP - CENTRAL UTILITY PLANT (HSC 001002),2014,01,,Bryan,77807,CUP - CENTRAL UTILITY PLANT (HSC 001002) | HSCUP | HSC4,145.084754768206381,1302.221196174684565
,HSC2,MREB,No,HSC,HSC2,MREB,MEDICAL RESEARCH EDUCATION BUILDING (HSC 001001),2011,04,8447 Riverside Pw,Bryan,77807,MEDICAL RESEARCH EDUCATION BUILDING (HSC 001001) | MREB | HSC2,309.905204945169544,2633.487515908767818
,HSC1,HPEB,No,HSC,HSC1,HPEB,HEALTH PROFESSIONS EDUCATION BUILDING (HSC 001000),2011,03,8447 Riverside Pw,Bryan,77807,HEALTH PROFESSIONS EDUCATION BUILDING (HSC 001000) | HPEB | HSC1,234.288165255432915,2861.624166383771353
,HSC3,CB1,No,HSC,HSC3,CB1,CLINICAL BUILDING 1 (HSC 002000),2011,04,8441 Riverside Pw,Bryan,77807,CLINICAL BUILDING 1 (HSC 002000) | CB1 | HSC3,253.301812265518294,3127.576505504015586
,GCON,GCON,Yes,RESEARCH,,,,,,,,, | GCON | ,418.700734789092451,9295.055411307952454
,0171,,No,OTHER,0171,,Equine Initiative Barn,2013,01,3272 F&B Rd,College Station,77843,Equine Initiative Barn |  | 0171,515.736875473552573,6376.549923048489291
,0179,,No,SPORTS,0179,,Equine Initiative Warm Up Arena #2,2013,01,3254 F&B Rd,College Station,77843,Equine Initiative Warm Up Arena #2 |  | 0179,170.808550492061698,1739.313406534855858
,0173,,No,SPORTS,0173,,Houston Livestock Show & Rodeo Western Arena,2013,02,3246 F&B Rd,College Station,77843,Houston Livestock Show & Rodeo Western Arena |  | 0173,279.095796984655635,4606.628625613994700
,0174,,No,SPORTS,0174,,Equine Initiative Concessions/Locker Bldg,2013,01,3250 F&B Rd,College Station,77843,Equine Initiative Concessions/Locker Bldg |  | 0174,110.885732347882538,743.524734809738902
,0175,,No,SPORTS,0175,,Equine Initiative Equestrian/Locker Bldg,2013,01,3242 F&B Rd,College Station,77843,Equine Initiative Equestrian/Locker Bldg |  | 0175,118.424741424532371,784.585526854560271
,0176,,No,SPORTS,0176,,Hunt Seat Arena,2013,02,3234 F&B Rd,College Station,77843,Hunt Seat Arena |  | 0176,328.475950752881602,6306.641997556581373
,0178,EQOB,No,ACADEMIC,0178,EQOB,Equine Initiative Outreach Bldg,2013,01,3230 F&B Rd,College Station,77843,Equine Initiative Outreach Bldg | EQOB | 0178,244.705227965200123,2625.710912915632889
,0172,,No,SPORTS,0172,,Equine Initiative Warm Up Arena #1,2013,01,3260 F&B Rd,College Station,77843,Equine Initiative Warm Up Arena #1 |  | 0172,170.672863687508794,1738.415420830768426
,0177,EQEB,No,ACADEMIC,0177,EQEB,Equine Initiative Education Bldg,2013,01,3228 F&B Rd,College Station,77843,Equine Initiative Education Bldg | EQEB | 0177,116.399523086983109,844.830315732350073
,1490,,No,UNIVERSITY,1490,,Cabin At Challenge Course,2003,01,3630 N Traditions Dr,Bryan,77807,Cabin At Challenge Course |  | 1490,22.225199997425079,30.869671272697659
, ,,No,UNIVERSITY,,,,,,,,, |  | ,16.452307811619050,16.879382018838783
,8520,JLF,No,UNIVERSITY,8520,JLF,Joint Library Facility with UT,2013,01,1090 Bryan Rd,Bryan,77807,Joint Library Facility with UT | JLF | 8520,253.818355590771432,2630.417929848426411
, ,,No,UNIVERSITY,,,,,,,,, |  | ,85.405222467317941,339.434888291969799
,0180,,No,UNIVERSITY,0180,,Equine Initiative Horse Stall Bldg,2013,01,3284 F&B Rd,College Station,77843,Equine Initiative Horse Stall Bldg |  | 0180,117.104199855073148,521.516894202351864
,0181,,No,UNIVERSITY,0181,,Equine Initiative Equipment Shed,2013,01,3288 F&B Rd,College Station,77843,Equine Initiative Equipment Shed |  | 0181,154.150638467538585,1086.593521686862687
,,,No,UNIVERSITY,,,,,,,,, |  | ,62.706807323718152,233.054440464645097
,,,No,UNIVERSITY,,,,,,,,, |  | ,112.691763596448411,203.053684339723731
,7067,,No,UNIVERSITY,7067,,TEEX - LAW Driving Track Restroom,2014,01,,Bryan,77807,TEEX - LAW Driving Track Restroom |  | 7067,51.613581186221005,161.214993821352266
,1200,,No,OTHER,1200,,McFerrin '65 Parsons Mounted Cavalry Headquarters,2016,01,3748 F&B Rd,College Station,77843,McFerrin '65 Parsons Mounted Cavalry Headquarters |  | 1200,116.866639915650822,681.556743241397157
,7899,,No,UNIVERSITY,7899,,TEEX ELECTRICAL POWER TRAINING STORAGE,2013,01,1151 7th St,Bryan,77807,TEEX ELECTRICAL POWER TRAINING STORAGE |  | 7899,83.511929155811117,317.136652944352591
,2947,,No,LEASE,2947,,Parker Lumber Office,2015,01,419 N Main St,Bryan,77807,Parker Lumber Office |  | 2947,108.278900032866432,398.030768393625067
,CIADM,CIADM,Yes,RESEARCH,,,,,,,,, | CIADM | ,630.607947114279227,12274.474852744035161
,0817,,No,UNIVERSITY,0817,,Well Field Pump Station,1953,02,2951 Luza Ln,College Station,77843,Well Field Pump Station |  | 0817,51.047210350278881,159.541056546932907
,,,No,UNIVERSITY,,,,,,,,, |  | ,78.654522499937926,492.308726166654310
,,,No,UNIVERSITY,,,,,,,,, |  | ,29.046281242371101,48.299279407273815
,,,No,UNIVERSITY,,,,,,,,, |  | ,29.046281242371101,48.299279407273815
,HSC5,MREB2,No,HSC,,,,,,,,, | MREB2 | ,159.271284634049181,1425.654395761500155
,8684,,No,UNIVERSITY,8684,,New Rifle Range Pavilion,2016,01,,Bryan,77807,New Rifle Range Pavilion |  | 8684,62.461261644119240,240.396303024528009
,8687,,No,UNIVERSITY,8687,,TEEX - LAW Shoot House,2009,01,,Bryan,77807,TEEX - LAW Shoot House |  | 8687,70.354204101239205,252.716133253028488
,,,No,UNIVERSITY,,,,,,,,, |  | ,79.358985972676436,243.749065439974004
,7008,,No,UNIVERSITY,7008,,Automated Fabrication & Design Expansion Building,2016,01,1482 Avenue D,Bryan,77807,Automated Fabrication & Design Expansion Building |  | 7008,97.858699338479582,559.438480862936217
,8535,CIR,No,RESEARCH,8535,CIR,Center for Infrastructure Renewal -RELLIS,2017,,8777 W SH 21,Bryan,,Center for Infrastructure Renewal -RELLIS | CIR | 8535,517.692945453925859,7533.597843404341802
,HSC6,HSTEL,No,HSC,HSC6,,HSC TELECOMMUNICATIONS BLDG (001003),2012,01,,Bryan,77807,HSC TELECOMMUNICATIONS BLDG (001003) | HSTEL | HSC6,72.424884864356784,320.160016179550496
,HSC2,MREBA,No,HSC,HSC2,MREB,MEDICAL RESEARCH EDUCATION BUILDING (HSC 001001),2011,04,8447 Riverside Pw,Bryan,77807,MEDICAL RESEARCH EDUCATION BUILDING (HSC 001001) | MREBA | HSC2,87.576484165190124,429.670594353971069
,BL-1,BLINN,,,BL-1,BL1,Blinn1,,,1366 BRYAN RD,Bryan,77807,Blinn1 | BLINN | BL-1,228.838745191861818,1911.041235946260031
, ,,No,UNIVERSITY,,,,,,,,, |  | ,17.807605401710894,19.175363289744350
, ,,No,UNIVERSITY,,,,,,,,, |  | ,23.998235498989459,34.416910723779836
, ,,No,UNIVERSITY,,,,,,,,, |  | ,124.042680549921528,681.807787733587588
, ,,No,UNIVERSITY,,,,,,,,, |  | ,16.667926631238807,17.363174373896015
, ,,No,UNIVERSITY,,,,,,,,, |  | ,16.405131380615380,16.820008523480649
, ,,No,UNIVERSITY,,,,,,,,, |  | ,16.341229666781835,16.624731248998270
, ,,No,UNIVERSITY,,,,,,,,, |  | ,23.549035262685297,32.543877340028182
, ,,No,UNIVERSITY,,,,,,,,, |  | ,16.809932685540140,17.637901482833271
, ,,No,UNIVERSITY,,,,,,,,, |  | ,13.269493921003143,10.861039224728424
, ,,No,UNIVERSITY,,,,,,,,, |  | ,13.035168338272232,10.451133786089297
, ,,No,UNIVERSITY,,,,,,,,, |  | ,9.743345238994911,5.914716144724137
, ,,No,UNIVERSITY,,,,,,,,, |  | ,28.406255507508646,50.399055533906385
, ,,No,UNIVERSITY,,,,,,,,, |  | ,28.911451000457813,47.997737800672105
, ,,No,UNIVERSITY,,,,,,,,, |  | ,28.227121016156410,43.659985516006969
, ,,No,UNIVERSITY,,,,,,,,, |  | ,34.550814790025910,73.555358742120873
,5200,,No,UNIVERSITY,5200,,Metal Building,2000,01,3646 Finfeather Rd,College Station,77843,Metal Building |  | 5200,64.209021855957374,220.158853519813363
,8906,,No,UNIVERSITY,8906,,Transportation Services Barricade Storage,1996,01,180 Agronomy Rd,College Station,77843,Transportation Services Barricade Storage |  | 8906,18.288027866813607,18.580597733916285
,0377,SUP3,No,OTHER,0377,SUP3,Satellite Utility Plant No. 3,1989,01,477 Joe Routt Bl,College Station,77843,Satellite Utility Plant No. 3 | SUP3 | 0377,173.290318678413229,1788.588648780149242
,0468,LIBR,No,LIBRARY,0468,LIBR,Evans Library,1929,07,400 Spence St,College Station,77843,Evans Library | LIBR | 0468,893.154837273920862,13410.187389748200076
,0400,SPEN,No,HOUSING TAMU,0400,SPEN,Spence Hall - Dorm 1,1938,04,605 Military Mall,College Station,77843,Spence Hall - Dorm 1 | SPEN | 0400,168.851998616375170,867.977870202375016
,0401,KIES,No,HOUSING TAMU,0401,KIES,Kiest Hall - Dorm 2,1938,05,606 Military Mall,College Station,77843,Kiest Hall - Dorm 2 | KIES | 0401,167.997718435802255,863.707906023150827
,0406,LEON,No,HOUSING TAMU,0406,LEON,Leonard Hall - Dorm 7,1938,04,695 Military Mall,College Station,77843,Leonard Hall - Dorm 7 | LEON | 0406,163.586744318987883,814.198232404889382
,0407,HARL,No,HOUSING TAMU,0407,HARL,Harrell Hall - Dorm 8,1938,05,696 Military Mall,College Station,77843,Harrell Hall - Dorm 8 | HARL | 0407,160.335264079945148,816.313903875071787
,1010,VIV2,No,ACADEMIC,1010,VIV2,TVMC-Small Animal Research Building,1959,01,157 Agronomy Rd,College Station,77843,TVMC-Small Animal Research Building | VIV2 | 1010,72.414356689347173,248.238644042037407
, ,,No,UNIVERSITY,,,,,,,,, |  | ,81.407869203618844,305.560992898856739
,0402,BRIG,No,HOUSING TAMU,0402,BRIG,Briggs Hall - Dorm 3,1938,04,635 Military Mall,College Station,77843,Briggs Hall - Dorm 3 | BRIG | 0402,164.677237434700601,847.041842817190741
,0394,UNDE,No,HOUSING TAMU,0394,UNDE,Underwood Residence Hall,1981,04,644 Mosher Ln,College Station,77843,Underwood Residence Hall | UNDE | 0394,267.028825331025701,1736.748921979671195
,0815,ERLB,No,ACADEMIC,0815,ERLB,Entomology Research Lab,1949,01,122 Agronomy Rd,College Station,77843,Entomology Research Lab | ERLB | 0815,320.037593404119548,1712.541075870076611
,0416,BIZL,No,ACADEMIC,0416,BIZL,Bizzell Hall,1918,04,471 Houston St,College Station,77843,Bizzell Hall | BIZL | 0416,191.208700203149448,854.886129715357356
,0404,GAIN,No,HOUSING TAMU,0404,GAIN,Gainer Hall - Dorm 5,1938,05,665 Military Mall,College Station,77843,Gainer Hall - Dorm 5 | GAIN | 0404,163.552058775535613,846.864698784032953
,1041,VMDL,No,ACADEMIC,1041,VMDL,Texas Vet Med Diagnostic Lab,1969,02,188 Sippel Rd,College Station,77843,Texas Vet Med Diagnostic Lab | VMDL | 1041,262.044235151307362,3672.123182636953970
, ,,No,UNIVERSITY,,,,,,,,, |  | ,29.203407051109512,38.649493794041788
,1192,VMSB,No,ACADEMIC,1192,VMSB,TVMC-Surgery Building,1988,01,510 Turk Rd,College Station,77843,TVMC-Surgery Building | VMSB | 1192,171.088288115220450,1115.671531214484503
,1020,VIV3,No,ACADEMIC,1020,VIV3,Vivarium III,1968,01,161 Agronomy Rd,College Station,77843,Vivarium III | VIV3 | 1020,127.344732802931645,881.443776791988967
,1034,AEPM,No,ACADEMIC,1034,AEPM,AG Engineering Power & Machinery Building,1963,02,379 Olsen Bl,College Station,77843,AG Engineering Power & Machinery Building | AEPM | 1034,201.278679647111773,1436.877836684069734
, ,,No,UNIVERSITY,,,,,,,,, |  | ,67.773945249329884,275.268679614130065
,4634,FSSB,No,ACADEMIC,4634,FSSB,Variety Testing and Sorghum Breeding,1953,03,405 Turk Rd,College Station,77843,Variety Testing and Sorghum Breeding | FSSB | 4634,177.094724415097062,1207.271037548035110
,1234,,No,OTHER,1234,,Dry Feed Storage Facility,2003,01,230 Raymond Stotzer Pw,College Station,77843,Dry Feed Storage Facility |  | 1234,109.594505181373009,728.536493554332196
,1068,,No,ACADEMIC,1068,,Crop Testing,1971,01,240 Sippel Rd,College Station,77843,Crop Testing |  | 1068,61.462808127628165,162.314522959915962
,0403,FOUN,No,HOUSING TAMU,0403,FOUN,Fountain Hall - Dorm 4,1938,05,636 Military Mall,College Station,77843,Fountain Hall - Dorm 4 | FOUN | 0403,163.792214601225766,847.455643571631413
,1030,AESH,No,ACADEMIC,1030,AESH,AG Engr Res Lab & Shop,1960,02,377 Olsen Bl,College Station,77843,AG Engr Res Lab & Shop | AESH | 1030,112.115113438069727,775.315823413760427
,1084,,No,UNIVERSITY,1084,,West Campus Switching Station,1980,02,385 Olsen Bl,College Station,77843,West Campus Switching Station |  | 1084,66.367630545450396,233.531479473888311
,0943,,No,UNIVERSITY,0943,,TVMC-Barn No 2,1957,01,537 Turk Rd,College Station,77843,TVMC-Barn No 2 |  | 0943,74.555067701257812,308.534703005174265
,1225,,No,UNIVERSITY,1225,,TVMC-Animal Isolation Bldg #6,1988,01,925 Turk Rd,College Station,77843,TVMC-Animal Isolation Bldg #6 |  | 1225,32.394686082361169,62.805019006626068
, ,,No,UNIVERSITY,,,,,,,,, |  | ,26.326796029663306,36.038078966827584
, ,,No,UNIVERSITY,,,,,,,,, |  | ,43.152372507712570,106.546471645377139
, ,USDA,Yes,FEDERAL,,,,,,,,, | USDA | ,192.179969810316010,974.883367852665288
, ,USDA,Yes,FEDERAL,,,,,,,,, | USDA | ,3.014552054002938,0.566199002415895
, ,USDA,Yes,FEDERAL,,,,,,,,, | USDA | ,114.801146593028761,482.060487412870771
, ,USDA,Yes,FEDERAL,,,,,,,,, | USDA | ,11.113770389420182,7.606132003548771
, ,USDA,Yes,FEDERAL,,,,,,,,, | USDA | ,79.604488419953569,342.582055432320658
, ,USDA,Yes,FEDERAL,,,,,,,,, | USDA | ,370.393092902871047,3782.987353118760893
, ,USDA,Yes,FEDERAL,,,,,,,,, | USDA | ,127.068784978351772,794.785379591807555
, ,USDA,Yes,FEDERAL,,,,,,,,, | USDA | ,94.241485662905532,392.655371005255120
, ,USDA,Yes,FEDERAL,,,,,,,,, | USDA | ,89.728830781938512,318.822125048918622
, ,USDA,Yes,FEDERAL,,,,,,,,, | USDA | ,124.231817795252184,701.717745963067955
, ,USDA,Yes,FEDERAL,,,,,,,,, | USDA | ,74.704900189178858,250.684626020236095
, ,USDA,Yes,FEDERAL,,,,,,,,, | USDA | ,89.110331207030470,317.817613036749776
, ,USDA,Yes,FEDERAL,,,,,,,,, | USDA | ,61.015625516532403,187.085822558522182
, ,USDA,Yes,FEDERAL,,,,,,,,, | USDA | ,146.551041276666808,1299.636079948199949
, ,USDA,Yes,FEDERAL,,,,,,,,, | USDA | ,343.575616652031442,1272.939291487561832
, ,USDA,Yes,FEDERAL,,,,,,,,, | USDA | ,32.189226193960216,48.016934457292294
, ,USDA,Yes,FEDERAL,,,,,,,,, | USDA | ,32.676653022343338,49.177996979003282
,0117,POST,Yes,FEDERAL,0117,,North Gate Post Office Building,,01,,College Station,77843,North Gate Post Office Building | POST | 0117,148.019619816343692,1095.126692147984386
, ,,No,UNIVERSITY,,,,,,,,, |  | ,35.347048181471266,50.126541005875183
, ,,No,UNIVERSITY,,,,,,,,, |  | ,14.286565823672925,11.116423008710564
, ,,No,UNIVERSITY,,,,,,,,, |  | ,13.292639320646444,10.245619992477000
, ,,No,UNIVERSITY,,,,,,,,, |  | ,78.326468761727241,154.173620881483714
, ,,No,LEASE,,,,,,,,, |  | ,186.410890273087887,2215.325001596228503
,2918,,No,LEASE,2918,,"Executive Office Plaza, Bryan Tx",2004,02,3608 W 29th St,Bryan,77807,"Executive Office Plaza, Bryan Tx |  | 2918",245.034211337916162,1804.486085059361812
,3400,USB,No,UNIVERSITY,3400,USB,University Services Building,1982,01,3380 University Dr E,College Station,77843,University Services Building | USB | 3400,499.368734122303579,14222.530385250644031
,2913,,No,LEASE,2913,,3400 S Texas (Family Health Center),2000,01,3400 S Texas Av,College Station,77843,3400 S Texas (Family Health Center) |  | 2913,183.670016845822289,1836.779613913927278
,3201,,No,UNIVERSITY,3201,,State HQTRS Thermal Plant,1991,01,305 Tarrow St,College Station,77843,State HQTRS Thermal Plant |  | 3201,69.691198436927024,299.217002017397760
,3200,,No,UNIVERSITY,3200,,Moore-Connally Building,1991,07,301 Tarrow St,College Station,77843,Moore-Connally Building |  | 3200,215.926939722868667,2257.721233288785697
,2912,,No,LEASE,2912,MTRO,3833 Texas Ave (Metro Center),2000,01,3833 S Texas Av,Bryan,77807,3833 Texas Ave (Metro Center) |  | 2912,471.731306196437174,2927.160706185160507
,2917,,No,LEASE,2917,,702 E University Bldg E,2004,01,702 University Dr E,College Station,77843,702 E University Bldg E |  | 2917,97.770753553213183,535.777054923934543
,8800,,No,UNIVERSITY,8800,,Bonfire Memorial Restroom,2004,01,249 Polo Rd,College Station,77843,Bonfire Memorial Restroom |  | 8800,24.435162130102068,34.550902024492579
,2901,,No,LEASE,2901,,Eastmark Building,2016,02,7607 Eastmark Dr,College Station,77843,Eastmark Building |  | 2901,244.814918955774772,2754.414800096526051
, ,,No,LEASE,,,,,,,,, |  | ,346.646428367981002,4190.694464014326513
, ,,No,UNIVERSITY,,,,,,,,, |  | ,12.930701293383265,10.092818512940086
, ,,No,UNIVERSITY,,,,,,,,, |  | ,24.326913792775340,36.876749077613198
,1530,ILSB,No,ACADEMIC,1530,ILSB,Interdisciplinary Life Sciences Building,2009,04,301 Old Main Dr,College Station,77843,Interdisciplinary Life Sciences Building | ILSB | 1530,530.284725337238342,6998.072137210609981
,1547,,No,SPORTS,1547,,McFerrin Athletic Center-Indoor Football,2006,01,177 Wellborn Rd,College Station,77843,McFerrin Athletic Center-Indoor Football |  | 1547,357.741137155846729,7018.271825469662872
,1548,ITRK,No,SPORTS,1548,ITRK,McFerrin Athletic Center-Indoor Track,2008,02,171 Wellborn Rd,College Station,77843,McFerrin Athletic Center-Indoor Track | ITRK | 1548,432.252871510305283,11119.032250686545012
,0427,FOWL,No,HOUSING TAMU,0427,FOWL,Fowler Residence Hall,1966,05,225 Jones St,College Station,77843,Fowler Residence Hall | FOWL | 0427,222.851266212846269,1312.708877004943588
,0357,,No,UNIVERSITY,0357,,Vending Machine Booth,1999,01,408 Spence St,College Station,77843,Vending Machine Booth |  | 0357,31.084954464558805,54.451907776893499
,1184,VAPA,No,ACADEMIC,1184,VAPA,Veterinary Anatomic Pathology,2006,02,211 Sippel Rd,College Station,77843,Veterinary Anatomic Pathology | VAPA | 1184,191.270373133265196,1619.895321913754287
,1900,TIGM,No,OTHER,1900,TIGM,Texas A&M Institute For Genomic Medicine,2009,02,670 Raymond Stotzer Pw,College Station,77843,Texas A&M Institute For Genomic Medicine | TIGM | 1900,242.620704590095499,3169.199354275137466
, ,,No,UNIVERSITY,,,,,,,,, |  | ,54.457510809653002,167.142464803123914
,0991,,No,UNIVERSITY,0991,,VMP Shop,1968,01,633 Turk Rd,College Station,77843,VMP Shop |  | 0991,96.452742617863137,539.151785288381234
, ,,No,UNIVERSITY,,,,,,,,, |  | ,42.975942525213341,109.819996002878327
,1558,,No,SPORTS,1558,,Cox-McFerrin Center for Aggie Basketball,2009,03,736 Olsen Bl,College Station,77843,Cox-McFerrin Center for Aggie Basketball |  | 1558,315.698877171024833,3796.006112078520800
, ,,No,UNIVERSITY,,,,,,,,, |  | ,46.825863537753605,107.415526740099253
, ,,No,UNIVERSITY,,,,,,,,, |  | ,26.281401030282215,34.447843524964057
, ,,No,UNIVERSITY,,,,,,,,, |  | ,27.040525528982723,39.251572979408223
, ,,No,UNIVERSITY,,,,,,,,, |  | ,23.053713690035870,32.288172681389796
, ,,No,UNIVERSITY,,,,,,,,, |  | ,22.722842146886830,31.186393752286889
, ,,No,UNIVERSITY,,,,,,,,, |  | ,15.507109756774517,14.122997627854463
,1599,2RPK,No,OTHER,1599,2RPK,2 Research Park,2002,02,1700 Research Pw,College Station,77843,2 Research Park | 2RPK | 1599,278.118172861686332,3519.966630836132026
,0412,MOSE,No,HOUSING TAMU,0412,MOSE,Moses Residence Hall,1942,04,212 University Dr,College Station,77843,Moses Residence Hall | MOSE | 0412,162.089890624365069,870.837998535980546
,1412,,No,HOUSING TAMU,1412,,Civilian Lounge - A2,1964,01,212 University Dr,College Station,77843,Civilian Lounge - A2 |  | 1412,71.071280827322994,302.163247818804962
,0415,DAVI,No,HOUSING TAMU,0415,DAVI,Davis-Gary Residence Hall,1942,04,210 University Dr,College Station,77843,Davis-Gary Residence Hall | DAVI | 0415,167.852764245013390,907.907140914882348
,1415,A3,No,HOUSING TAMU,1415,CVLNA3,Civilian Lounge - A3,1964,01,210 University Dr,College Station,77843,Civilian Lounge - A3 | A3 | 1415,70.846360943265879,300.056105332607501
,0495,SBSA,No,DINING,0495,SBSA,Sbisa Dining Hall,1912,02,233 Houston St,College Station,77843,Sbisa Dining Hall | SBSA | 0495,357.825210379893235,5435.880492262195730
,0420,MILN,No,ACADEMIC,0420,MILN,Milner Hall,1911,04,425 Ross St,College Station,77843,Milner Hall | MILN | 0420,133.452340018183719,1011.124879544568898
,0441,KRUE,No,HOUSING TAMU,0441,KRUE,Krueger Residence Hall,1972,04,722 Lubbock St,College Station,77843,Krueger Residence Hall | KRUE | 0441,421.071699673753926,2656.106625129488748
,0977,,No,UNIVERSITY,0977,,CMP-Animal Housing Unit,1978,01,676 Turk Rd,College Station,77843,CMP-Animal Housing Unit |  | 0977,41.856290143022093,109.483625979416246
,0277,,No,UNIVERSITY,0277,,TX FOREST SERVICE GREENHOUSE,1981,01,,College Station,77843,TX FOREST SERVICE GREENHOUSE |  | 0277,47.146861023364771,127.782568421938407
,0294,LECH,No,HOUSING TAMU,0294,LECH,Lechner Residence Hall,1989,04,232 Houston St,College Station,77843,Lechner Residence Hall | LECH | 0294,183.229448432700167,1391.835895203757673
,1188,,No,UNIVERSITY,1188,,Forest Science Storage,1984,01,260 Agronomy Rd,College Station,77843,Forest Science Storage |  | 1188,28.380360320897299,49.830606238228626
,1086,,No,UNIVERSITY,1086,,CMP-Housing Unit,1980,01,684 Turk Rd,College Station,77843,CMP-Housing Unit |  | 1086,56.450342252165484,168.810445014257283
,0955,,No,ACADEMIC,0955,,Soil/Crop Cotton Genetic Greenhouse,1988,01,357 Agronomy Rd,College Station,77843,Soil/Crop Cotton Genetic Greenhouse |  | 0955,142.780159087314559,616.349275490799869
,1078,,No,UNIVERSITY,1078,,Soil & Crop Peanut Greenhouse,1977,01,392 Turk Rd,College Station,77843,Soil & Crop Peanut Greenhouse |  | 1078,72.156760657830759,271.451163975906411
,1063,,No,UNIVERSITY,1063,,Greenhouse-Cotton Taxonomy,1967,01,372 Turk Rd,College Station,77843,Greenhouse-Cotton Taxonomy |  | 1063,57.633079406904393,189.993966988943072
,1167,,No,UNIVERSITY,1167,,CUSE-Insect Testing Lab,1962,01,170 Agronomy Rd,College Station,77843,CUSE-Insect Testing Lab |  | 1167,57.716274355328622,146.683179996937213
,1029,,No,UNIVERSITY,1029,,Agronomy Implement Storage,1960,01,321 Agronomy Rd,College Station,77843,Agronomy Implement Storage |  | 1029,137.616990708217486,474.550774541073793
,1043,,No,ACADEMIC,1043,,Mosquito Research Lab,1973,02,172 Agronomy Rd,College Station,77843,Mosquito Research Lab |  | 1043,91.026505975383415,394.065903373487799
,1509,MEDL,No,LIBRARY,1509,MEDL,Medical Sciences Library,1985,03,202 Olsen Bl,College Station,77843,Medical Sciences Library | MEDL | 1509,260.419315441712229,4043.122031276143389
,0630,PRVP,No,OTHER,0630,PRVP,Vice President's Residence,1939,02,750 Throckmorton St,College Station,77843,Vice President's Residence | PRVP | 0630,126.192574346603436,431.148270497937347
,1504,REYN,No,ACADEMIC,1504,REYN,Reynolds Medical Sciences Building,1983,04,206 Olsen Bl,College Station,77843,Reynolds Medical Sciences Building | REYN | 1504,298.883369721311851,3970.721928742677846
,1511,WCLF,No,LIBRARY,1511,WCLF,West Campus Library Facility,1994,03,214 Olsen Bl,College Station,77843,West Campus Library Facility | WCLF | 1511,233.802313670302851,2458.881926441045380
,0880,,No,ACADEMIC,0880,,TVMC-Small Animal Building,1955,01,141 Agronomy Rd,College Station,77843,TVMC-Small Animal Building |  | 0880,77.195993761154369,319.387310043283321
,0378,SSPG,No,GARAGE,0378,SSPG,South Side Parking Garage,1990,04,750 Bizzell St,College Station,77843,South Side Parking Garage | SSPG | 0378,553.269233016415569,14543.691412792895790
, ,,No,UNIVERSITY,,,,,,,,, |  | ,34.272808027014392,88.607896524173000
, ,,No,UNIVERSITY,,,,,,,,, |  | ,18.491073631453943,24.674160013361053
, ,,No,UNIVERSITY,,,,,,,,, |  | ,9.809901225623744,5.999347995500312
, ,,No,UNIVERSITY,,,,,,,,, |  | ,17.948618503115220,23.241815511303514
, ,,No,UNIVERSITY,,,,,,,,, |  | ,9.691769574412376,5.869547501192764
, ,,No,UNIVERSITY,,,,,,,,, |  | ,18.520741587213678,19.273591495708658
, ,,No,UNIVERSITY,,,,,,,,, |  | ,26.657592586517040,37.546402861319265
,1427,,No,HOUSING TAMU,1427,,Civilian Lounge - A1,1964,01,225 Jones St,College Station,77843,Civilian Lounge - A1 |  | 1427,72.155360804780500,312.836154222638470
, ,,No,UNIVERSITY,,,,,,,,, |  | ,64.280076680531891,328.507865687262893
,1242,,No,UNIVERSITY,1242,,Utilities Water Operations Building F&B Storage,2001,01,2484 F&B Rd,College Station,77843,Utilities Water Operations Building F&B Storage |  | 1242,46.713709460792835,133.541491131202719
, ,,No,UNIVERSITY,,,,,,,,, |  | ,29.098892063749929,52.912299466448005
, ,,No,UNIVERSITY,,,,,,,,, |  | ,14.792278604461892,13.668046409469795
, ,,No,UNIVERSITY,,,,,,,,, |  | ,27.675023032548687,42.953454378459462
, ,,No,UNIVERSITY,,,,,,,,, |  | ,28.538638682616753,47.806991126398657
, ,,No,UNIVERSITY,,,,,,,,, |  | ,27.205471128826204,42.016127996671315
, ,,No,UNIVERSITY,,,,,,,,, |  | ,27.623595739923541,42.838543212727409
, ,,No,UNIVERSITY,,,,,,,,, |  | ,26.584647895720831,40.669219157826134
, ,,No,UNIVERSITY,,,,,,,,, |  | ,28.069717788470911,44.745292795095907
, ,,No,UNIVERSITY,,,,,,,,, |  | ,28.334624694958134,45.584923206662459
, ,,No,UNIVERSITY,,,,,,,,, |  | ,28.083677875128402,44.677835732324041
, ,,No,UNIVERSITY,,,,,,,,, |  | ,28.181746436226486,45.010556943418756
, ,,No,UNIVERSITY,,,,,,,,, |  | ,27.762192889641700,43.474092963047191
, ,,No,UNIVERSITY,,,,,,,,, |  | ,16.616951746727835,16.732527996831507
, ,,No,UNIVERSITY,,,,,,,,, |  | ,12.461917304098186,9.531448009739488
, ,,No,UNIVERSITY,,,,,,,,, |  | ,21.155352476501381,25.544120000881257
, ,,No,UNIVERSITY,,,,,,,,, |  | ,20.696854551758790,26.216699023249582
, ,,No,UNIVERSITY,,,,,,,,, |  | ,17.495670929508449,14.910629990859778
, ,,No,UNIVERSITY,,,,,,,,, |  | ,22.790108912971927,30.729316002908735
, ,,No,UNIVERSITY,,,,,,,,, |  | ,18.410087730578510,21.157896838856065
, ,,No,UNIVERSITY,,,,,,,,, |  | ,28.076830912472367,44.558135005948841
, ,,No,UNIVERSITY,,,,,,,,, |  | ,15.361576843758497,13.829132210395260
, ,,No,UNIVERSITY,,,,,,,,, |  | ,43.114889812218806,106.219960493288966
, ,,No,UNIVERSITY,,,,,,,,, |  | ,95.628709867016781,355.779370250072873
, ,,No,UNIVERSITY,,,,,,,,, |  | ,27.086749842997047,45.697621028325798
, ,,No,UNIVERSITY,,,,,,,,, |  | ,13.863381110134927,11.840986502698271
, ,,No,UNIVERSITY,,,,,,,,, |  | ,30.712294458640869,38.130140555833499
, ,,No,UNIVERSITY,,,,,,,,, |  | ,15.539325380268176,15.027273808536481
, ,,No,UNIVERSITY,,,,,,,,, |  | ,24.360952035133447,25.493013608180554
, ,,No,UNIVERSITY,,,,,,,,, |  | ,42.121405571275972,36.286880725006398
, ,,No,UNIVERSITY,,,,,,,,, |  | ,10.163245986107043,5.929330492760212
, ,,No,UNIVERSITY,,,,,,,,, |  | ,10.638368517302663,6.464115998182834
, ,,No,UNIVERSITY,,,,,,,,, |  | ,10.707278440033580,6.505435996279806
, ,,No,UNIVERSITY,,,,,,,,, |  | ,10.586110447270457,6.358950497892023
, ,,No,UNIVERSITY,,,,,,,,, |  | ,121.506495155481005,336.111082348174250
,1224,,No,UNIVERSITY,1224,,TVMC-Animal Isolation Bldg #5,1988,01,935 Turk Rd,College Station,77843,TVMC-Animal Isolation Bldg #5 |  | 1224,32.382269120270927,62.651511985480894
,1223,,No,UNIVERSITY,1223,,TVMC-Animal Isolation Bldg #4,1988,01,945 Turk Rd,College Station,77843,TVMC-Animal Isolation Bldg #4 |  | 1223,32.271302890228043,62.174371516429247
,1508,HOBG,No,ACADEMIC,1508,HOBG,Price Hobgood Ag. Engineering Research Lab,1985,01,375 Olsen Bl,College Station,77843,Price Hobgood Ag. Engineering Research Lab | HOBG | 1508,251.778780324421575,2732.012011990905648
,0405,LACY,No,HOUSING TAMU,0405,LACY,Lacy Hall - Dorm 6,1938,04,664 Military Mall,College Station,77843,Lacy Hall - Dorm 6 | LACY | 0405,164.809871638599788,825.431727660374577
,1503,CMAT,No,ACADEMIC,1503,CMAT,Cater-Mattil Hall,1980,02,373 Olsen Bl,College Station,77843,Cater-Mattil Hall | CMAT | 1503,187.275715688120584,1366.643554293941634
,0507,VMS,No,ACADEMIC,0507,VMS,Veterinary Medical Sciences Building,1955,04,400 Raymond Stotzer Pw,College Station,77843,Veterinary Medical Sciences Building | VMS | 0507,344.067499262290198,2640.361070507011846
,1222,,No,UNIVERSITY,1222,,TVMC-Animal Isolation Bldg #3,1988,01,955 Turk Rd,College Station,77843,TVMC-Animal Isolation Bldg #3 |  | 1222,32.181826019897372,61.974693031106113
,1228,,No,UNIVERSITY,1228,,TVMC-Animal Isolation Bldg #9,1988,01,965 Turk Rd,College Station,77843,TVMC-Animal Isolation Bldg #9 |  | 1228,32.498268079685573,63.108402005855694
,1221,,No,UNIVERSITY,1221,,TVMC-Animal Isolation Bldg #2,1988,01,975 Turk Rd,College Station,77843,TVMC-Animal Isolation Bldg #2 |  | 1221,32.181826044338294,61.972514004635130
,1232,VMTF,No,ACADEMIC,1232,VMTF,"Theriogenology Facility, Equine Reproduction",2001,01,522 Raymond Stotzer Pw,College Station,77843,"Theriogenology Facility, Equine Reproduction | VMTF | 1232",220.208639247619260,2160.656120983385790
,1026,VMA,No,ACADEMIC,1026,VMA,Veterinary Medicine Administration,1968,05,402 Raymond Stotzer Pw,College Station,77843,Veterinary Medicine Administration | VMA | 1026,200.479639662449756,2410.877690834546684
,0508,VTH,No,ACADEMIC,0508,VTH,Veterinary Teaching Hospital,1953,01,404 Raymond Stotzer Pw,College Station,77843,Veterinary Teaching Hospital | VTH | 0508,458.935128724923800,7673.106123748967548
,1227,,No,UNIVERSITY,1227,,TVMC-Animal Isolation Bldg #8,1988,01,985 Turk Rd,College Station,77843,TVMC-Animal Isolation Bldg #8 |  | 1227,32.181924373139722,61.974080507810385
,1220,,No,UNIVERSITY,1220,,TVMC-Animal Isolation Bldg #1,1988,01,995 Turk Rd,College Station,77843,TVMC-Animal Isolation Bldg #1 |  | 1220,32.183138571871062,61.978884029212949
,1226,,No,UNIVERSITY,1226,,TVMC-Animal Isolation Bldg #7,1988,01,999 Turk Rd,College Station,77843,TVMC-Animal Isolation Bldg #7 |  | 1226,32.181826033826432,61.972513961745861
,0448,ADAM,No,ACADEMIC,0448,ADAM,Adams Band Hall,1970,03,611 Lewis St,College Station,77843,Adams Band Hall | ADAM | 0448,199.909648315140856,2016.182274167475271
,1507,BICH,No,ACADEMIC,1507,BICH,Biochemistry/Biophysics Building,1989,05,300 Olsen Bl,College Station,77843,Biochemistry/Biophysics Building | BICH | 1507,339.682111806972898,3919.532500983645605
,0634,PRES,No,OTHER,0634,PRES,One Circle Drive,1965,02,800 Throckmorton St,College Station,77843,One Circle Drive | PRES | 0634,142.281713755903695,594.314907065631473
,1501,KLCT,No,ACADEMIC,1501,KLCT,Kleberg Center,1978,06,474 Olsen Bl,College Station,77843,Kleberg Center | KLCT | 1501,366.178833047237276,4046.999423298824240
,1011,,No,UNIVERSITY,1011,,Horticulture Shop and Garage,1958,01,265 Adriance Lab Rd,College Station,77843,Horticulture Shop and Garage |  | 1011,65.914380715257508,197.104136949742298
,0798,,No,UNIVERSITY,0798,,Horticulture Implement Shed - B (Demolished 2017),1936,01,267 Adriance Lab Rd,College Station,77843,Horticulture Implement Shed - B (Demolished 2017) |  | 0798,57.776666239844978,155.348607084580550
,0799,,No,UNIVERSITY,0799,,Horticulture Shop,1926,01,261 Adriance Lab Rd,College Station,77843,Horticulture Shop |  | 0799,46.716305010581131,134.448814520545625
,0510,,No,UNIVERSITY,0510,,Adriance Lab,1955,01,211 Adriance Lab Rd,College Station,77843,Adriance Lab |  | 0510,92.357925091547997,470.542793261562849
,1180,,No,UNIVERSITY,1180,,Floriculture Farm Storage Bldg,1978,01,271 Adriance Lab Rd,College Station,77843,Floriculture Farm Storage Bldg |  | 1180,65.776196857729019,196.540596005340007
,0797,,No,UNIVERSITY,0797,,Horticulture Implement Shed - A,1941,01,275 Adriance Lab Rd,College Station,77843,Horticulture Implement Shed - A |  | 0797,33.767908367258656,69.673819990847562
,1510,WCBA,No,ACADEMIC,1510,WCBA,Wehner Building,1995,05,210 Olsen Bl,College Station,77843,Wehner Building | WCBA | 1510,683.541916406211271,8309.314771199864481
,1520,SPHC,No,ACADEMIC,1520,SPHC,School of Public Health - Classroom Bldg,2006,01,214 Adriance Lab Rd,College Station,77843,School of Public Health - Classroom Bldg | SPHC | 1520,173.963093479600303,1330.486214920055318
,1519,SPHB,No,ACADEMIC,1519,SPHB,School of Public Health - Lab Bldg,2006,02,210 Adriance Lab Rd,College Station,77843,School of Public Health - Lab Bldg | SPHB | 1519,172.229936096753363,1004.558603559307812
,1505,MSTC,No,ACADEMIC,1505,MSTC,Rosenthal Meat Science & Technology Center,1983,01,488 Olsen Bl,College Station,77843,Rosenthal Meat Science & Technology Center | MSTC | 1505,239.410913553717876,2863.089516540982004
,1518,SPHA,No,ACADEMIC,1518,SPHA,School of Public Health - Admin Bldg,2006,03,212 Adriance Lab Rd,College Station,77843,School of Public Health - Admin Bldg | SPHA | 1518,256.554111554929023,2026.453632081314481
,1506,HFSB,No,ACADEMIC,1506,HFSB,Horticulture/Forest Science Building,1984,06,495 Horticulture Rd,College Station,77843,Horticulture/Forest Science Building | HFSB | 1506,310.768133964239269,4205.550886835047095
, ,,No,UNIVERSITY,,,,,,,,, |  | ,45.076063763057981,117.715432034513896
,1187,LFB,No,ACADEMIC,1187,LFB,W.P. Luse Foundation Building,1993,01,730 Raymond Stotzer Pw,College Station,77843,W.P. Luse Foundation Building | LFB | 1187,246.078944103789297,1094.356694833640177
,1176,,No,UNIVERSITY,1176,,Hort/FS Greenhouse,1987,01,491 HORTICULTURE RD,College Station,77843,Hort/FS Greenhouse |  | 1176,82.387224434262080,306.218139976241275
,1177,,No,UNIVERSITY,1177,,Hort/FS Greenhouse,1987,01,485 HORTICULTURE RD,College Station,77843,Hort/FS Greenhouse |  | 1177,82.163794291938942,304.391993604488562
,1178,,No,UNIVERSITY,1178,,Hort/FS Greenhouse,1987,01,481 HORTICULTURE RD,College Station,77843,Hort/FS Greenhouse |  | 1178,84.969381762199149,320.541295990331207
,1179,,No,UNIVERSITY,1179,,Forest Science Greenhouse,1987,01,475 Horticulture Rd,College Station,77843,Forest Science Greenhouse |  | 1179,82.786320794791976,312.316362955611112
,1559,WCG,No,GARAGE,1559,WCG,West Campus Parking Garage,2003,08,201 John Kimbrough Bl,College Station,77843,West Campus Parking Garage | WCG | 1559,583.334720826525881,15735.315165775900823
,1800,GSC,No,ACADEMIC,1800,GSC,General Services Complex,2006,03,750 Agronomy Rd,College Station,77843,General Services Complex | GSC | 1800,520.287528249789602,7566.789506863961833
,1172,,No,UNIVERSITY,1172,,Flammable Mat Storage,1986,01,530 Agronomy Rd,College Station,77843,Flammable Mat Storage |  | 1172,12.179928479126694,9.271904007726446
,0350,,No,UNIVERSITY,0350,,Albritton Bell Tower,1984,06,200 Old Main Dr,College Station,77843,Albritton Bell Tower |  | 0350,31.685135712771441,62.739031182366304
,,,No,UNIVERSITY,,,,,,,,, |  | ,44.471204917160328,118.238088032385207
,0632,,No,UNIVERSITY,0632,,Compressor House,1970,01,790 THROCKMORTON ST,College Station,77843,Compressor House |  | 0632,15.656387518592014,15.192535370097879
,0635,,No,UNIVERSITY,0635,,Grounds Maintenance Storage,1973,01,788 Throckmorton St,College Station,77843,Grounds Maintenance Storage |  | 0635,15.975114650691468,15.314702083044285
,0983,,No,UNIVERSITY,0983,,Trans Center Paint Storage,1978,01,360 Agronomy Rd,College Station,77843,Trans Center Paint Storage |  | 0983,17.468435234675681,17.955931701521003
,0432,ARCC,No,ACADEMIC,0432,ARCC,Architecture Building C,1963,04,788 Ross St,College Station,77843,Architecture Building C | ARCC | 0432,153.167592851117291,1367.530078815952720
,0359,ARCB,No,ACADEMIC,0359,ARCB,Architecture Building B,1963,02,782 Ross St,College Station,77843,Architecture Building B | ARCB | 0359,129.443612739793934,860.834463199009974
,0469,CCPG,No,GARAGE,0469,CCPG,Central Campus Parking Garage,1999,08,450 Spence St,College Station,77843,Central Campus Parking Garage | CCPG | 0469,225.223941799298444,2792.717644242938604
,0512,CHPL,No,ACADEMIC,0512,CHPL,All Faiths Chapel,1957,01,300 Houston St,College Station,77843,All Faiths Chapel | CHPL | 0512,219.390807100899849,1163.051467719800485
,1514,,No,UNIVERSITY,1514,,Parking Toll Booth At PA72,1998,01,200 Olsen Bl,College Station,77843,Parking Toll Booth At PA72 |  | 1514,13.641559334925331,10.876238603540504
,1552,,No,UNIVERSITY,1552,,Olsen (E.D.) Grove Picnic Area,1982,01,959 Olsen Bl,College Station,77843,Olsen (E.D.) Grove Picnic Area |  | 1552,51.024941538122064,168.803757859547289
, ,,No,UNIVERSITY,,,,,,,,, |  | ,45.889243796184203,121.061208610038022
,0361,BFC,No,SPORTS,0361,BFC,Bright Football Complex,2003,06,878 Houston St,College Station,77843,Bright Football Complex | BFC | 0361,368.211674721444808,6648.856580339344873
,0519,KAMU,No,ACADEMIC,0519,KAMU,Moore Communications Center,1972,01,900 Houston St,College Station,77843,Moore Communications Center | KAMU | 0519,191.111202094673416,1640.379423455371580
,0375,CLAC,No,OTHER,0375,CLAC,Williams Alumni Center,1986,03,505 George Bush Dr,College Station,77843,Williams Alumni Center | CLAC | 0375,249.461538338734158,3009.633100073981950
, ,,No,UNIVERSITY,,,,,,,,, |  | ,45.889243791011140,121.061576430786175
,1516,,No,UNIVERSITY,1516,,Horticulture Field Laboratory,1997,01,499 Horticulture Rd,College Station,77843,Horticulture Field Laboratory |  | 1516,99.278492838529019,579.522316949283436
, ,,No,UNIVERSITY,,,,,,,,, |  | ,45.890538871409568,121.066754764628541
,1498,SUP1,No,OTHER,1498,SUP1,Satellite Utility Plant No. 1,1976,01,350 John Kimbrough Bl,College Station,77843,Satellite Utility Plant No. 1 | SUP1 | 1498,269.424789802963915,3008.986678556538209
,1513,SCIC,No,ACADEMIC,1513,SCIC,Borlaug Center for Southern Crop Improvement,1993,02,498 Olsen Bl,College Station,77843,Borlaug Center for Southern Crop Improvement | SCIC | 1513,341.466137951413771,4631.798697253611863
,1512,SCIG,No,ACADEMIC,1512,SCIG,Southern Crop Improvement Greenhouse,2001,01,502 Olsen Bl,College Station,77843,Southern Crop Improvement Greenhouse | SCIG | 1512,292.862119440887568,4129.685350977534654
,1560,SREC,No,SPORTS,1560,SREC,Student Recreation Center,1995,04,797 Olsen Bl,College Station,77843,Student Recreation Center | SREC | 1560,1019.235528946757881,27327.193515743332682
,1603,DLH,No,ACADEMIC,1603,DLH,Donald L. Houston Building,2002,01,200 Discovery Dr,College Station,77843,Donald L. Houston Building | DLH | 1603,313.856069918104481,3811.724744660580654
,1554,REED,No,SPORTS,1554,REED,Reed Arena,1998,05,730 Olsen Bl,College Station,77843,Reed Arena | REED | 1554,499.761590006964298,10912.202272934493521
,1550,OLSN,No,SPORTS,1550,OLSN,Olsen Field at Bluebell Park,1979,03,955 Olsen Bl,College Station,77843,Olsen Field at Bluebell Park | OLSN | 1550,409.886457966178341,4650.002031301221905
,1620,EBRF,No,ACADEMIC,1620,EBRF,Electron Beam Food Research Facility,1999,01,400 Discovery Dr,College Station,77843,Electron Beam Food Research Facility | EBRF | 1620,260.586353117439899,2762.600868460095626
,1602,ONRP,No,OTHER,1602,ONRP,1111 Research Parkway Bldg,1997,02,1111 Research Pw,College Station,77843,1111 Research Parkway Bldg | ONRP | 1602,248.298087084382416,1910.926549072827356
, ,,No,UNIVERSITY,,,,,,,,, |  | ,2.800973308266563,0.477997418823006
, ,,No,UNIVERSITY,,,,,,,,, |  | ,2.800832448200221,0.477961300567527
,1557,,No,UNIVERSITY,1557,,Track & Field CTR Ticket Booth,1986,01,920 Olsen Bl,College Station,77843,Track & Field CTR Ticket Booth |  | 1557,24.535800234769990,34.464787989881671
,1555,,No,SPORTS,1555,,Track & Field Support Center,1986,01,922 Olsen Bl,College Station,77843,Track & Field Support Center |  | 1555,60.263187507727451,192.791568612423589
,1562,,No,UNIVERSITY,1562,,Wireless Telecommunications Facility,1997,01,934 Olsen Bl,College Station,77843,Wireless Telecommunications Facility |  | 1562,32.131789255893757,63.975912009366333
,1567,,No,SPORTS,1567,,Softball Building,2003,01,910 Olsen Bl,College Station,77843,Softball Building |  | 1567,180.510359573904282,1113.907339211908493
,1610,CEL,No,ACADEMIC,1610,CEL,Coastal Engineering Lab,2003,01,600 Discovery Dr,College Station,77843,Coastal Engineering Lab | CEL | 1610,191.273090638857923,1987.374114235916522
,1598,,No,OTHER,1598,,1313 Research Parkway (Lynntech Building),2002,01,1313 Research Pw,College Station,77843,1313 Research Parkway (Lynntech Building) |  | 1598,249.548611590127763,3018.021458440599872
,1566,,No,SPORTS,1566,,Julia And Mark Ellis '79 Soccer Building,2003,01,940 Olsen Bl,College Station,77843,Julia And Mark Ellis '79 Soccer Building |  | 1566,105.727383558716483,639.912466074496820
,1571,,No,SPORTS,1571,,West Campus Office Pavilion,2009,01,942 Olsen Bl,College Station,77843,West Campus Office Pavilion |  | 1571,55.024184475997913,166.140810532708883
,1565,,No,SPORTS,1565,,Johnson Track & Field,2003,01,950 Olsen Bl,College Station,77843,Johnson Track & Field |  | 1565,241.304656220099162,1340.996789777249433
,9793,,No,SPORTS,9793,,Track Bleacher Storage,2007,,,College Station,77843,Track Bleacher Storage |  | 9793,168.890592144841293,1176.622112946361085
,1601,IODP,No,ACADEMIC,1601,IODP,International Ocean Discovery Building,1986,02,1000 Discovery Dr,College Station,77843,International Ocean Discovery Building | IODP | 1601,634.578216206660386,6418.686382461231915
,1561,,No,SPORTS,1561,,George P. Mitchell '40 Outdoor Tennis Center,1998,02,750 Penberthy Bl,College Station,77843,George P. Mitchell '40 Outdoor Tennis Center |  | 1561,360.707125476891008,1717.175890448901782
,1699,,No,UNIVERSITY,1699,,GTE Optical Remote Module (ODM) Facility @ Researc,1985,01,,College Station,77843,GTE Optical Remote Module (ODM) Facility @ Researc |  | 1699,46.303475099090775,130.104533505233860
,1604,OTRC,No,ACADEMIC,1604,OTRC,Offshore Technology Research Center,1990,02,1200 Mariner Dr,College Station,77843,Offshore Technology Research Center | OTRC | 1604,251.259851001948050,3323.323250256930805
,1556,PISC,No,SPORTS,1556,PISC,Penberthy Intramural Sports Center,1986,01,858 Penberthy Bl,College Station,77843,Penberthy Intramural Sports Center | PISC | 1556,116.042248578180008,642.387601040004256
,1698,,No,UNIVERSITY,1698,,Research Park Switching Station,2000,01,1212 Mariner Dr,College Station,77843,Research Park Switching Station |  | 1698,61.720972458922944,207.569250058028842
,1563,,No,SPORTS,1563,,H&K Equipment Storage Building  (adj to Mt. Ag),,,,College Station,77843,H&K Equipment Storage Building  (adj to Mt. Ag) |  | 1563,43.662058894580582,114.978346331128193
,1160,PRPV,No,ACADEMIC,1160,PRPV,Pearce Animal Pavilion,1983,01,555 George Bush Dr W,College Station,77843,Pearce Animal Pavilion | PRPV | 1160,321.368097577473804,4833.467996350015710
,1083,,No,UNIVERSITY,1083,,Research Park Maintenance Building,1965,01,1810 Research Pw,College Station,77843,Research Park Maintenance Building |  | 1083,110.306269757594194,462.114048823581300
,1607,ALLN,No,ACADEMIC,1607,ALLN,Allen Building,1997,03,1004 George Bush Dr W,College Station,77843,Allen Building | ALLN | 1607,433.753498726879400,5340.759753813074894
,1608,BPCC,No,ACADEMIC,1608,BPCC,Annenberg Presidential Conference Center,1997,02,1002 George Bush Dr W,College Station,77843,Annenberg Presidential Conference Center | BPCC | 1608,350.378143563835465,5019.196017539442437
,1606,BPLM,No,LIBRARY,1606,BPLM,George Bush Presidential Library & Museum,1997,03,1000 George Bush Dr W,College Station,77843,George Bush Presidential Library & Museum | BPLM | 1606,451.120357671391048,6520.880704567914108
,1161,,No,UNIVERSITY,1161,,Reed House,1984,01,1 Reed Dr,College Station,77843,Reed House |  | 1161,181.319713202006511,985.374183823096587
,1262,,No,OTHER,1262,,McKenzie Terminal Building,1989,02,1 McKenzie Terminal Bl,College Station,77843,McKenzie Terminal Building |  | 1262,238.966099414381716,2353.857926974770180
,0757,,No,UNIVERSITY,0757,,Waste Water Lift Station,1980,01,,College Station,77843,Waste Water Lift Station |  | 0757,15.263861100248299,13.540474223958705
,1092,,No,UNIVERSITY,1092,,Easterwood Hangar 1092,1972,01,1660 George Bush Dr W,College Station,77843,Easterwood Hangar 1092 |  | 1092,148.213451537133722,1083.431078043518255
,0729,,No,ACADEMIC,0729,,Biology Greenhouse,1976,01,570 Floriculture Rd,College Station,77843,Biology Greenhouse |  | 0729,46.948353823928770,120.601689023888923
,1129,,No,ACADEMIC,1129,,Floriculture Greenhouse,1976,01,568 Floriculture Rd,College Station,77843,Floriculture Greenhouse |  | 1129,43.895390862440323,118.693639513210911
,1027,NFFL,No,ACADEMIC,1027,NFFL,Nursery Floral Field Laboratory,1959,02,566 Floriculture Rd,College Station,77843,Nursery Floral Field Laboratory | NFFL | 1027,89.507381507232466,327.933047005769140
,3171,HORTOF,No,ACADEMIC,3171,HORTOF,Horticulture Office,2002,01,530 Floriculture Rd,College Station,77843,Horticulture Office | HORTOF | 3171,53.649912624455332,142.715282432360993
,3172,HORTCL,No,ACADEMIC,3172,HORTCL,Horticulture Classroom,2002,01,520 Floriculture Rd,College Station,77843,Horticulture Classroom | HORTCL | 3172,53.649912620099542,142.715282412185019
,1191,,No,ACADEMIC,1191,,Floriculture Growing Facility,1979,01,561 Floriculture Rd,College Station,77843,Floriculture Growing Facility |  | 1191,96.118750934930418,514.721208016103674
,1190,,No,ACADEMIC,1190,,Floriculture Research Greenhouse,1979,01,555 Floriculture Rd,College Station,77843,Floriculture Research Greenhouse |  | 1190,82.045573094152047,336.839244996066327
,0370,,No,UNIVERSITY,0370,,Hensel Park Picnic Shelter (Demolished 2016),1961,01,,College Station,77843,Hensel Park Picnic Shelter (Demolished 2016) |  | 0370,48.401753376170412,185.576372996573951
,0389,,No,UNIVERSITY,0389,,Grounds Maintenance Potting Shed,1986,01,538 College Av,College Station,77843,Grounds Maintenance Potting Shed |  | 0389,35.126772089555487,60.662593008252202
,3199,,No,ACADEMIC,3199,,Becky Gates Children's Center,1998,01,1125 Hensel Dr,College Station,77843,Becky Gates Children's Center |  | 3199,210.408141243680916,1298.953264311555813
,0728,,No,UNIVERSITY,0728,,Grounds Maintenance Greenhouse 5,1976,01,520 College Av,College Station,77843,Grounds Maintenance Greenhouse 5 |  | 0728,78.345063744302053,285.844955988632762
,0726,,No,UNIVERSITY,0726,,Grounds Maintenance Greenhouse 4,1976,01,522 College Av,College Station,77843,Grounds Maintenance Greenhouse 4 |  | 0726,77.808706851286331,275.700422505437757
,0831,,No,UNIVERSITY,0831,,Grounds Maintenance Greenhouse,1969,01,524 College Av,College Station,77843,Grounds Maintenance Greenhouse |  | 0831,83.180721777782395,317.748365993483390
,0733,,No,UNIVERSITY,0733,,Grounds Maintenance Greenhouse,1975,01,526 College Av,College Station,77843,Grounds Maintenance Greenhouse |  | 0733,77.819462032358146,275.716426001922230
,0742,,No,UNIVERSITY,0742,,Grounds Maintenance Storage,1970,01,510 College Av,College Station,77843,Grounds Maintenance Storage |  | 0742,112.526670153193010,358.913093610764918
,0829,,No,UNIVERSITY,0829,,Grounds Maintenance Office Shop/Stor,1947,02,512 College Av,College Station,77843,Grounds Maintenance Office Shop/Stor |  | 0829,102.415671659655288,361.560679479893849
,0828,,No,UNIVERSITY,0828,,Grounds Shop Warehouse,1947,02,514 College Av,College Station,77843,Grounds Shop Warehouse |  | 0828,138.571142061807961,1116.039268422977557
,0732,,No,UNIVERSITY,0732,,Grounds Maintenance Greenhouse,1975,01,528 College Av,College Station,77843,Grounds Maintenance Greenhouse |  | 0732,77.819462032366474,275.716425989883930
,3198,UACC,No,HOUSING TAMU,3198,UACC,University Apartments Community Center,2001,01,250 Calvin Moore Av,College Station,77843,University Apartments Community Center | UACC | 3198,208.880169658292033,1649.356737903352723
, ,,No,UNIVERSITY,,,,,,,,, |  | ,50.359960926205019,130.879517018865329
,0685,,No,UNIVERSITY,0685,,Grounds Maintenance - Tractor Shed,1986,01,508 College Av,College Station,77843,Grounds Maintenance - Tractor Shed |  | 0685,104.315354879744049,447.454625107761444
,0747,,No,UNIVERSITY,0747,,Grounds Maintenance Supply Bldg,1975,01,506 College Av,College Station,77843,Grounds Maintenance Supply Bldg |  | 0747,107.380665785387805,489.754166567608991
,3197,,No,HOUSING TAMU,3197,,University Apts Community Maintenance Bldg,2004,02,225 Calvin Moore Av,College Station,77843,University Apts Community Maintenance Bldg |  | 3197,130.197451885723211,948.689185974214865
,0996,,No,UNIVERSITY,0996,,Oil Tanks Boiler House,1980,01,2480 F&B Rd,College Station,77843,Oil Tanks Boiler House |  | 0996,22.951639056271461,32.549258002569346
,0995,,No,UNIVERSITY,0995,,Water Distribution Pump Station No. 2,1975,01,2410 F&B Rd,College Station,77843,Water Distribution Pump Station No. 2 |  | 0995,65.164516875175764,232.364236459259530
,0816,,No,UNIVERSITY,0816,,Water Distribution Pump Station No. 1,1953,01,2416 F&B Rd,College Station,77843,Water Distribution Pump Station No. 1 |  | 0816,57.685090738444138,180.963834985491786
,0806,STL,No,ACADEMIC,0806,STL,Soil Testing Lab,1954,01,2610 F&B Rd,College Station,77843,Soil Testing Lab | STL | 0806,113.049390665094478,606.991504544148029
,1154,,No,UNIVERSITY,1154,,Electrical Distribution Storage,1981,01,2655 Dairy Center Rd,College Station,77843,Electrical Distribution Storage |  | 1154,28.472418790010135,50.187595995229572
,1165,,No,UNIVERSITY,1165,,Hazardous Waste Storage Bldg,1986,01,2655 Dairy Center Rd,College Station,77843,Hazardous Waste Storage Bldg |  | 1165,103.283007679970083,477.854690565540977
, ,,No,UNIVERSITY,,,,,,,,, |  | ,19.334238961259665,23.188439763296550
,1245,,No,UNIVERSITY,1245,,Cable Wire Storage,2001,01,2754 F&B Rd,College Station,77843,Cable Wire Storage |  | 1245,61.263936531616977,225.290588955828582
,1246,,No,UNIVERSITY,1246,,Generator Storage Building,2001,01,2744 F&B Rd,College Station,77843,Generator Storage Building |  | 1246,88.652025114047106,429.038918316082913
,0956,PGBG,No,ACADEMIC,0956,PGBG,Perennial Grass Breeding and Genetics,1962,02,787 Agronomy Rd,College Station,77843,Perennial Grass Breeding and Genetics | PGBG | 0956,65.554399534801291,253.403720045408875
,1244,,No,UNIVERSITY,1244,,Utilities Inventory Warehouse Building 1,2000,01,2750 F&B Rd,College Station,77843,Utilities Inventory Warehouse Building 1 |  | 1244,85.727908247305152,375.597986981890813
,1243,,No,UNIVERSITY,1243,,Plumbing Fabrication Shop,2000,01,2760 F&B Rd,College Station,77843,Plumbing Fabrication Shop |  | 1243,45.029765018828527,125.928542676608458
,1052,,No,ACADEMIC,1052,,Weed Science Field Lab,1965,01,763 Agronomy Rd,College Station,77843,Weed Science Field Lab |  | 1052,43.669962440870734,116.892557480548618
,0682,WEB,No,ACADEMIC,0682,WEB,Wisenbaker Engineering Building,1983,04,188 Bizzell St,College Station,77843,Wisenbaker Engineering Building | WEB | 0682,292.187040853935628,4100.971216263578754
,0740,MCNW,No,ACADEMIC,0740,MCNW,McNew Laboratory,1968,03,185 Spence St,College Station,77843,McNew Laboratory | MCNW | 0740,111.669939110975463,728.642989427040561
,0718,,No,UNIVERSITY,0718,,Storage-Cyclotron,1971,01,154 Spence St,College Station,77843,Storage-Cyclotron |  | 0718,28.266073091085747,47.949971998131900
,1045,,No,UNIVERSITY,1045,,USDA Greenhouse 1,1965,01,707 Agronomy Rd,College Station,77843,USDA Greenhouse 1 |  | 1045,82.919761867813023,261.717891956853691
,1157,,No,UNIVERSITY,1157,,Warehouse,1987,01,602 Agronomy Rd,College Station,77843,Warehouse |  | 1157,219.988782747717835,2943.682969937761300
,0501,CONC,No,ACADEMIC,0501,CONC,Concrete Materials Laboratory,1932,02,785 Ross St,College Station,77843,Concrete Materials Laboratory | CONC | 0501,103.301802054765986,476.284636279423239
,0717,,No,ACADEMIC,0717,,Storage and Lab-Cyclotron,1971,01,176 Spence St,College Station,77843,Storage and Lab-Cyclotron |  | 0717,79.779468052712133,287.136214508460853
,0434,CYCL,No,ACADEMIC,0434,CYCL,Luedecke Building (Cyclotron),1966,04,120 Spence St,College Station,77843,Luedecke Building (Cyclotron) | CYCL | 0434,274.632435362161402,3392.471261063764814
,1049,,No,UNIVERSITY,1049,,USDA Greenhouse 2,1970,01,685 Agronomy Rd,College Station,77843,USDA Greenhouse 2 |  | 1049,82.603113409624427,260.020370965092752
,0325,CVLB,No,ACADEMIC,0325,CVLB,CVE Lab Building,1987,04,233 Spence St,College Station,77843,CVE Lab Building | CVLB | 0325,217.674338567776374,1873.311593937015459
,1047,,No,ACADEMIC,1047,,Virus-Vector Research Lab,1988,01,657 Agronomy Rd,College Station,77843,Virus-Vector Research Lab |  | 1047,55.180718247349503,189.083758523306329
,1193,,No,ACADEMIC,1193,,Wildlife & Exotic Animal Ctr,1990,01,2765 F&B Rd,College Station,77843,Wildlife & Exotic Animal Ctr |  | 1193,73.477724832841432,337.405726091993472
,0492,HEB,No,ACADEMIC,0492,HEB,H.J. (Bill) and Reta Haynes Engineering Building,1932,03,727 Ross St,College Station,77843,H.J. (Bill) and Reta Haynes Engineering Building | HEB | 0492,275.621158768202861,1795.715222805857366
,0392,MEOB,No,ACADEMIC,0392,MEOB,Mechanical Engineering Office Building,1986,06,202 Spence St,College Station,77843,Mechanical Engineering Office Building | MEOB | 0392,111.024718438896926,837.669468229918834
,0391,ENPH,No,ACADEMIC,0391,ENPH,James J. Cain '51 Building,1986,05,180 Spence St,College Station,77843,James J. Cain '51 Building | ENPH | 0391,257.828627985332218,2577.137675675043283
,0547,,No,UNIVERSITY,0547,,Break Room at Central Utility Plant,1980,01,193 Asbury St,College Station,77843,Break Room at Central Utility Plant |  | 0547,36.554605219506108,75.483814384469696
,4542,,No,UNIVERSITY,4542,,TVMC-Wildlife & Exotic Animals,1963,01,2771 F&B Rd,College Station,77843,TVMC-Wildlife & Exotic Animals |  | 4542,59.436005942078886,185.031139009537611
,1156,PLNT,No,OTHER,1156,PLNT,Facilities Services,1987,02,600 Agronomy Rd,College Station,77843,Facilities Services | PLNT | 1156,517.651181704761598,8464.360201007086289
,0387,RICH,No,ACADEMIC,0387,RICH,Joe C. Richardson Petroleum Engineering Building,1990,12,245 Spence St,College Station,77843,Joe C. Richardson Petroleum Engineering Building | RICH | 0387,161.794347191039037,1205.327907256768185
,1002,,No,UNIVERSITY,1002,,Farm Service Implement #2,1955,01,669 Farm Service Rd,College Station,77843,Farm Service Implement #2 |  | 1002,163.288371187329687,577.409037716021317
,0524,BLOC,No,ACADEMIC,0524,BLOC,Blocker Building,1981,06,155 Ireland St,College Station,77843,Blocker Building | BLOC | 0524,318.466963894845151,4980.971831259501414
,1003,,No,UNIVERSITY,1003,,Farm Service Shop,1955,01,655 Farm Service Rd,College Station,77843,Farm Service Shop |  | 1003,87.397814720168583,390.567867019532741
,0513,DRTY,No,ACADEMIC,0513,DRTY,Doherty Building,1960,04,242 Spence St,College Station,77843,Doherty Building | DRTY | 0513,161.885052796700620,1156.478439342755109
,9750,,No,UNIVERSITY,9750,,by USDA-Exotic Animal Holding Pens,,,2785 F&B Rd,College Station,77843,by USDA-Exotic Animal Holding Pens |  | 9750,88.283400987221896,285.833356608399868
,1249,,No,UNIVERSITY,1249,,Telecommunications Optical Remote Building,2002,01,476 Agronomy Rd,College Station,77843,Telecommunications Optical Remote Building |  | 1249,35.759425626407960,76.270319515132186
,0353,HRBB,No,ACADEMIC,0353,HRBB,Bright Building,1989,09,710 Ross St,College Station,77843,Bright Building | HRBB | 0353,206.008816423365744,1595.012381941903413
,1001,,No,UNIVERSITY,1001,,Farm Service Implement #1,1955,01,653 Farm Service Rd,College Station,77843,Farm Service Implement #1 |  | 1001,163.176717807815663,571.569985878861985
,0971,FOOD,No,UNIVERSITY,0971,DATA,Fred Dollar Food Services Commissary,1984,02,474 Agronomy Rd,College Station,77843,Fred Dollar Food Services Commissary | DATA | 0971,355.751243032949731,5410.071609880176766
,0388,NSPG,No,GARAGE,0388,NSPG,Northside Parking Garage,1989,05,104 Ireland St,College Station,77843,Northside Parking Garage | NSPG | 0388,419.517477022954438,10097.479709268145598
,0514,MASS,No,ACADEMIC,0514,MASS,Munnerlyn Astronomy & Space Sciences Engineering,1960,02,101 Asbury St,College Station,77843,Munnerlyn Astronomy & Space Sciences Engineering | MASS | 0514,136.310770291640807,997.652190332989903
,3098,,No,UNIVERSITY,3098,,Business Management Services Record Storage,1998,01,,College Station,77843,Business Management Services Record Storage |  | 3098,43.892349491415580,111.120002002485407
,0398,ARCA,No,ACADEMIC,0398,ARCA,Langford Architecture Center Building A,1977,05,798 Ross St,College Station,77843,Langford Architecture Center Building A | ARCA | 0398,250.539304895080960,3459.510289020980508
,0473,ADMN,No,ACADEMIC,0473,ADMN,Jack K. Williams Administration Building,1932,04,400 Bizzell St,College Station,77843,Jack K. Williams Administration Building | ADMN | 0473,189.534429156849370,1671.753907177732117
,0490,HALB,No,ACADEMIC,0490,HALB,Halbouty Geosciences Building,1933,06,611 Ross St,College Station,77843,Halbouty Geosciences Building | HALB | 0490,363.113587973272104,2659.811175151892712
,0979,TURF,No,ACADEMIC,0979,TURF,Turfgrass Field Lab,1978,01,657 Farm Service Rd,College Station,77843,Turfgrass Field Lab | TURF | 0979,108.536434044043020,467.779376562911352
,1005,,No,UNIVERSITY,1005,,Farm Service Storage 2,1946,01,661 Farm Service Rd,College Station,77843,Farm Service Storage 2 |  | 1005,32.696674035457541,63.844472507761935
,0496,UCO,No,OTHER,0496,UCO,Utilities & Energy Services Central Office,1940,02,165 Asbury St,College Station,77843,Utilities & Energy Services Central Office | UCO | 0496,247.993884619570963,2056.827932537110428
,0498,CUP,No,OTHER,0498,CUP,Central Utility Plant,1915,03,222 Ireland St,College Station,77843,Central Utility Plant | CUP | 0498,414.374615810726368,4956.013462519374116
,3099,BMSB,No,UNIVERSITY,3099,BMSB,Business Management Services Building,1998,02,1501 South Texas Av,College Station,77843,Business Management Services Building | BMSB | 3099,132.441098596973234,829.778818525658039
,0970,PPGM ,No,UNIVERSITY,0970,PPGM,Phys Plant-Grounds Maintenance,1983,01,470 Agronomy Rd,College Station,77843,Phys Plant-Grounds Maintenance | PPGM  | 0970,191.120488508144064,1041.672684893584574
,0478,SCTS,No,ACADEMIC,0478,SCTS,Scoates Hall,1932,03,333 Spence St,College Station,77843,Scoates Hall | SCTS | 0478,271.758965779256073,2105.906077672389529
,0499,EIC,No,ACADEMIC,0499,EIC,Engineering Innovation Center,1955,01,233 Ireland St,College Station,77843,Engineering Innovation Center | EIC | 0499,256.424266569890108,2966.598431937475198
,0376,CHAN,No,ACADEMIC,0376,CHAN,Chemistry,1990,06,646 Ross St,College Station,77843,Chemistry | CHAN | 0376,238.908576521781526,2194.059826851361777
,0484,CHEM,No,ACADEMIC,0484,CHEM,Chemistry,1929,07,580 Ross St,College Station,77843,Chemistry | CHEM | 0484,646.467764778102378,4329.533616894479565
,0715,,No,ACADEMIC,0715,,Chemistry Chemical Storage,1955,01,610 Ross St,College Station,77843,Chemistry Chemical Storage |  | 0715,38.604729510189308,84.798127271784281
,0436,RDMC,No,ACADEMIC,0436,RDMC,Reed-McDonald Building,1967,05,575 Ross St,College Station,77843,Reed-McDonald Building | RDMC | 0436,183.506373562424699,1551.620368197272228
,0424,HOTA,No,ACADEMIC,0424,HOTA,Hotard Hall,1941,05,110 Asbury St,College Station,77843,Hotard Hall | HOTA | 0424,106.831011799489204,485.438972281355007
,9351,,No,UNIVERSITY,9351,,Water Tower,1979,01,191 Asbury St,College Station,77843,Water Tower |  | 9351,98.222584216824572,706.330367672778948
,0969,TRSV,No,OTHER,0969,TRSV,Transit Services,1983,02,444 Agronomy Rd,College Station,77843,Transit Services | TRSV | 0969,133.933191452315356,904.030758247131757
, ,,No,UNIVERSITY,,,,,,,,, |  | ,70.477317248401590,269.279031795572507
,0443,OMB,No,ACADEMIC,0443,OMB,Eller Oceanography & Meteorology Building,1973,16,797 Lamar St,College Station,77843,Eller Oceanography & Meteorology Building | OMB | 0443,160.554421180340739,1490.377284635235810
,0652,NEEL,No,HOUSING TAMU,0652,NEEL,Neeley Residence Hall,1980,04,140 Asbury St,College Station,77843,Neeley Residence Hall | NEEL | 0652,252.101889444337957,1575.384235422593292
,0477,ANTH,No,ACADEMIC,0477,ANTH,Anthropology Building,1952,03,340 Spence St,College Station,77843,Anthropology Building | ANTH | 0477,221.671614649676343,1622.662522669791315
,0653,HOBB,No,HOUSING TAMU,0653,HOBB,Hobby Residence Hall,1980,04,160 Asbury St,College Station,77843,Hobby Residence Hall | HOBB | 0653,235.339212858736232,1405.738576576279911
,0966,,No,UNIVERSITY,0966,,Purchasing & Stores - General Storage,1976,01,286 Agronomy Rd,College Station,77843,Purchasing & Stores - General Storage |  | 0966,82.207222933131902,322.615633470779642
,0980,,No,UNIVERSITY,0980,,Murray Case Sells Storage Bldg,1980,01,288 Agronomy Rd,College Station,77843,Murray Case Sells Storage Bldg |  | 0980,241.593968451910428,2149.464116912233294
,0445,TEAG,No,ACADEMIC,0445,TEAG,Teague Research Center,1966,05,735 Lamar St,College Station,77843,Teague Research Center | TEAG | 0445,134.544885631449404,923.169164056589693
,0517,CSA,No,ACADEMIC,0517,CSA,Computing Services Annex,1966,05,733 Lamar St,College Station,77843,Computing Services Annex | CSA | 0517,183.124378602354227,907.290258809844204
,0470,GLAS,No,ACADEMIC,0470,GLAS,Melbern G. Glasscock Building,1921,04,398 Spence St,College Station,77843,Melbern G. Glasscock Building | GLAS | 0470,137.136724273129403,924.017867031880087
,0476,FRAN,No,ACADEMIC,0476,FRAN,Francis Hall,1922,03,574 Ross St,College Station,77843,Francis Hall | FRAN | 0476,220.723261048312395,1226.346652322079080
,0472,AIEN,No,ACADEMIC,0472,AIEN,AI Engineering Building,1932,06,423 Spence St,College Station,77843,AI Engineering Building | AIEN | 0472,259.348537184743464,1623.047236011247378
, ,,No,UNIVERSITY,,,,,,,,, |  | ,87.748051020825685,158.163303503172870
, ,,No,UNIVERSITY,,,,,,,,, |  | ,126.493238820733879,852.664232524823433
,0958,FLSV,No,OTHER,0958,FLSV,Fleet Services,1976,02,388 Agronomy Rd,College Station,77843,Fleet Services | FLSV | 0958,260.160675263891505,1991.046439923998150
,0967,,No,UNIVERSITY,0967,,Purchasing & Stores - Volatile Storage,1976,01,280 Agronomy Rd,College Station,77843,Purchasing & Stores - Volatile Storage |  | 0967,51.870272165699568,133.625846755940898
,0516,CSC,No,ACADEMIC,0516,CSC,Computing Services Center,1959,03,731 Lamar St,College Station,77843,Computing Services Center | CSC | 0516,196.088239970534744,2097.825091022943525
,0672,GOLF,No,ACADEMIC,0672,GOLF,Golf Course Clubhouse,1969,01,577 Bizzell St,College Station,77843,Golf Course Clubhouse | GOLF | 0672,128.971328346375969,630.129456096566400
,0483,THOM,No,ACADEMIC,0483,THOM,Thompson Hall,1921,03,510 Ross St,College Station,77843,Thompson Hall | THOM | 0483,264.332185938724308,4226.249128518697034
,1430,,No,HOUSING TAMU,1430,,Civilian Lounge - C1,1964,01,308 University Dr,College Station,77843,Civilian Lounge - C1 |  | 1430,71.951405700040581,309.092562301301655
,0430,SCHU,No,HOUSING TAMU,0430,SCHU,Schuhmacher Residence Hall,1966,05,308 University Dr,College Station,77843,Schuhmacher Residence Hall | SCHU | 0430,152.970467773576758,848.454624462218703
,0482,FERM,No,ACADEMIC,0482,FERM,Fermier Hall,1919,04,466 Ross St,College Station,77843,Fermier Hall | FERM | 0482,97.647384342241551,439.629120216813646
,0471,PAV,No,ACADEMIC,0471,PAV,Pavilion,1916,02,424 Spence St,College Station,77843,Pavilion | PAV | 0471,184.005770012222740,1881.498376552994614
,0438,HECC,No,ACADEMIC,0438,HECC,Harrington Education Center Classroom Building,1974,03,544 Ross St,College Station,77843,Harrington Education Center Classroom Building | HECC | 0438,187.662830057720498,2138.169625381518472
,0957,PRCH,No,OTHER,0957,PRCH,Purchasing & Stores,1976,01,330 Agronomy Rd,College Station,77843,Purchasing & Stores | PRCH | 0957,427.173832446988115,7733.855033828783235
,0481,HEAT,No,ACADEMIC,0481,HEAT,Heaton Hall,1926,02,444 Ross St,College Station,77843,Heaton Hall | HEAT | 0481,120.415880285606775,906.091472313867257
,0422,WALT,No,HOUSING TAMU,0422,WALT,Walton Residence Hall,1931,05,166 Houston St,College Station,77843,Walton Residence Hall | WALT | 0422,260.144237578033369,1282.725413432927098
,0959,,No,UNIVERSITY,0959,,Plant Science Greenhouse,1978,01,367 Agronomy Rd,College Station,77843,Plant Science Greenhouse |  | 0959,76.238665836278699,275.376081458551482
,0457,TAES,No,ACADEMIC,0457,TAES,TAES Annex Building,1933,02,730 Lamar St,College Station,77843,TAES Annex Building | TAES | 0457,165.121665985379110,1000.212167366724088
,0960,SCSFGH,No,UNIVERSITY,0960,SCSFGH,SCS Forage Greenhouse,1978,01,369 Agronomy Rd,College Station,77843,SCS Forage Greenhouse | SCSFGH | 0960,76.109190945547368,274.066653933590089
,0435,EDCT,No,ACADEMIC,0435,EDCT,Harrington Education Center Office Tower,1973,10,540 Ross St,College Station,77843,Harrington Education Center Office Tower | EDCT | 0435,175.529262312857412,1732.880899745296119
,0965,BEAS,No,ACADEMIC,0965,BEAS,Beasley Laboratory,1978,01,363 Agronomy Rd,College Station,77843,Beasley Laboratory | BEAS | 0965,117.765262478363155,570.306759101159855
,0961,,No,UNIVERSITY,0961,,Cotton Greenhouse,1978,01,367 Agronomy Rd,College Station,77843,Cotton Greenhouse |  | 0961,76.321985646496344,275.683593397181994
,0962,,No,UNIVERSITY,0962,,Plant Science Grain Sorghum Greenhouse,1976,01,365 Agronomy Rd,College Station,77843,Plant Science Grain Sorghum Greenhouse |  | 0962,65.501028779602507,190.983479672191180
,0963,,No,UNIVERSITY,0963,,Hort & Plant Science Greenhouse,1976,01,361 Agronomy Rd,College Station,77843,Hort & Plant Science Greenhouse |  | 0963,65.441383122208833,188.652033156284887
,0511,HLB,No,ACADEMIC,0511,HLB,HEEP Laboratory Building,1957,05,645 Lamar St,College Station,77843,HEEP Laboratory Building | HLB | 0511,177.169433411507555,1303.347759855226741
,0964,,No,UNIVERSITY,0964,,Agronomy Greenhouse,1976,01,359 Agronomy Rd,College Station,77843,Agronomy Greenhouse |  | 0964,66.091334745311826,197.558573479734378
,0276,,No,UNIVERSITY,0276,,TX Forest Service Greenhouse,1972,01,264 Agronomy Rd,College Station,77843,TX Forest Service Greenhouse |  | 0276,53.168019505387576,149.014755514739051
,0976,,No,UNIVERSITY,0976,,CMP-Animal Housing Unit,1978,01,674 Turk Rd,College Station,77843,CMP-Animal Housing Unit |  | 0976,57.242567695191624,175.780550490934303
,0480,BLTN,No,ACADEMIC,0480,BLTN,Bolton Hall,1911,04,456 Ross St,College Station,77843,Bolton Hall | BLTN | 0480,147.682934688048277,1027.091200149259521
,0419,LEGE,No,HOUSING TAMU,0419,LEGE,Legett Residence Hall,1911,04,422 Ross St,College Station,77843,Legett Residence Hall | LEGE | 0419,142.262284349809676,1028.592494617136481
,1054,,No,UNIVERSITY,1054,,Forage and Turf Greenhouse,1964,01,333 Agronomy Rd,College Station,77843,Forage and Turf Greenhouse |  | 1054,43.323743316312679,100.491645497013451
,0973,,No,UNIVERSITY,0973,,CMP-Animal Housing Unit,1978,01,672 Turk Rd,College Station,77843,CMP-Animal Housing Unit |  | 0973,56.400908364436546,170.240736023956458
,0440,COMM,No,DINING,0440,COMM,Commons,1972,02,676 Lubbock St,College Station,77843,Commons | COMM | 0440,315.270593215584938,4471.047277549800128
,0279,,No,UNIVERSITY,0279,,TX Forest Service GH Headhouse,1980,01,248 Agronomy Rd,College Station,77843,TX Forest Service GH Headhouse |  | 0279,26.690486058442801,44.510935627086994
,0278,,No,UNIVERSITY,0278,,TX Forest Service Greenhouse,1981,01,250 Agronomy Rd,College Station,77843,TX Forest Service Greenhouse |  | 0278,46.088356256000800,122.770490982896476
,1056,,No,UNIVERSITY,1056,,Soil & Crop Sci Greenhouse,1965,01,335 Agronomy Rd,College Station,77843,Soil & Crop Sci Greenhouse |  | 1056,42.744617279546013,98.979492760021259
,1496,,No,UNIVERSITY,1496,,12.47 KV Switching Station,2000,01,178 Agronomy Rd,College Station,77843,12.47 KV Switching Station |  | 1496,82.011508805583858,313.260706999017316
,1094,,No,ACADEMIC,1094,,TVMC-Poultry Disease Research,1981,01,642 Turk Rd,College Station,77843,TVMC-Poultry Disease Research |  | 1094,81.217602384269583,357.303684005532773
,0444,PETR,No,ACADEMIC,0444,PETR,Peterson Building,1963,05,435 Nagle St,College Station,77843,Peterson Building | PETR | 0444,231.857884274675740,1741.796376654744563
,0974,,No,UNIVERSITY,0974,,CMP-Animal Housing Unit,1978,01,680 Turk Rd,College Station,77843,CMP-Animal Housing Unit |  | 0974,56.588897499539200,171.048656022523943
,1057,,No,UNIVERSITY,1057,,Soil & Crop Sci Greenhouse,1964,01,337 Agronomy Rd,College Station,77843,Soil & Crop Sci Greenhouse |  | 1057,42.841267523743710,99.577584345762375
,0467,BSBE,No,ACADEMIC,0467,BSBE,Biological Sciences Bldg East,1950,03,424 Nagle St,College Station,77843,Biological Sciences Bldg East | BSBE | 0467,215.772820562622456,1896.558349525025505
,0449,BSBW,No,ACADEMIC,0449,BSBW,Biological Sciences Bldg West,1967,05,424 Nagle St,College Station,77843,Biological Sciences Bldg West | BSBW | 0449,178.560819008470190,1776.888565979138548
,0975,,No,UNIVERSITY,0975,,CMP-Animal Housing Unit,1978,01,682 Turk Rd,College Station,77843,CMP-Animal Housing Unit |  | 0975,56.603408634113109,171.680018992317230
,1198,,No,UNIVERSITY,1198,,LARR Support Personnel Bldg,1987,01,690 Turk Rd,College Station,77843,LARR Support Personnel Bldg |  | 1198,44.024747669455536,120.136337949979577
,1058,,No,UNIVERSITY,1058,,Soil & Crop Sci Greenhouse,1965,01,339 Agronomy Rd,College Station,77843,Soil & Crop Sci Greenhouse |  | 1058,52.426439906887651,130.756871514832966
,0549,HAAS,No,HOUSING TAMU,0549,HAAS,Haas Residence Hall,1979,04,212 Houston St,College Station,77843,Haas Residence Hall | HAAS | 0549,250.764492825353841,1552.475362331480483
,1040,CPL,No,ACADEMIC,1040,CPL,Cardiovascular Pathology Laboratory,1969,01,640 Turk Rd,College Station,77843,Cardiovascular Pathology Laboratory | CPL | 1040,87.779685824811736,392.144213121344535
,0462,ACAD,No,ACADEMIC,0462,ACAD,Academic Building,1914,06,377 Houston St,College Station,77843,Academic Building | ACAD | 0462,237.409954973323636,1985.075160918762549
,1059,,No,UNIVERSITY,1059,,Soil & Crop Sci Greenhouse,1965,01,341 Agronomy Rd,College Station,77843,Soil & Crop Sci Greenhouse |  | 1059,43.006792065777780,98.946035510356765
,1042,FSLB,No,ACADEMIC,1042,FSLB,Forest Science Laboratory Building,1972,01,242 Agronomy Rd,College Station,77843,Forest Science Laboratory Building | FSLB | 1042,139.087213393641235,923.338561496245575
,0433,MOSH,No,HOUSING TAMU,0433,MOSH,Mosher Residence Hall,1976,05,725 Mosher Ln,College Station,77843,Mosher Residence Hall | MOSH | 0433,434.430598203120610,3037.017117550823968
,1196,,No,UNIVERSITY,1196,,Animal Housing Unit,1987,01,688 Turk Rd,College Station,77843,Animal Housing Unit |  | 1196,62.227142197323886,202.963201434690916
,1497,UBO,No,UNIVERSITY,1497,UBO,Utilities & Energy Services Business Office,1995,01,176 Agronomy Rd,College Station,77843,Utilities & Energy Services Business Office | UBO | 1497,76.189765062213866,315.805925412762747
,0520,BEUT,No,ACADEMIC,0520,BEUT,Beutel Health Center,1974,03,311 Houston St,College Station,77843,Beutel Health Center | BEUT | 0520,220.853785932996800,1866.246152396011894
,0442,DUNN,No,HOUSING TAMU,0442,DUNN,Dunn Residence Hall,1972,04,636 Lubbock St,College Station,77843,Dunn Residence Hall | DUNN | 0442,421.064979692510747,2656.289924127243012
,1079,,No,UNIVERSITY,1079,,SCSC-Weed Sci Greenhouse,1978,01,396 Turk Rd,College Station,77843,SCSC-Weed Sci Greenhouse |  | 1079,55.866313323914362,164.190812532082191
,0550,MCFA,No,HOUSING TAMU,0550,MCFA,McFadden Residence Hall,1979,04,301 Jones St,College Station,77843,McFadden Residence Hall | MCFA | 0550,235.494701951056896,1399.046429630103148
,0954,AGRL,No,ACADEMIC,0954,AGRL,Agronomy Field Lab,1952,01,285 Agronomy Rd,College Station,77843,Agronomy Field Lab | AGRL | 0954,282.302121213780310,1481.236449329405559
,1060,,No,UNIVERSITY,1060,,Greenhouse-Small Grains,1966,01,374 Turk Rd,College Station,77843,Greenhouse-Small Grains |  | 1060,111.498547342498469,277.232613433389872
,1173,,No,UNIVERSITY,1173,,Soil & Crop Greenhouse,1986,01,384 Turk Rd,College Station,77843,Soil & Crop Greenhouse |  | 1173,37.209694020151503,77.624910508846156
,0464,STCH,No,ACADEMIC,0464,STCH,State Chemist Building,1909,03,533 Coke St,College Station,77843,State Chemist Building | STCH | 0464,115.418157630974974,683.513185220970968
,1077,,No,UNIVERSITY,1077,,SCSC Small Grain Greenhouse,1978,01,388 Turk Rd,College Station,77843,SCSC Small Grain Greenhouse |  | 1077,75.974795401068036,274.017334432063819
,1166,,No,UNIVERSITY,1166,,CUSE-Special Project Lab & Storage,1962,01,168 Agronomy Rd,College Station,77843,CUSE-Special Project Lab & Storage |  | 1166,45.308006320959159,126.546799539509891
,0655,,No,UNIVERSITY,0655,,Golf Course Maintenance Shop,1975,01,835 Bizzell St,College Station,77843,Golf Course Maintenance Shop |  | 0655,109.959428716632360,603.390233060794912
,1168,,No,UNIVERSITY,1168,,CUSE-Shop & Storage,1965,01,164 Agronomy Rd,College Station,77843,CUSE-Shop & Storage |  | 1168,45.313226051752466,127.503854085929675
,0447,ASTO,No,HOUSING TAMU,0447,ASTO,Aston Residence Hall,1976,04,655 Mosher Ln,College Station,77843,Aston Residence Hall | ASTO | 0447,402.722334008487110,2778.309952690210594
,1008,VMB3,No,UNIVERSITY,1008,VMB3,TVMC-Barn No 3,1957,01,645 Turk Rd,College Station,77843,TVMC-Barn No 3 | VMB3 | 1008,75.325198969976427,303.855132455412502
,1169,,No,UNIVERSITY,1169,,CUSE-Toxicology Hut,1967,01,162 Agronomy Rd,College Station,77843,CUSE-Toxicology Hut |  | 1169,26.364309172224640,36.913102199854492
,0291,RUDD,No,HOUSING TAMU,0291,RUDD,Rudder Residence Hall,1989,04,770 Mosher Ln,College Station,77843,Rudder Residence Hall | RUDD | 0291,224.495554419911457,1513.751613030866110
,1050,,No,ACADEMIC,1050,,CUSE-Research Labs,1988,01,166 Agronomy Rd,College Station,77843,CUSE-Research Labs |  | 1050,61.025986328155284,225.713969510860409
,0426,HUGH,No,HOUSING TAMU,0426,HUGH,Hughes Residence Hall,1966,05,265 Jones St,College Station,77843,Hughes Residence Hall | HUGH | 0426,152.563539506196292,839.684092464377954
,0506,NGLE,No,ACADEMIC,0506,NGLE,Nagle Hall,1909,05,454 Throckmorton St,College Station,77843,Nagle Hall | NGLE | 0506,129.218431883189794,812.488365895506831
,0521,HELD,No,ACADEMIC,0521,HELD,Heldenfels Hall,1977,05,466 Nagle St,College Station,77843,Heldenfels Hall | HELD | 0521,278.922682314267774,2712.710466786656525
,0862,,No,ACADEMIC,0862,,Butler Building,1958,01,158 Agronomy Rd,College Station,77843,Butler Building |  | 0862,92.699718328404828,470.732930414270413
,0290,WELL,No,HOUSING TAMU,0290,WELL,Wells Residence Hall,1989,04,700 Mosher Ln,College Station,77843,Wells Residence Hall | WELL | 0290,225.198744381093604,1525.245640559282037
,0972,LARR,No,ACADEMIC,0972,LARR,Laboratory Animal Care Building,1978,01,233 Agronomy Rd,College Station,77843,Laboratory Animal Care Building | LARR | 0972,341.590575592413529,4671.079632874301751
, ,,No,UNIVERSITY,,,,,,,,, |  | ,37.231809137499717,66.367199454295545
,0465,BTLR,No,ACADEMIC,0465,BTLR,Butler Hall,1916,04,525 Lubbock St,College Station,77843,Butler Hall | BTLR | 0465,122.664271057666355,807.707159914283693
,0428,KEAT,No,HOUSING TAMU,0428,KEAT,Keathley Residence Hall,1966,05,214 University Dr,College Station,77843,Keathley Residence Hall | KEAT | 0428,222.583104409837233,1309.307760910938669
,1064,,No,ACADEMIC,1064,,Soil & Crop Sciences Greenhouse,1967,01,380 Turk Rd,College Station,77843,Soil & Crop Sciences Greenhouse |  | 1064,170.953463032772788,684.213495298702014
,1051,CUSE,No,ACADEMIC,1051,CUSE,Center for Urban and Structural Entomology (CUSE),1988,02,160 Agronomy Rd,College Station,77843,Center for Urban and Structural Entomology (CUSE) | CUSE | 1051,137.562168819748024,675.113573900031042
,1066,,No,ACADEMIC,1066,,Cotton Ginning Lab,1966,02,373 Turk Rd,College Station,77843,Cotton Ginning Lab |  | 1066,115.960829420192510,534.351567440999588
, ,,No,UNIVERSITY,,,,,,,,, |  | ,67.462891719608564,283.904217356457650
,1067,,No,ACADEMIC,1067,,Agronomy Field Crop Laboratory,1971,01,410 Turk Rd,College Station,77843,Agronomy Field Crop Laboratory |  | 1067,168.935036566899385,596.039823811846986
,0861,INSC,No,ACADEMIC,0861,INSC,CUSE-Chemistry,1958,01,156 Agronomy Rd,College Station,77843,CUSE-Chemistry | INSC | 0861,51.635251779454265,153.932390968506894
,1087,,No,UNIVERSITY,1087,,CMP-Quarantine Unit,1980,01,802 Turk Rd,College Station,77843,CMP-Quarantine Unit |  | 1087,63.937469830543826,201.467842048952519
,0425,HEND,No,ACADEMIC,0425,HEND,Henderson Hall,1958,03,222 Jones St,College Station,77843,Henderson Hall | HEND | 0425,156.902343093072034,855.712269459818231
,1146,BCC,No,ACADEMIC,1146,BCC,Biological Control Facility,1984,01,150 Agronomy Rd,College Station,77843,Biological Control Facility | BCC | 1146,219.349451930654880,1276.142113083135428
,1065,,No,ACADEMIC,1065,,Soil & Crop Sci Dry Processing,1966,02,373 Turk Rd,College Station,77843,Soil & Crop Sci Dry Processing |  | 1065,80.089444730010413,325.003091955299453
,0654,,No,UNIVERSITY,0654,,Generator Shed,1994,01,835 Bizzell St,College Station,77843,Generator Shed |  | 0654,17.751107943914402,19.180765507807699
,0990,CPLX,No,UNIVERSITY,0990,CPLX,Cardiovascular Pathology Lab Annex,1967,01,603 Turk Rd,College Station,77843,Cardiovascular Pathology Lab Annex | CPLX | 0990,80.110669307318773,380.431461023959457
,0463,PSYC,No,ACADEMIC,0463,PSYC,Psychology Building,1920,04,515 Coke St,College Station,77843,Psychology Building | PSYC | 0463,245.061573437322437,1663.390662079574668
,0461,COKE,No,ACADEMIC,0461,COKE,Coke Building,1951,03,415 Houston St,College Station,77843,Coke Building | COKE | 0461,114.760512045896434,753.830973642929280
,0992,,No,UNIVERSITY,0992,,TVMC-Experimental Animal Building,1970,01,605 Turk Rd,College Station,77843,TVMC-Experimental Animal Building |  | 0992,102.358971923290838,480.590066970771034
,0292,EPPR,No,HOUSING TAMU,0292,EPPR,Eppright Residence Hall,1989,04,695 Spence St,College Station,77843,Eppright Residence Hall | EPPR | 0292,224.739731568358167,1519.106543999993619
,0978,,No,UNIVERSITY,0978,,CMP-Quarantine Unit,1978,01,814 Turk Rd,College Station,77843,CMP-Quarantine Unit |  | 0978,64.126034770793552,203.395002006706164
,0997,TICK,No,UNIVERSITY,0997,TICK,Tick Research Facility,1984,01,611 Turk Rd,College Station,77843,Tick Research Facility | TICK | 0997,108.443588975025705,411.982079832756199
,0293,APPE,No,HOUSING TAMU,0293,APPE,Appelt Residence Hall,1989,04,660 Mosher Ln,College Station,77843,Appelt Residence Hall | APPE | 0293,257.367704593900385,1882.573727376000306
,0417,HART,No,HOUSING TAMU,0417,HART,Hart Residence Hall,1930,04,460 Throckmorton St,College Station,77843,Hart Residence Hall | HART | 0417,238.010174238583232,1188.427856449244928
,0989,VMCA,No,UNIVERSITY,0989,VMCA,TVMC-Caged Animals,1968,01,601 Turk Rd,College Station,77843,TVMC-Caged Animals | VMCA | 0989,92.546450559817686,477.478321110709032
,0548,CLEM,No,HOUSING TAMU,0548,CLEM,Clements Residence Hall,1981,04,211 Jones St,College Station,77843,Clements Residence Hall | CLEM | 0548,235.493193079861186,1399.013606240830541
,0456,MILS,No,ACADEMIC,0456,MILS,Military Sciences Building,1923,04,520 Coke St,College Station,77843,Military Sciences Building | MILS | 0456,186.409166266881613,1013.127700366122099
,1195,,No,ACADEMIC,1195,,Non Surgical Animal Procedure,1995,01,544 Turk Rd,College Station,77843,Non Surgical Animal Procedure |  | 1195,40.161892233328338,100.023583664754028
,0384,SCCT,No,ACADEMIC,0384,SCCT,Sam Houston Sanders Corps of Cadets Center,1992,01,475 Short St,College Station,77843,Sam Houston Sanders Corps of Cadets Center | SCCT | 0384,210.005164512090801,2037.098578006158277
,1044,,No,UNIVERSITY,1044,,TVMC-Poultry Research,1971,01,1039 Turk Rd,College Station,77843,TVMC-Poultry Research |  | 1044,47.294727568898850,136.321729993025286
, ,,No,UNIVERSITY,,,,,,,,, |  | ,137.381873851156712,990.510685995454310
,0450,DCAN,No,DINING,0450,DCAN,Duncan Dining Hall,1940,03,777 Military Mall,College Station,77843,Duncan Dining Hall | DCAN | 0450,404.092491959530321,7020.546173023407391
,0393,LIND,No,ACADEMIC,0393,LIND,John H. Lindsey Building,1983,01,646 Lewis St,College Station,77843,John H. Lindsey Building | LIND | 0393,237.522676323788232,2348.508097694446406
,0383,JJKB,No,ACADEMIC,0383,JJKB,Koldus Building,1992,03,400 Joe Routt Bl,College Station,77843,Koldus Building | JJKB | 0383,468.684999251356885,5125.049384110729989
,0379,UCPG,No,GARAGE,0379,UCPG,University Center Parking Garage,1992,07,660 Throckmorton St,College Station,77843,University Center Parking Garage | UCPG | 0379,407.993224832277463,9714.881778517787097
,1085,VSAH,No,ACADEMIC,1085,VSAH,Veterinary Small Animal Hospital,1981,03,408 Raymond Stotzer Pw,College Station,77843,Veterinary Small Animal Hospital | VSAH | 1085,320.416605460597680,4899.641768497775956
,1186,,No,UNIVERSITY,1186,,TVMC-Isolation Laboratory,1993,01,550 Raymond Stotzer Pw,College Station,77843,TVMC-Isolation Laboratory |  | 1186,87.902047234714942,480.979225443164523
,0363,,No,UNIVERSITY,0363,,Shed-VP Student Services,1976,01,750 Throckmorton St,College Station,77843,Shed-VP Student Services |  | 0363,12.718651021996498,10.086357494441717
,1502,HPCT,No,ACADEMIC,1502,HPCT,HEEP Center,1977,07,370 Olsen Bl,College Station,77843,HEEP Center | HPCT | 1502,345.920127979412712,3151.933217290831635
, ,,No,UNIVERSITY,,,,,,,,, |  | ,12.153618402925098,9.209236357414255
, ,,No,UNIVERSITY,,,,,,,,, |  | ,16.234929482130994,9.508171505726114
, ,,No,UNIVERSITY,,,,,,,,, |  | ,8.373041311817662,4.096010000990480
, ,,No,UNIVERSITY,,,,,,,,, |  | ,36.936951559031385,53.036219034154470
, ,,No,UNIVERSITY,,,,,,,,, |  | ,14.230751187418686,12.647863506794884
, ,,No,UNIVERSITY,,,,,,,,, |  | ,28.821985789116251,47.056080998167637
, ,,No,UNIVERSITY,,,,,,,,, |  | ,24.450368103430961,37.354568023456238
, ,,No,UNIVERSITY,,,,,,,,, |  | ,21.055450954772802,27.593049028361797
, ,,No,UNIVERSITY,,,,,,,,, |  | ,21.218526760093560,28.035578510778784
, ,,No,UNIVERSITY,,,,,,,,, |  | ,21.129420805938544,27.707897991107821
, ,,No,UNIVERSITY,,,,,,,,, |  | ,19.389473640740423,22.268321990982322
, ,,No,UNIVERSITY,,,,,,,,, |  | ,48.092958435497380,120.739839664216731
, ,,No,UNIVERSITY,,,,,,,,, |  | ,28.391628788819691,45.092707394273809
, ,,No,UNIVERSITY,,,,,,,,, |  | ,33.420872352879208,56.498523195679752
, ,,No,UNIVERSITY,,,,,,,,, |  | ,14.317409221781386,12.681161997955769
, ,,No,UNIVERSITY,,,,,,,,, |  | ,27.405642307606673,43.086765994242221
, ,,No,UNIVERSITY,,,,,,,,, |  | ,17.670417684742748,19.280396992772701
, ,,No,UNIVERSITY,,,,,,,,, |  | ,24.822560425222569,35.095610467873158
, ,,No,UNIVERSITY,,,,,,,,, |  | ,16.943075318092383,17.930670317928080
, ,,No,UNIVERSITY,,,,,,,,, |  | ,18.680254428765110,21.765720991701720
, ,,No,UNIVERSITY,,,,,,,,, |  | ,28.492560377047198,45.800061522735120
, ,,No,OTHER,,,,,,,,, |  | ,28.118701712787786,44.091334561965326
, ,,No,UNIVERSITY,,,,,,,,, |  | ,27.967644092204168,43.588820643122418
, ,,No,UNIVERSITY,,,,,,,,, |  | ,35.148284508833449,76.019547386456793
, ,,No,UNIVERSITY,,,,,,,,, |  | ,14.439026220027880,13.024502055175287
, ,,No,UNIVERSITY,,,,,,,,, |  | ,28.508561765427853,46.348818678491732
, ,,No,UNIVERSITY,,,,,,,,, |  | ,26.688223096324734,34.973303826746950
, ,,No,UNIVERSITY,,,,,,,,, |  | ,46.343095408317410,131.840232455303351
, ,,No,UNIVERSITY,,,,,,,,, |  | ,33.363088947271173,64.400288488179243
, ,,No,UNIVERSITY,,,,,,,,, |  | ,213.102480796105567,497.307372895392007
, ,,No,UNIVERSITY,,,,,,,,, |  | ,28.216118829503255,45.031005872658483
, ,,No,UNIVERSITY,,,,,,,,, |  | ,14.513277506172434,12.725873016908437
, ,,No,UNIVERSITY,,,,,,,,, |  | ,22.067419767489710,16.697238019501686
, ,,No,UNIVERSITY,,,,,,,,, |  | ,22.552235121769236,18.325225088901359
, ,,No,UNIVERSITY,,,,,,,,, |  | ,37.697485213091959,68.482727686880793
, ,,No,UNIVERSITY,,,,,,,,, |  | ,28.248919615591760,44.983962021556977
, ,,No,UNIVERSITY,,,,,,,,, |  | ,17.063720666579613,16.568287491157278
, ,,No,UNIVERSITY,,,,,,,,, |  | ,28.827833900472687,51.322093494295572
, ,,No,UNIVERSITY,,,,,,,,, |  | ,74.342919701201993,280.660987504142156
, ,,No,UNIVERSITY,,,,,,,,, |  | ,51.927615860509412,145.151013475296452
,1579,,No,UNIVERSITY,1579,,Small Upland Fowl Res Lab (Mothballed in 2014),1994,01,1075 George Bush Dr W,College Station,77843,Small Upland Fowl Res Lab (Mothballed in 2014) |  | 1579,96.533994294702808,399.714184344740261
, ,,No,UNIVERSITY,,,,,,,,, |  | ,21.464091082114710,18.825704994922578
, ,,No,UNIVERSITY,,,,,,,,, |  | ,37.368426006143039,56.973672385117275
, ,,No,UNIVERSITY,,,,,,,,, |  | ,60.997801937154421,160.086542491104922
, ,,No,UNIVERSITY,,,,,,,,, |  | ,25.669807799021438,33.893139030844402
, ,,No,UNIVERSITY,,,,,,,,, |  | ,64.280102779671623,328.508132388855188
, ,,No,UNIVERSITY,,,,,,,,, |  | ,96.000337407927816,732.720798881940254
, ,,No,UNIVERSITY,,,,,,,,, |  | ,9.986957033017521,6.229117509031370
, ,,No,UNIVERSITY,,,,,,,,, |  | ,96.071042838036092,733.800512122114469
, ,,No,UNIVERSITY,,,,,,,,, |  | ,17.043552870959559,16.865714972805083
, ,,No,UNIVERSITY,,,,,,,,, |  | ,54.655464359361801,186.697020909821333
, ,,No,UNIVERSITY,,,,,,,,, |  | ,11.886172673718345,8.326614003114463
, ,,No,UNIVERSITY,,,,,,,,, |  | ,23.512798263909946,26.207879287083220
, ,,No,UNIVERSITY,,,,,,,,, |  | ,96.047299619358654,481.305187288037359
, ,,No,UNIVERSITY,,,,,,,,, |  | ,142.374517303386085,659.786393423274490
, ,,No,UNIVERSITY,,,,,,,,, |  | ,74.799532442074550,281.174988548808926
, ,,No,UNIVERSITY,,,,,,,,, |  | ,66.909621569814448,253.916719544589171
,9101,,No,UNIVERSITY,9101,,Agronomy Road 138kV Substation Control House,1994,01,174 Agronomy Rd,College Station,77843,Agronomy Road 138kV Substation Control House |  | 9101,53.524044441225250,149.104457384699288
, ,,No,UNIVERSITY,,,,,,,,, |  | ,10.181293692461169,6.445010511738107
, ,,No,UNIVERSITY,,,,,,,,, |  | ,13.383310273583856,10.878276992755710
, ,,No,UNIVERSITY,,,,,,,,, |  | ,7.090095763983489,2.470885498863503
, ,,No,UNIVERSITY,,,,,,,,, |  | ,8.585892659703259,3.900455000184551
, ,,No,UNIVERSITY,,,,,,,,, |  | ,11.405311628332621,8.070782506952732
, ,,No,UNIVERSITY,,,,,,,,, |  | ,11.591156314352901,8.337813000026241
, ,,No,UNIVERSITY,,,,,,,,, |  | ,12.424834447646591,6.819409996140896
, ,,No,UNIVERSITY,,,,,,,,, |  | ,30.091396235474111,12.430241489341018
, ,,No,UNIVERSITY,,,,,,,,, |  | ,11.037730898204094,7.099788002491637
, ,,No,UNIVERSITY,,,,,,,,, |  | ,12.182938067325132,8.899181505377353
, ,,No,UNIVERSITY,,,,,,,,, |  | ,41.803193000897210,86.398311580702511
,1549,,No,SPORTS,1549,,Olsen Field Batting Cage Facility,2005,01,949 Olsen Bl,College Station,77843,Olsen Field Batting Cage Facility |  | 1549,121.684098251890262,925.436264410773560
,1570,WCTC,No,SPORTS,1570,WCTC,Omar Smith Instructional Tennis Center,2003,01,746 Penberthy Bl,College Station,77843,Omar Smith Instructional Tennis Center | WCTC | 1570,89.465698068744913,367.042145744481559
,1600,GGB,No,OTHER,1600,GGB,Gilchrist Building (T.T.I.),1999,03,2929 Research Pw,College Station,77843,Gilchrist Building (T.T.I.) | GGB | 1600,198.482998310926661,2129.666303749761482
,1609,TTIHQ,No,OTHER,1609,TTIHQ,TTI State Headquarters & Research Building,2010,04,2935 Research Pw,College Station,77843,TTI State Headquarters & Research Building | TTIHQ | 1609,242.202524129488637,2276.583039356907193
,0386,CHEN,No,ACADEMIC,0386,CHEN,Jack E. Brown Chemical Engineering Building,2004,07,100 Spence St,College Station,77843,Jack E. Brown Chemical Engineering Building | CHEN | 0386,258.324372068559171,3812.215490880154903
,0297,MPHY,No,ACADEMIC,0297,MPHY,Mitchell Physics Building,2009,07,578 University Dr,College Station,77843,Mitchell Physics Building | MPHY | 0297,241.808484372851638,2737.417736598562897
,0296,MIST,No,ACADEMIC,0296,MIST,Mitchell Inst for Fundamental Phys & Astronomy,2009,07,576 University Dr,College Station,77843,Mitchell Inst for Fundamental Phys & Astronomy | MIST | 0296,109.236769688296022,774.085714141113272
,0356,,No,UNIVERSITY,0356,,Parking Booth At PA35,1997,01,704 Lamar St,College Station,77843,Parking Booth At PA35 |  | 0356,18.692476291035810,19.428307991555151
,1906,TIPS C,No,UNIVERSITY,1906,TIPS C,Texas A&M Institute for Preclinical Studies C,2009,01,812 Raymond Stotzer Pw,College Station,77843,Texas A&M Institute for Preclinical Studies C | TIPS C | 1906,41.230860831148881,105.064462004822090
,1605,CEN,No,ACADEMIC,1605,CEN,Centeq Building,1991,02,1500 Research Pw,College Station,77843,Centeq Building | CEN | 1605,362.659324750429505,2957.326160487881680
, ,,No,UNIVERSITY,,,,,,,,, |  | ,119.289316271083763,1132.379044701486691
,3100,HGLR,No,OTHER,3100,HGLR,Hagler Center,1998,03,401 George Bush Dr,College Station,77843,Hagler Center | HGLR | 3100,295.253260459177113,2234.648144432653680
,1905,TIPS B,No,UNIVERSITY,1905,TIPS B,Texas A&M Institute for Preclinical Studies B,2009,01,806 Raymond Stotzer Pw,College Station,77843,Texas A&M Institute for Preclinical Studies B | TIPS B | 1905,41.106701972726817,104.480643290022286
,1904,TIPS A,No,OTHER,1904,TIPS A,Texas A&M Institute for Preclinical Studies A,2009,02,800 Raymond Stotzer Pw,College Station,77843,Texas A&M Institute for Preclinical Studies A | TIPS A | 1904,406.598654088585249,6784.095796427250207
, ,,No,UNIVERSITY,,,,,,,,, |  | ,41.438531048312029,84.539508438876283
,1569,,No,UNIVERSITY,1569,,Mitchell Tennis Center Ticket Booth,2004,01,754 Penberthy Bl,College Station,77843,Mitchell Tennis Center Ticket Booth |  | 1569,28.911606948409073,50.414966167259102
,1525,NMR,No,ACADEMIC,1525,NMR,Nuclear Magnetic Resonance Facility,2010,03,272 Olsen Bl,College Station,77843,Nuclear Magnetic Resonance Facility | NMR | 1525,243.862069609191536,1766.804029938370377
,1456,Bldg H,No,HOUSING TAMU,1456,,The Gardens H,2010,03,302 Ball St,College Station,77843,The Gardens H | Bldg H | 1456,200.742990146183928,1290.711292972893716
,1455,Bldg G,No,HOUSING TAMU,1455,,The Gardens G,2010,03,302 Ball St,College Station,77843,The Gardens G | Bldg G | 1455,200.742832408776422,1290.709504163796964
,1454,Bldg F,No,HOUSING TAMU,1454,,The Gardens F,2010,03,302 Ball St,College Station,77843,The Gardens F | Bldg F | 1454,200.742824788321741,1290.711171848287449
,1450,,No,HOUSING TAMU,1450,,Laundry @ The Gardens,2010,01,302 Ball St,College Station,77843,Laundry @ The Gardens |  | 1450,62.460185481384691,206.608597295001573
,1453,Bldg L,No,HOUSING TAMU,1453,,The Gardens L,2010,03,302 Ball St,College Station,77843,The Gardens L | Bldg L | 1453,200.742954348778994,1290.709763656758696
,1452,Bldg K,No,HOUSING TAMU,1452,,The Gardens K,2010,03,302 Ball St,College Station,77843,The Gardens K | Bldg K | 1452,200.742696887587073,1290.709950848849530
,1451,Bldg J,No,HOUSING TAMU,1451,,The Gardens J,2010,03,302 Ball St,College Station,77843,The Gardens J | Bldg J | 1451,200.742828168010334,1290.709815563352095
,0446,RDER,No,ACADEMIC,0446,RDER,Rudder Tower,1973,14,401 Joe Routt Bl,College Station,77843,Rudder Tower | RDER | 0446,474.405596656195314,7694.394167294829458
,0200,,No,UNIVERSITY,0200,,Dr. David E. Schob Military Appreciation Home,2010,01,906 Ashburn Av,College Station,77843,Dr. David E. Schob Military Appreciation Home |  | 0200,59.780701839910890,180.532714357189803
,3196,,No,UNIVERSITY,3196,,Hensel Park Telecom Building,2010,01,570 Floriculture Rd,College Station,77843,Hensel Park Telecom Building |  | 3196,83.633584565098403,436.097547651798209
,1499,SUP2,No,UNIVERSITY,1499,SUP2,Satellite Utility Plant No. 2,1988,01,401 Turk Rd,College Station,77843,Satellite Utility Plant No. 2 | SUP2 | 1499,231.520687007114248,2763.076050086109717
,2942,,No,LEASE,2942,,Telecommunications Services Center (expired 2013),1997,02,7610 Eastmark Dr,College Station,77843,Telecommunications Services Center (expired 2013) |  | 2942,157.304973562112878,1065.048180847423964
,1535,AGLS,No,ACADEMIC,1535,AGLS,Agriculture and Life Sciences Building,2011,05,600 John Kimbrough Bl,College Station,77843,Agriculture and Life Sciences Building | AGLS | 1535,327.823177056755526,3053.125785156818438
,1538,AGCT,No,ACADEMIC,1538,AGCT,The AgriLife Center,2011,02,556 John Kimbrough Bl,College Station,77843,The AgriLife Center | AGCT | 1538,145.384632144607423,1155.217164824232214
,1194,VLAH,No,ACADEMIC,1194,VLAH,Veterinary Large Animal Hospital,1993,02,500 Raymond Stotzer Pw,College Station,77843,Veterinary Large Animal Hospital | VLAH | 1194,789.021222946048624,10359.504445582164408
,1910,NCTM,No,OTHER,1910,NCTM,National Center for Therapeutics Manufacturing,2011,02,100 Discovery Dr,College Station,77843,National Center for Therapeutics Manufacturing | NCTM | 1910,555.580212517230279,10870.313960709017920
, ,,No,UNIVERSITY,,,,,,,,, |  | ,55.471608092250925,191.738064790754834
,1536,AGSV,No,ACADEMIC,1536,AGSV,AgriLife Services Building,2011,05,578 John Kimbrough Bl,College Station,77843,AgriLife Services Building | AGSV | 1536,183.286330417555945,1469.464191413603203
,0454,MSC,No,ACADEMIC,0454,MSC,Memorial Student Center,1951,04,275 Joe Routt Bl,College Station,77843,Memorial Student Center | MSC | 0454,1023.379946683302023,17699.454100378759904
,0275,LAAH,No,ACADEMIC,0275,LAAH,Liberal Arts and Arts & Humanities Building,2012,05,399 Spence St,College Station,77843,Liberal Arts and Arts & Humanities Building | LAAH | 0275,282.795870186969580,2322.429456121611111
,1457,Bldg M,No,HOUSING TAMU,1457,,The Gardens M,2011,03,1100 Hensel Dr,College Station,77843,The Gardens M | Bldg M | 1457,208.080761834341189,1298.146336028686164
,1461,,No,HOUSING TAMU,1461,,Activity Building,2011,01,1100 Hensel Dr,College Station,77843,Activity Building |  | 1461,85.101254938373245,372.133520913187908
,1459,Bldg P,No,HOUSING TAMU,1459,,The Gardens P,2011,03,1100 Hensel Dr,College Station,77843,The Gardens P | Bldg P | 1459,221.951567699369491,1342.886155464514104
,1460,Bldg Q,No,HOUSING TAMU,1460,,The Gardens Q,2011,03,1100 Hensel Dr,College Station,77843,The Gardens Q | Bldg Q | 1460,223.266322433301895,1346.173856813333487
,1458,Bldg N,No,HOUSING TAMU,1458,,The Gardens N,2011,03,1100 Hensel Dr,College Station,77843,The Gardens N | Bldg N | 1458,207.562595758583541,1301.187097885320782
,0270,ETB,No,ACADEMIC,0270,ETB,Emerging Technologies Building,2011,06,101 Bizzell St,College Station,77843,Emerging Technologies Building | ETB | 0270,417.593482570118681,4619.924256627622526
,1581,,No,UNIVERSITY,1581,,Penberthy RecSports Maintenance Bldg,2011,01,901 Penberthy Bl,College Station,77843,Penberthy RecSports Maintenance Bldg |  | 1581,67.807906065584191,231.981012097255956
,1578,,No,SPORTS,1578,,Penberthy RecSports Pavilion,2011,01,1000 Penberthy Bl,College Station,77843,Penberthy RecSports Pavilion |  | 1578,138.258241643412731,1049.001272557305811
,1568,,No,SPORTS,1568,,Varsity Soccer Press Box,2004,03,369 Tom Chandler Dr,College Station,77843,Varsity Soccer Press Box |  | 1568,192.504047746005597,834.931891263335729
,0474,YMCA,No,ACADEMIC,0474,YMCA,YMCA Building,1913,04,365 Houston St,College Station,77843,YMCA Building | YMCA | 0474,153.044369991685357,1217.073774470034550
,1237,EAA,No,ACADEMIC,1237,EAA,Equine Athletic Riding Arena,2008,01,523 Turk Rd,College Station,77843,Equine Athletic Riding Arena | EAA | 1237,166.060663978099171,1591.751048938994927
,1402,BUZB,No,HOUSING TAMU,1402,BUZB,Buzbee Leadership Learning Center,2012,05,682 Military Mall,College Station,77843,Buzbee Leadership Learning Center | BUZB | 1402,83.433900640729519,334.058466832390820
,8901,,No,OTHER,8901,,GSC Portable Building,2002,01,648 Agronomy Rd,College Station,77843,GSC Portable Building |  | 8901,79.358716371336968,388.807917874044279
,8900,,No,ACADEMIC,8900,W5AC,W5AC Amateur Radio Club Building,2002,01,582 Floriculture Rd,College Station,77843,W5AC Amateur Radio Club Building |  | 8900,57.471426548972445,195.908325540446526
,1572,,No,UNIVERSITY,1572,,Soccer/Intramural Restroom,2011,01,946 Olsen Bl,College Station,77843,Soccer/Intramural Restroom |  | 1572,42.372132749415158,112.208755527367373
,0358,DPDC,No,SPORTS,0358,DPDC,Davis Football Player Development Center,2012,01,886 Houston St,College Station,77843,Davis Football Player Development Center | DPDC | 0358,186.497740593369798,1846.814560850378257
,1540,PEAP,No,ACADEMIC,1540,PEAP,Physical Education Activity Program Building,2013,02,632 Penberthy Rd,College Station,77843,Physical Education Activity Program Building | PEAP | 1540,367.624552670933213,6906.759718790964143
,3170,,No,UNIVERSITY,3170,,Horticulture Garden Volunteer Office,2002,01,540 Floriculture Rd,College Station,77843,Horticulture Garden Volunteer Office |  | 3170,21.767464276953234,28.634635308511907
,1416,HLBL,No,HOUSING TAMU,1416,HLBL,Hullabaloo Residence Hall,2013,04,306 University Dr,College Station,77843,Hullabaloo Residence Hall | HLBL | 1416,655.995173783867358,5103.773756432012306
,1248,VWSH,No,UNIVERSITY,1248,VWSH,Transportation Car/Bus Wash Building,2006,01,438 Agronomy Rd,College Station,77843,Transportation Car/Bus Wash Building | VWSH | 1248,75.996586389375281,360.967571424852338
, ,,No,UNIVERSITY,,,,,,,,, |  | ,27.613551564402254,41.885598754417394
,0468a,SCC,No,LIBRARY,,,,,,,,, | SCC | ,129.357584173857731,913.119972651676107
, ,USDA,Yes,FEDERAL,,,,,,,,, | USDA | ,22.429652389057122,31.442840327199939
, ,USDA,Yes,FEDERAL,,,,,,,,, | USDA | ,48.582644890659942,122.965743405858461
, ,USDA,Yes,FEDERAL,,,,,,,,, | USDA | ,35.190042336285195,73.684691313595138
, ,USDA,Yes,FEDERAL,,,,,,,,, | USDA | ,30.481541647988283,53.321490979004921
, ,USDA,Yes,FEDERAL,,,,,,,,, | USDA | ,16.166947044170385,15.373517635361686
, ,USDA,Yes,FEDERAL,,,,,,,,, | USDA | ,89.110331223735585,317.817613027570644
, ,USDA,Yes,FEDERAL,,,,,,,,, | USDA | ,89.728830777380423,318.822125051459295
, ,USDA,Yes,FEDERAL,,,,,,,,, | USDA | ,48.339005667274350,134.850029372177346
, ,USDA,Yes,FEDERAL,,,,,,,,, | USDA | ,48.339005661626715,134.850029331242013
, ,USDA,Yes,FEDERAL,,,,,,,,, | USDA | ,25.079462815296985,39.303147207606123
, ,USDA,Yes,FEDERAL,,,,,,,,, | USDA | ,19.301541935985362,20.589552412579572
, ,USDA,Yes,FEDERAL,,,,,,,,, | USDA | ,21.627440536098668,28.394710793575179
, ,USDA,Yes,FEDERAL,,,,,,,,, | USDA | ,67.117971453906662,260.784971112449398
, ,USDA,Yes,FEDERAL,,,,,,,,, | USDA | ,82.534009835393690,320.384362943730878
, ,USDA,Yes,FEDERAL,,,,,,,,, | USDA | ,44.195682018499014,119.848320120300428
, ,USDA,Yes,FEDERAL,,,,,,,,, | USDA | ,192.594663370516855,1119.032429084458727
, ,USDA,Yes,FEDERAL,,,,,,,,, | USDA | ,108.087758314558016,456.246235089642937
, ,USDA,Yes,FEDERAL,,,,,,,,, | USDA | ,50.301919847106582,130.393532682571418
, ,USDA,Yes,FEDERAL,,,,,,,,, | USDA | ,129.584251355115299,771.906619807553852
, ,USDA,Yes,FEDERAL,,,,,,,,, | USDA | ,38.143502231566593,82.277254828865125
, ,USDA,Yes,FEDERAL,,,,,,,,, | USDA | ,71.104849109337124,271.841391882765834
, ,USDA,Yes,FEDERAL,,,,,,,,, | USDA | ,41.807412386617720,108.762363109372615
, ,USDA,Yes,FEDERAL,,,,,,,,, | USDA | ,72.144268626575609,243.241400778891574
, ,USDA,Yes,FEDERAL,,,,,,,,, | USDA | ,25.639111167147359,39.042502575514590
, ,USDA,Yes,FEDERAL,,,,,,,,, | USDA | ,79.899191060944702,267.096793735559913
, ,USDA,Yes,FEDERAL,,,,,,,,, | USDA | ,61.996359410868386,231.820938461236892
, ,USDA,Yes,FEDERAL,,,,,,,,, | USDA | ,74.587156398323003,278.772397675601553
,1403,ASH,No,HOUSING TAMU,1403,ASH1,"H. Grady Ash, Jr. '58 Leadership Learning Center",2014,04,693 Military Mall,College Station,77843,"H. Grady Ash, Jr. '58 Leadership Learning Center | ASH | 1403",90.309261442534009,340.665142451517852
,1582,PDCWC,No,SPORTS,1582,PDCWC,Player Development Center-West Campus,2014,01,447 Tom Chandler Dr,College Station,77843,Player Development Center-West Campus | PDCWC | 1582,248.249700796982154,1989.888936602346121
, ,,No,UNIVERSITY,,,,,,,,, |  | ,16.064219623793960,16.080492597693922
, ,,No,UNIVERSITY,,,,,,,,, |  | ,17.148077112216843,18.372010502707816
,1240,,No,UNIVERSITY,1240,,LARR SUPPORT SHOP A,,,,,,LARR SUPPORT SHOP A |  | 1240,28.727454203236331,49.055243783654937
,1241,,No,UNIVERSITY,1241,,LARR SUPPORT SHOP B,,,,,,LARR SUPPORT SHOP B |  | 1241,20.729011713176799,25.735159200301755
,3190,,No,UNIVERSITY,3190,,Becky Gates Children's Center Multipurpose Bldg,2009,01,1121 Hensel Dr,College Station,77843,Becky Gates Children's Center Multipurpose Bldg |  | 3190,76.958494909113938,357.083250426634663
,1541,PEBC,No,SPORTS,1541,PEBC,Physical Education Boot Camp and Archery Annex,2013,01,762 Penberthy Bl,College Station,77843,Physical Education Boot Camp and Archery Annex | PEBC | 1541,140.515769659016115,1053.885627499194698
,1440,,No,UNIVERSITY,1440,,Golf Cart Storage Building,2013,01,837 Bizzell St,College Station,77843,Golf Cart Storage Building |  | 1440,158.495853863143282,817.542490015821500
,1611,GERB,No,ACADEMIC,1611,GERB,Giesecke Engineering Research Building,2015,03,1617 Research Pw,College Station,77843,Giesecke Engineering Research Building | GERB | 1611,271.107280995673364,3404.150536542091231
,1247,,No,UNIVERSITY,1247,,Hazardous Waste Office & Support Bldg,2008,01,2659 Dairy Center Rd,College Station,77843,Hazardous Waste Office & Support Bldg |  | 1247,107.048222283580145,509.420093912643779
, ,,No,UNIVERSITY,,,,,,,,, |  | ,19.846810454846466,19.085381391579251
,,,No,UNIVERSITY,,,,,,,,, |  | ,177.763170332736166,1042.589031262573371
,1811,VMR,No,ACADEMIC,1811,VMR,Vet Med Research Bldg Addition,2010,03,588 Raymond Stotzer Pw,College Station,77843,Vet Med Research Bldg Addition | VMR | 1811,187.720193203880967,1387.685895966423459
,1197,VRB,No,ACADEMIC,1197,VRB,Veterinary Research Building,1993,04,588 Raymond Stotzer Pw,College Station,77843,Veterinary Research Building | VRB | 1197,282.161955249285370,2271.396428704258597
,3195,,No,UNIVERSITY,3195,,Hensel Park Telecom Building #2,2015,01,594 Floriculture Rd,College Station,77843,Hensel Park Telecom Building #2 |  | 3195,83.513867100989685,435.595825518048400
,,,No,UNIVERSITY,,,,,,,,, |  | ,44.195065864206597,110.531835877826552
,PA01,UC01,Yes,HOUSING PVT,PA01,UC01,U Centre #01,,,"907 Cross St, Ste 01",College Station,77840,U Centre #01 | UC01 | PA01,152.359252952981592,954.139170342221860
,PA02,UC02,Yes,HOUSING PVT,PA02,UC02,U Centre #02,,,"907 Cross St, Ste 02",College Station,77840,U Centre #02 | UC02 | PA02,271.842002303036338,1077.464230670048437
,PA03,UC03,Yes,HOUSING PVT,PA03,UC03,U Centre #03,,,"907 Cross St, Ste 03",College Station,77840,U Centre #03 | UC03 | PA03,271.842418432572970,1077.464945885236375
,PA04,UC04,Yes,HOUSING PVT,PA04,UC04,U Centre #04,,,"907 Cross St, Ste 04",College Station,77840,U Centre #04 | UC04 | PA04,335.616970536529095,1340.860065041098778
,PA05,UC05,Yes,HOUSING PVT,PA05,UC05,U Centre #05,,,"907 Cross St, Ste 05",College Station,77840,U Centre #05 | UC05 | PA05,287.576580952742859,1279.868021142242014
,PA06,UC06,Yes,HOUSING PVT,PA06,UC06,U Centre #06,,,"907 Cross St, Ste 06",College Station,77840,U Centre #06 | UC06 | PA06,287.570858141193696,1279.877029713714819
,PA07,UC07,Yes,HOUSING PVT,PA07,UC07,U Centre #07,,,"907 Cross St, Ste 07",College Station,77840,U Centre #07 | UC07 | PA07,287.570114644289731,1279.876206943677971
,PA08,UC08,Yes,HOUSING PVT,PA08,UC08,U Centre #08,,,"907 Cross St, Ste 08",College Station,77840,U Centre #08 | UC08 | PA08,287.571067921135295,1279.877575545335731
,PA09,UC09,Yes,HOUSING PVT,PA09,UC09,U Centre #09,,,"907 Cross St, Ste 09",College Station,77840,U Centre #09 | UC09 | PA09,287.569289779069663,1279.875665258826757
,PA10,UC10,Yes,HOUSING PVT,PA10,UC10,U Centre #10,,,"907 Cross St, Ste 10",College Station,77840,U Centre #10 | UC10 | PA10,287.569549762733459,1279.876296133228607
,PA11,UC11,Yes,HOUSING PVT,PA11,UC11,U Centre #11,,,"907 Cross St, Ste 11",College Station,77840,U Centre #11 | UC11 | PA11,38.254698211991169,91.277849518625146
,1810,,No,OTHER,1810,,Office of the State Chemist Building,2006,01,445 Agronomy Rd,College Station,77843,Office of the State Chemist Building |  | 1810,235.981513870604203,2715.706866438044017
,1590,Bldg A,No,HOUSING TAMU,1590,,White Creek Apartments #1,2015,05,225 Discovery Dr,College Station,77843,White Creek Apartments #1 | Bldg A | 1590,561.646757392636573,3247.048502808260764
,1591,Bldg B,No,HOUSING TAMU,1591,,White Creek Apartments #2,2015,05,225 Discovery Dr,College Station,77843,White Creek Apartments #2 | Bldg B | 1591,585.188015436549790,3545.744940345196483
,1592,Bldg C,No,HOUSING TAMU,1592,,White Creek Apartments #3,2015,05,225 Discovery Dr,College Station,77843,White Creek Apartments #3 | Bldg C | 1592,588.888798535279079,3544.834487777536651
,1589,,No,HOUSING TAMU,1589,,White Creek Apartments Activity Center,2015,01,225 Discovery Dr,College Station,77843,White Creek Apartments Activity Center |  | 1589,121.051855778197805,540.963629461420169
,0458,EABC,No,ACADEMIC,0458,EABC,Engineering Activities Bldg C,1954,01,588 Lamar St,College Station,77843,Engineering Activities Bldg C | EABC | 0458,253.184836640487788,1067.469614565525717
,0459,EABB,No,ACADEMIC,0459,EABB,Engineering Activities Bldg B,1949,01,620 Lamar St,College Station,77843,Engineering Activities Bldg B | EABB | 0459,177.583635913374110,710.746859951109172
,0460,EABA,No,ACADEMIC,0460,EABA,Engineering Activities Bldg A,1954,01,646 Lamar St,College Station,77843,Engineering Activities Bldg A | EABA | 0460,266.774918766416306,1122.180721467789226
,1813,VIDI,No,ACADEMIC,1813,VIDI,Veterinary Medicine Building 2 (VIDI),2016,04,668 Raymond Stotzer Pw,College Station,77843,Veterinary Medicine Building 2 (VIDI) | VIDI | 1813,264.291484746867582,3070.230096866413078
,1814,VICI,No,ACADEMIC,1814,VICI,Veterinary Medicine Building 3 (VICI),2016,04,664 Raymond Stotzer Pw,College Station,77843,Veterinary Medicine Building 3 (VICI) | VICI | 1814,266.572686792659113,3604.021279480980411
,1812,VENI,No,ACADEMIC,1812,VENI,Veterinary Medicine Building 1 (VENI),2016,03,660 Raymond Stotzer Pw,College Station,77843,Veterinary Medicine Building 1 (VENI) | VENI | 1812,356.471113867125212,4692.323881400766368
,1804,ENTO,No,ACADEMIC,1804,ENTO,Rollins Urban and Structural Entomology Facility,2014,01,2656 F&B Rd,College Station,77843,Rollins Urban and Structural Entomology Facility | ENTO | 1804,163.137925547135552,931.591753544715971
,0165,,No,ACADEMIC,0165,,Schubot Exotic Bird Health Center,2014,01,701 Farm Service Rd,College Station,77843,Schubot Exotic Bird Health Center |  | 0165,210.726012501210988,1244.398127211747806
,,,No,UNIVERSITY,,,,,,,,, |  | ,38.492104830105568,53.235887593185538
,8577,,No,OTHER,8577,,Flammable Materials Storage at CUP,2008,01,222 Ireland St,College Station,77843,Flammable Materials Storage at CUP |  | 8577,34.316956700569605,66.643651391108719
,0289,,No,OTHER,0289,,Central Utility Plant Electrical Building,2015,01,222 Ireland St,College Station,77843,Central Utility Plant Electrical Building |  | 0289,29.165390409906085,49.194792238223563
,0367,KYLE,No,SPORTS,0367,KYLE,Kyle Field,1927,09,161 Wellborn Rd,College Station,77843,Kyle Field | KYLE | 0367,1765.133730238732369,44766.780926523621019
,2902,707A,No,LEASE,2902,,707 Texas Ave Bldg A [lease terminated 2016],1978,02,707 Texas Av,College Station,77843,707 Texas Ave Bldg A [lease terminated 2016] | 707A | 2902,159.566704162914988,616.988354680812222
,2926,,No,LEASE,2926,,All Seasons Storage (LEASE VACATED 2/2017),2012,01,3201 Earl Rudder Fw S,College Station,77843,All Seasons Storage (LEASE VACATED 2/2017) |  | 2926,169.013189910793869,947.165136930583117
,2941,,No,LEASE,2941,,402 Harvey Mitchell (Valley Park II),2010,01,402 Harvey Mitchell Pw,College Station,77843,402 Harvey Mitchell (Valley Park II) |  | 2941,214.723010887510412,2360.135835723905075
,2943,,No,LEASE,2943,,"2901 E 29th St,Ste118(CarterCrkCtr)-DOES NOT EXIST",2009,01,,Bryan,77807,"2901 E 29th St,Ste118(CarterCrkCtr)-DOES NOT EXIST |  | 2943",162.184624134917243,1126.841762381082845
,2944,,No,LEASE,2944,,Science Park Bldg (Suite 700) INACTIVE,2012,01,2501 Earl Rudder Fw S,College Station,77843,Science Park Bldg (Suite 700) INACTIVE |  | 2944,317.995126290278108,6174.303664353654312
,2946,,No,LEASE,2946,,Science Park Bldg (Suite 701),2013,01,2501 Earl Rudder Fw S,College Station,77843,Science Park Bldg (Suite 701) |  | 2946,306.985024188153488,5670.197408499107041
,1911,MSRB,No,OTHER,1911,MSRB,Multi-Species Resource Building,2015,02,1000 MSRB Dr,College Station,77843,Multi-Species Resource Building | MSRB | 1911,289.475333885912733,1775.171328572708944
,,,No,UNIVERSITY,,,,,,,,, |  | ,73.269453576736694,295.529134087272951
,1000,,No,UNIVERSITY,1000,,Farm Service Office,1957,02,652 Farm Service Rd,College Station,77843,Farm Service Office |  | 1000,35.486258107096511,75.941005668522479
,,,No,OTHER,,,,,,,,, |  | ,165.971873112808908,810.281663426255591
,,,Yes,CONSTRUCTION,,,,,,,,, |  | ,138.304998588340879,935.670905159844665
,0062,,No,STUDENT SERVICES,0062,DSB,Disability Services Bldg,2015,01,701 West Campus Bl,College Station,77843,Disability Services Bldg |  | 0062,105.592670517184189,610.290697357606064
,0063,,No,STUDENT SERVICES,0063,CB2,Conference Building #2,2015,01,713 West Campus Bl,College Station,77843,Conference Building #2 |  | 0063,55.566480573360082,182.848954193914977
,0064,,No,STUDENT SERVICES,0064,RES,Residence Life Bldg,2015,01,735 West Campus Bl,College Station,77843,Residence Life Bldg |  | 0064,91.256891342911629,487.529815971303378
,0065,,No,STUDENT SERVICES,0065,SCSRB,Student Counseling Service Reception Bldg,2015,01,757 West Campus Bl,College Station,77843,Student Counseling Service Reception Bldg |  | 0065,69.894733313873260,305.157239937008342
,0066,,No,STUDENT SERVICES,0066,SCSB1,Student Counseling Service Bldg #1,2015,01,769 West Campus Bl,College Station,77843,Student Counseling Service Bldg #1 |  | 0066,113.113993325214807,675.139049432397314
,0067,,No,STUDENT SERVICES,0067,SCSB2,Student Counseling Service Bldg #2,2015,01,781 West Campus Bl,College Station,77843,Student Counseling Service Bldg #2 |  | 0067,113.112149215075803,674.844245682864425
,0068,,No,STUDENT SERVICES,0068,SL2,Student Life Bldg #2,2015,01,803 West Campus Bl,College Station,77843,Student Life Bldg #2 |  | 0068,69.856326139471975,304.804600391536042
,0069,,No,STUDENT SERVICES,0069,CB1,Conference Building #1,2015,01,815 West Campus Bl,College Station,77843,Conference Building #1 |  | 0069,55.634291687452318,183.548186672155964
,0070,,No,STUDENT SERVICES,0070,SL1,Student Life Bldg #1,2015,01,837 West Campus Bl,College Station,77843,Student Life Bldg #1 |  | 0070,98.665268046047416,551.102636001246083
,1809,TVMDL,No,UNIVERSITY,1809,,TVMDL Building,2016,02,483 Agronomy Rd,College Station,77843,TVMDL Building | TVMDL | 1809,293.977889569851811,4019.473588106024636
,0385,DLEB,No,ACADEMIC,0385,DLEB,Dwight Look Engineering Building,1987,10,199 Spence St,College Station,77843,Dwight Look Engineering Building | DLEB | 0385,136.728165036579753,1174.302284503977262
,0677,,No,SPORTS,0677,,Golf Course Halfway House,1978,01,849 Bizzell St,College Station,77843,Golf Course Halfway House |  | 0677,38.394265719924491,85.711560378743712
,1542,HCRF,No,ACADEMIC,1542,HCRB,Human Clinical Research Building,2017,02,675 John Kimbrough Bl,College Station,77843,Human Clinical Research Building | HCRF | 1542,158.985774728752261,1281.221606745614054
,1537,,No,ACADEMIC,1537,WFES,"Wildlife, Fisheries & Ecological Sciences Building",2017,05,534 John Kimbrough Bl,College Station,77843,"Wildlife, Fisheries & Ecological Sciences Building |  | 1537",183.118888668643990,1472.358961554031339
,,,No,UNIVERSITY,,,,,,,,, |  | ,87.548779437122676,609.944511120152356
,1597,,No,UNIVERSITY,1597,,IODP Hazmat Containment,2002,01,1002 Discovery Dr,College Station,77843,IODP Hazmat Containment |  | 1597,11.454975746303052,7.983229523042446
,0824,,No,OTHER,0824,,Grounds Maintenance Implement Shed,1937,01,,College Station,77843,Grounds Maintenance Implement Shed |  | 0824,37.302807946044197,71.053193070363719
,0170,,No,OTHER,0170,,TVMC-Deer Shelter (demolished),1964,01,670 Turk Rd,College Station,77843,TVMC-Deer Shelter (demolished) |  | 0170,31.406843689871579,61.607252322601212
,0000,,No,ACADEMIC,,,,,,,,, |  | ,13.298886679920400,10.552756326769360
, ,,No,UNIVERSITY,,,,,,,,, |  | ,28.508561749255037,46.348818615573443
,,,No,UNIVERSITY,,,,,,,,, |  | ,11.034817774514361,7.504646921298128
,,,No,UNIVERSITY,,,,,,,,, |  | ,11.034957506371409,7.504843237720568
,,,No,UNIVERSITY,,,,,,,,, |  | ,11.034959761155067,7.504843244621668
,,,No,UNIVERSITY,,,,,,,,, |  | ,11.034817763168867,7.504646907385658
,,,No,UNIVERSITY,,,,,,,,, |  | ,11.034817764139230,7.504646906973269
,,,No,UNIVERSITY,,,,,,,,, |  | ,11.034957496811259,7.504843222982947
,,,No,UNIVERSITY,,,,,,,,, |  | ,11.034829197642134,7.504645436685575
,,,No,UNIVERSITY,,,,,,,,, |  | ,11.034831430436617,7.504645415047039
,,,No,UNIVERSITY,,,,,,,,, |  | ,11.034817763168867,7.504646907385658
,,,No,UNIVERSITY,,,,,,,,, |  | ,11.034970532910645,7.504837702626869
,,,No,UNIVERSITY,,,,,,,,, |  | ,11.034957496811259,7.504843222982947
,,,No,UNIVERSITY,,,,,,,,, |  | ,11.034957501555871,7.504843232204530
,,,No,UNIVERSITY,,,,,,,,, |  | ,11.034830789163063,7.504641372291960
,,,No,UNIVERSITY,,,,,,,,, |  | ,11.034957512559268,7.504843244621668
,,,No,UNIVERSITY,,,,,,,,, |  | ,11.034957501046486,7.504843230708827
,,,No,UNIVERSITY,,,,,,,,, |  | ,11.034957501555871,7.504843232204530
,,,No,UNIVERSITY,,,,,,,,, |  | ,11.034971813966576,7.504837695202738
,,,No,UNIVERSITY,,,,,,,,, |  | ,11.034971177332654,7.504883379480535
,,,No,UNIVERSITY,,,,,,,,, |  | ,11.034957512086420,7.504843246529761
,,,No,UNIVERSITY,,,,,,,,, |  | ,11.034817773615762,7.504646921710517
,,,No,UNIVERSITY,,,,,,,,, |  | ,11.034817763594553,7.504646908881362
,,,No,UNIVERSITY,,,,,,,,, |  | ,11.034817763085094,7.504646907385659
,,,No,UNIVERSITY,,,,,,,,, |  | ,11.034957496811259,7.504843222982947
,,,No,UNIVERSITY,,,,,,,,, |  | ,11.034817764055456,7.504646906973269
,,,No,UNIVERSITY,,,,,,,,, |  | ,11.034970527585642,7.504837695615128
,,,No,UNIVERSITY,,,,,,,,, |  | ,11.034957496811259,7.504843222982947
,,,No,UNIVERSITY,,,,,,,,, |  | ,11.034957506371409,7.504843237720568
,,,No,UNIVERSITY,,,,,,,,, |  | ,11.034957511577035,7.504843245034058
,,,No,UNIVERSITY,,,,,,,,, |  | ,11.034957502100518,7.504843230296437
,,,No,UNIVERSITY,,,,,,,,, |  | ,11.034831440966958,7.504645429372270
,,,No,UNIVERSITY,,,,,,,,, |  | ,11.034689448066233,7.504449103624954
,,,No,UNIVERSITY,,,,,,,,, |  | ,11.034957496811259,7.504843222982947
,,,No,UNIVERSITY,,,,,,,,, |  | ,11.034957501046486,7.504843230708827
,,,No,UNIVERSITY,,,,,,,,, |  | ,11.034957501046486,7.504843230708827
,,,No,UNIVERSITY,,,,,,,,, |  | ,11.034689457626177,7.504449118362203
,,,No,UNIVERSITY,,,,,,,,, |  | ,11.034957495840860,7.504843223395337
,,,No,UNIVERSITY,,,,,,,,, |  | ,11.034830789163063,7.504641372291960
,,,No,UNIVERSITY,,,,,,,,, |  | ,11.034831435726080,7.504645422360342
,,,No,UNIVERSITY,,,,,,,,, |  | ,11.034817763085094,7.504646907385659
,,,No,UNIVERSITY,,,,,,,,, |  | ,11.034817763085094,7.504646907385659
,,,No,UNIVERSITY,,,,,,,,, |  | ,11.034817764055456,7.504646906973269
,,,No,UNIVERSITY,,,,,,,,, |  | ,11.034817764055456,7.504646906973269
,,,No,UNIVERSITY,,,,,,,,, |  | ,11.034957502100518,7.504843230296437
,,,No,UNIVERSITY,,,,,,,,, |  | ,11.034959755949579,7.504843237308178
,,,No,UNIVERSITY,,,,,,,,, |  | ,11.034829181906062,7.504645415047039
,,,No,UNIVERSITY,,,,,,,,, |  | ,11.034957501046486,7.504843230708827
,,,No,UNIVERSITY,,,,,,,,, |  | ,48.422494492969435,105.721079637695311
,,,No,UNIVERSITY,,,,,,,,, |  | ,48.422494477179356,105.721079541388917
,,,No,UNIVERSITY,,,,,,,,, |  | ,48.422494492969435,105.721079637695311
,,,No,UNIVERSITY,,,,,,,,, |  | ,48.422494492511404,105.721079601292516
,,,No,UNIVERSITY,,,,,,,,, |  | ,48.422494487706061,105.721079606568836
,,,No,UNIVERSITY,,,,,,,,, |  | ,48.422494487248017,105.721079570166040
,,,No,UNIVERSITY,,,,,,,,, |  | ,48.422494492511376,105.721079601292530
,,,No,UNIVERSITY,,,,,,,,, |  | ,48.422494487706061,105.721079606568836
,0518,ZEEC,No,ACADEMIC,0518,ZEEC,Zachry Engineering Education Complex,1972,08,125 Spence St,College Station,77843,Zachry Engineering Education Complex | ZEEC | 0518,583.597896478597590,10798.231326012042700
,,,No,UNIVERSITY,,,,,,,,, |  | ,17.554855668371978,14.412474248857327
,,,No,UNIVERSITY,,,,,,,,, |  | ,17.554855668371978,14.412474248857327
,,,No,UNIVERSITY,,,,,,,,, |  | ,17.554855663107634,14.412474237073674
,,,No,UNIVERSITY,,,,,,,,, |  | ,17.554855663529654,14.412474226408543
,,,No,UNIVERSITY,,,,,,,,, |  | ,17.554855668371978,14.412474248857327
,,,No,UNIVERSITY,,,,,,,,, |  | ,17.554855652579498,14.412474214435459
,,,No,UNIVERSITY,,,,,,,,, |  | ,17.554855657843603,14.412474226219111
,,,No,UNIVERSITY,,,,,,,,, |  | ,17.554855652579441,14.412474214435459
,,,No,UNIVERSITY,,,,,,,,, |  | ,17.554855668793813,14.412474238192193
,,,No,UNIVERSITY,,,,,,,,, |  | ,17.554855663107634,14.412474237073674
,,,No,UNIVERSITY,,,,,,,,, |  | ,17.554855668371740,14.412474248857327
,,,No,UNIVERSITY,,,,,,,,, |  | ,17.554855652579498,14.412474214435459
,,,No,UNIVERSITY,,,,,,,,, |  | ,17.554855657843603,14.412474226219111
,,,No,UNIVERSITY,,,,,,,,, |  | ,17.554855657843603,14.412474226219111
,,,No,UNIVERSITY,,,,,,,,, |  | ,17.554855657843603,14.412474226219111
,,,No,UNIVERSITY,,,,,,,,, |  | ,17.554855657843603,14.412474226219111
,,,No,UNIVERSITY,,,,,,,,, |  | ,17.554855668371978,14.412474248857327
,,,No,UNIVERSITY,,,,,,,,, |  | ,17.554855668371740,14.412474248857327
,,,No,UNIVERSITY,,,,,,,,, |  | ,17.554855657843603,14.412474226219111
,,,No,UNIVERSITY,,,,,,,,, |  | ,17.554855652579441,14.412474214435459
,,,No,OTHER,,,,,,,,, |  | ,63.171405798468726,191.706976804464432
,1493,,No,UNIVERSITY,1493,,Agronomy Road - T8 PCR,,,,,,Agronomy Road - T8 PCR |  | 1493,38.240363763658422,83.616101178827165
,1404,PLNK,No,HOUSING TAMU,1404,PLNK,Plank Leadership Learning Center,2016,04,622 Military Mall,College Station,77843,Plank Leadership Learning Center | PLNK | 1404,180.466278695580854,758.558265607562589
,1405,ASH2,No,HOUSING TAMU,1405,ASH2,"Ash, II Leadership Learning Center",2016,04,621 Military Mall,College Station,77843,"Ash, II Leadership Learning Center | ASH2 | 1405",176.655583048582400,728.572829768521729
,0409,WHIT,No,HOUSING TAMU,0409,WHIT,White Hall - Dorm 10,1938,05,736 Military Mall,College Station,77843,White Hall - Dorm 10 | WHIT | 0409,193.079135261626135,971.026444970004491
,0411,UTAY,No,HOUSING TAMU,0411,UTAY,Utay Hall - Dorm 12,1938,05,766 Military Mall,College Station,77843,Utay Hall - Dorm 12 | UTAY | 0411,195.151902279626910,978.324969296372501
,0408,WHTE,No,HOUSING TAMU,0408,WHTE,Whitely Hall - Dorm 9,1938,05,735 Military Mall,College Station,77843,Whitely Hall - Dorm 9 | WHTE | 0408,194.235625459715607,976.732946161029872
,0410,HARR,No,HOUSING TAMU,0410,HARR,Harrington Hall - Dorm 11,1938,05,767 Military Mall,College Station,77843,Harrington Hall - Dorm 11 | HARR | 0410,195.779993257729927,976.469022622100510
,1805,,No,ACADEMIC,1805,STLA,Scotts Turf Lab 1 (Admin Bldg),2016,01,3100 F&B Rd,College Station,77843,Scotts Turf Lab 1 (Admin Bldg) |  | 1805,136.904587870094161,752.239896634486172
,1806,,No,ACADEMIC,1806,STLS,Scotts Turf Lab 2 (Shop Bldg),2016,02,3106 F&B Rd,College Station,77843,Scotts Turf Lab 2 (Shop Bldg) |  | 1806,168.040272786853279,1111.404710788738612
,,,No,UNIVERSITY,,,,,,,,, |  | ,34.827179585731585,68.316977228508975
,,,No,UNIVERSITY,,,,,,,,, |  | ,32.481584880459771,47.769560923723141
,,,No,UNIVERSITY,,,,,,,,, |  | ,34.161859704399198,65.050235370612228
,,,No,UNIVERSITY,,,,,,,,, |  | ,16.696575220976701,17.414829634150617
,9791,,No,MECH,9791,,Billy Pickard Pedestrian Passageway,,,101 John Kimbrough Bl,College Station,77843,Billy Pickard Pedestrian Passageway |  | 9791,2.062295694445867,0.265174896342951
,9795,,No,MECH,9795,,Wellborn Road Grade Separation Pumps,,,,,,Wellborn Road Grade Separation Pumps |  | 9795,3.882697998518850,0.937160758778615
,9794,,No,MECH,9794,,Wellborn Road Grade Separation,,,,,,Wellborn Road Grade Separation |  | 9794,1.947621824325342,0.234338115597124
,1544,CAIN,No,GARAGE,1544,,Cain Parking Garage,2016,05,500 Gene Stallings Bl,College Station,77843,Cain Parking Garage | CAIN | 1544,419.211610458144719,9406.682179629589882
,,,No,GARAGE,,,,,,,,, |  | ,321.674657475644835,271.851108503819489
,,,No,GARAGE,,,,,,,,, |  | ,67.408578310126330,19.600664516978682
,,,No,GARAGE,,,,,,,,, |  | ,109.925724426507998,32.610225147404570
,,,No,GARAGE,,,,,,,,, |  | ,74.729822593592075,21.524743080044153
,,,No,GARAGE,,,,,,,,, |  | ,74.730798552282678,21.524196850805019
,,,No,LEASE,,,,,,,,, |  | ,117.857205140471720,850.142194779498368
,PC05,CC05,Yes,SERVICE PVT,PC05,CC05,Calvary Court #05,,,"200 Century Ct, Ste 05",College Station,77840,Calvary Court #05 | CC05 | PC05,105.574200126400171,460.195118008408201
,PC06,CC06,Yes,SERVICE PVT,PC06,CC06,Calvary Court #06,,,"200 Century Ct, Ste 06",College Station,77840,Calvary Court #06 | CC06 | PC06,104.994082635229461,449.393164804269645
,PC07,CC07,Yes,SERVICE PVT,PC07,CC07,Calvary Court #07,,,"200 Century Ct, Ste 07",College Station,77840,Calvary Court #07 | CC07 | PC07,99.889984930077730,423.385771886021246
,PC08,CC08,Yes,SERVICE PVT,PC08,CC08,Calvary Court #08,,,"200 Century Ct, Ste 08",College Station,77840,Calvary Court #08 | CC08 | PC08,108.220302979698658,470.152172866894034
,PC09,CC09,Yes,SERVICE PVT,PC09,CC09,Calvary Court #09,,,"200 Century Ct, Ste 09",College Station,77840,Calvary Court #09 | CC09 | PC09,38.740652556690144,76.076507593455958
,PC02,CC03,Yes,SERVICE PVT,PC02,CC03,Calvary Court #03,,,"200 Century Ct, Ste 03",College Station,77840,Calvary Court #03 | CC03 | PC02,162.549804824475757,1220.850324055767260
,PC01,CC01,Yes,SERVICE PVT,PC01,CC01,Calvary Court #01,,,"200 Century Ct, Ste 01",College Station,77840,Calvary Court #01 | CC01 | PC01,90.919528588154918,350.418033106904602
,PC04,CC02,Yes,SERVICE PVT,PC04,CC02,Calvary Court #02,,,"200 Century Ct, Ste 02",College Station,77840,Calvary Court #02 | CC02 | PC04,90.418647377406444,418.494131748308121
,PC03,CC04,Yes,SERVICE PVT,PC03,CC04,Calvary Court #04,,,"200 Century Ct, Ste 04",College Station,77840,Calvary Court #04 | CC04 | PC03,43.113282355414995,116.171548208549268
,PC19,CS05,Yes,SERVICE PVT,PC19,CS05,Century Square #05,,,1289 University Dr,College Station,77840,Century Square #05 | CS05 | PC19,89.021521796843700,490.747651862434282
,PC11,GH02,Yes,SERVICE PVT,PC11,GH02,The George Hotel #02,,,"180 Century Ct, Ste 02",College Station,77840,The George Hotel #02 | GH02 | PC11,101.336671996795786,421.855816909911880
,PC10,GH01,Yes,SERVICE PVT,PC10,GH01,The George Hotel #01,,,"180 Century Ct, Ste 01",College Station,77840,The George Hotel #01 | GH01 | PC10,403.930455748673808,3148.259603637187411
,PC12,PRK01,Yes,HOUSING PVT,PC12,PRK01,100 Park,,,170 Century Square Dr,College Station,77840,100 Park | PRK01 | PC12,741.943249261081746,7197.388078700166261
,PC15,CS03,Yes,SERVICE PVT,PC15,CS03,Century Square #03,,,144 Century Square Ct,College Station,77840,Century Square #03 | CS03 | PC15,103.723835477005608,597.367277579779966
,PC14,CS02,Yes,SERVICE PVT,PC14,CS02,Century Square #02,,,143 Century Square Dr,College Station,77840,Century Square #02 | CS02 | PC14,103.681161028776131,597.333266093277530
,PC13,CS01,Yes,SERVICE PVT,PC13,CS01,Century Square #01,,,175 Century Square Dr,College Station,77840,Century Square #01 | CS01 | PC13,186.226721561025130,1431.198517326059800
,PC16,CS04,Yes,SERVICE PVT,PC16,CS04,Century Square #04,,,166 Century Square Ct,College Station,77840,Century Square #04 | CS04 | PC16,186.328023774681469,1431.210815068413694
,PC24,CS10,Yes,SERVICE PVT,PC24,CS10,Century Square #10,,,1099 University Dr,College Station,77840,Century Square #10 | CS10 | PC24,106.161566782893473,633.994467348831790
,PC25,CS11,Yes,SERVICE PVT,PC25,CS11,Century Square #11,,,1025 University Dr,College Station,77840,Century Square #11 | CS11 | PC25,184.546088127437770,1557.898756611904901
,2952,,No,LEASE,2952,,Transportation Svcs-Village Center Building F,2017,01,"702 University Drive East, Suite F101",College Station,,Transportation Svcs-Village Center Building F |  | 2952,69.924014006734993,310.170584737830950
,1586,,No,SPORTS,1586,,Penberthy South Restroom,,,1122 Penberthy Bl,College Station,,Penberthy South Restroom |  | 1586,42.310069102110027,109.868596391604314
,1587,,No,SPORTS,1587,,Penberthy South Control Building,,,1234 Penderthy Bl,College Station,,Penberthy South Control Building |  | 1587,66.223354280051780,272.486171161977268
,PC17,CS13,Yes,SERVICE PVT,PC17,CS13,Century Square #13,,,155 Century Square Ct,College Station,77840,Century Square #13 | CS13 | PC17,238.301492747176496,2113.551272644484925
,PC18,CS12,Yes,SERVICE PVT,PC18,CS12,Century Square #12,,,1037 University Dr,College Station,77840,Century Square #12 | CS12 | PC18,226.515148883465201,2035.295090203593418
,0071,,No,STUDENT SERVICES,0071,SCO,Student Conduct Office,2017,01,849 West Campus Bl,College Station,77843,Student Conduct Office |  | 0071,83.633861140785982,422.179467280710242
,0072,,No,STUDENT SERVICES,0072,SL3,Student Life Bldg #3,2017,01,861 West Campus Bl,College Station,77843,Student Life Bldg #3 |  | 0072,111.761259692447439,660.140664185421201
,1545,,No,SERVICE PVT,1545,,Cain Site Hotel,,,177 Joe Routt BL,College Station,77843,Cain Site Hotel |  | 1545,432.798896767656458,6930.307286255706458
,,,No,OTHER,,,,,,,,, |  | ,43.777540774210877,88.862951171795061
,1593,WCCC,No,DINING,1593,,White Creek Community Center,,,667 West Campus Bl,College Station,77844,White Creek Community Center | WCCC | 1593,300.125733823617850,3178.580915202002871
,0682,WEB,No,ACADEMIC,0682,WEB,Wisenbaker Engineering Building,1983,04,188 Bizzell St,College Station,77843,Wisenbaker Engineering Building | WEB | 0682,150.793329123209674,1420.619670128224243
,1488,,No,OTHER,1488,UESIT,UES IT Modular Building,2017,01,146 AGRONOMY RD,College Station,77843,UES IT Modular Building |  | 1488,56.083312426664165,187.293166129633335
,PB01,PW A,Yes,HOUSING PVT,PB01,PWA,Park West A,,,"503 George Bush Dr W, Ste A",College Station,77840,Park West A | PW A | PB01,135.823713590274394,660.940401264660977
,PB02,PW B,Yes,HOUSING PVT,PB02,PWB,Park West B,,,"503 George Bush Dr W, Ste B",College Station,77840,Park West B | PW B | PB02,135.827403958769651,661.010494972646711
,PB03,PW C,Yes,HOUSING PVT,PB03,PWC,Park West C,,,"503 George Bush Dr W, Ste C",College Station,77840,Park West C | PW C | PB03,135.823857675168796,660.938792235548931
,PB04,PW D,Yes,HOUSING PVT,PB04,PWD,Park West D,,,"503 George Bush Dr W, Ste D",College Station,77840,Park West D | PW D | PB04,135.827119845904747,661.009385649169076
,PB05,PW E,Yes,HOUSING PVT,PB05,PWE,Park West E,,,"503 George Bush Dr W, Ste E",College Station,77840,Park West E | PW E | PB05,135.823997652676638,660.939223274168171
,PB06,PW F,Yes,HOUSING PVT,PB06,PWF,Park West F,,,"503 George Bush Dr W, Ste F",College Station,77840,Park West F | PW F | PB06,135.827403969790737,661.011222190025592
,PB07,PW G,Yes,HOUSING PVT,PB07,PWG,Park West G,,,"503 George Bush Dr W, Ste G",College Station,77840,Park West G | PW G | PB07,699.619273316151975,5073.693364688105248
,PB08,PW H,Yes,HOUSING PVT,PB08,PWH,Park West H,,,"503 George Bush Dr W, Ste H",College Station,77840,Park West H | PW H | PB08,699.619529584964880,5073.693361241799721
,PB09,PW J,Yes,HOUSING PVT,PB09,PWJ,Park West J,,,"503 George Bush Dr W, Ste J",College Station,77840,Park West J | PW J | PB09,1491.044776484713566,17579.105899943177064
,PB10,PW K,Yes,HOUSING PVT,PB10,PWK,Park West K,,,"503 George Bush Dr W, Ste K",College Station,77840,Park West K | PW K | PB10,135.823910524276329,660.940046105566466
,PB11,PW L,Yes,HOUSING PVT,PB11,PWL,Park West L,,,"503 George Bush Dr W, Ste L",College Station,77840,Park West L | PW L | PB11,135.827289181485753,661.009624723547404
,PB12,PW M,Yes,HOUSING PVT,PB12,PWM,Park West M,,,"503 George Bush Dr W, Ste M",College Station,77840,Park West M | PW M | PB12,135.823875648426508,660.940362694181886
,PB13,PW N,Yes,HOUSING PVT,PB13,PWN,Park West N,,,"503 George Bush Dr W, Ste N",College Station,77840,Park West N | PW N | PB13,135.827130702592029,661.009881510434411
,PB14,PW P,Yes,HOUSING PVT,PB14,PWP,Park West P,,,"503 George Bush Dr W, Ste P",College Station,77840,Park West P | PW P | PB14,135.827271824099967,661.009536279398390
,PB15,PW Q,Yes,HOUSING PVT,PB15,PWQ,Park West Q,,,"503 George Bush Dr W, Ste Q",College Station,77840,Park West Q | PW Q | PB15,135.824157792468952,660.941067497724021
,2911,,No,LEASE,2911,,"700 East University, Suite 104",2000,01,700 E University Dr Ste 104,College Station,77843,"700 East University, Suite 104 |  | 2911",85.010690247154173,321.139941546505327
, ,,No,UNIVERSITY,,,,,,,,, |  | ,145.385304696860885,1166.708624594904222
, ,,No,UNIVERSITY,,,,,,,,, |  | ,45.901598588783422,95.517498690123546
,2938,,No,LEASE,2938,,400 Harvey Mitchell Pw (Valley Park Center),2009,01,400 Harvey Mitchell Pw Ste 300,College Station,77843,400 Harvey Mitchell Pw (Valley Park Center) |  | 2938,402.459281896127663,5083.582383198683601